id;id_fantoir;numero;rep;nom_voie;code_postal;code_insee;nom_commune;code_insee_ancienne_commune;nom_ancienne_commune;x;y;lon;lat;alias;nom_ld;libelle_acheminement;nom_afnor;source_position;source_nom_voie
01019_0095_00078;01019_0095;78;;Rue du Pointey;01510;01019;Armix;;;900637.78;6531081.74;5.585862;45.849819;;;ARMIX;RUE DU POINTEY;inconnue;inconnue
01019_0030_00040;01019_0030;40;;Rue de l'Ecole;01510;01019;Armix;;;900570.21;6530989.75;5.584953;45.849011;;;ARMIX;RUE DE L ECOLE;inconnue;inconnue
01019_0102_00032;01019_0102;32;;Route de Premillieu;01510;01019;Armix;;;900572.71;6531041.39;5.585007;45.849475;;;ARMIX;ROUTE DE PREMILLIEU;inconnue;inconnue
01019_0102_00075;01019_0102;75;;Route de Premillieu;01510;01019;Armix;;;900530.83;6531054.35;5.584473;45.849604;;;ARMIX;ROUTE DE PREMILLIEU;inconnue;inconnue
01019_0005_00015;01019_0005;15;;Rue de Bellevue;01510;01019;Armix;;;900570.78;6530941.55;5.58494;45.848577;;;ARMIX;RUE DE BELLEVUE;inconnue;inconnue
01019_0005_00037;01019_0005;37;;Rue de Bellevue;01510;01019;Armix;;;900572.21;6530923.93;5.584951;45.848418;;;ARMIX;RUE DE BELLEVUE;inconnue;inconnue
01019_0005_00044;01019_0005;44;;Rue de Bellevue;01510;01019;Armix;;;900564.35;6530910.34;5.584844;45.848298;;;ARMIX;RUE DE BELLEVUE;inconnue;inconnue
01019_0080_00029;01019_0080;29;;Rue des Jardins;01510;01019;Armix;;;900726.62;6531012.65;5.586977;45.849171;;;ARMIX;RUE DES JARDINS;inconnue;inconnue
01019_0065_00005;01019_0065;5;;Rue du Four;01510;01019;Armix;;;900689.73;6530986.66;5.586491;45.848948;;;ARMIX;RUE DU FOUR;inconnue;inconnue
01019_0065_00033;01019_0065;33;;Rue du Four;01510;01019;Armix;;;900678.37;6530975.63;5.58634;45.848852;;;ARMIX;RUE DU FOUR;inconnue;inconnue
01019_0055_00002;01019_0055;2;;Place de la Fontaine;01510;01019;Armix;;;900597.21;6531011.63;5.58531;45.8492;;;ARMIX;PLACE DE LA FONTAINE;inconnue;inconnue
01019_0045_00002;01019_0045;2;;Place de l'Eglise;01510;01019;Armix;;;900606.82;6531000.39;5.585429;45.849096;;;ARMIX;PLACE DE L EGLISE;inconnue;inconnue
01019_0045_00020;01019_0045;20;;Place de l'Eglise;01510;01019;Armix;;;900610.6;6530993.96;5.585475;45.849037;;;ARMIX;PLACE DE L EGLISE;inconnue;inconnue
01019_0045_00026;01019_0045;26;;Place de l'Eglise;01510;01019;Armix;;;900612.17;6530991.23;5.585494;45.849012;;;ARMIX;PLACE DE L EGLISE;inconnue;inconnue
01019_0045_00036;01019_0045;36;;Place de l'Eglise;01510;01019;Armix;;;900623.9;6530972.17;5.585637;45.848837;;;ARMIX;PLACE DE L EGLISE;inconnue;inconnue
01019_0045_00066;01019_0045;66;;Place de l'Eglise;01510;01019;Armix;;;900646.03;6530965.01;5.585919;45.848766;;;ARMIX;PLACE DE L EGLISE;inconnue;inconnue
01019_0040_00010;01019_0040;10;;Route d'Egieu;01510;01019;Armix;;;900749.13;6530996.17;5.58726;45.849016;;;ARMIX;ROUTE D EGIEU;inconnue;inconnue
01019_0040_00045;01019_0040;45;;Route d'Egieu;01510;01019;Armix;;;900766.92;6531026.75;5.587502;45.849286;;;ARMIX;ROUTE D EGIEU;inconnue;inconnue
01019_0040_00063;01019_0040;63;;Route d'Egieu;01510;01019;Armix;;;900778.04;6531035.78;5.587649;45.849364;;;ARMIX;ROUTE D EGIEU;inconnue;inconnue
01019_0040_00072;01019_0040;72;;Route d'Egieu;01510;01019;Armix;;;900787.42;6531033.76;5.587769;45.849343;;;ARMIX;ROUTE D EGIEU;inconnue;inconnue
01019_0040_00243;01019_0040;243;;Route d'Egieu;01510;01019;Armix;;;900930.71;6531113.23;5.589648;45.850016;;;ARMIX;ROUTE D EGIEU;inconnue;inconnue
01019_0025_00031;01019_0025;31;;Rue de la Croze;01510;01019;Armix;;;900617.03;6531025.28;5.585571;45.849317;;;ARMIX;RUE DE LA CROZE;inconnue;inconnue
01019_0025_00051;01019_0025;51;;Rue de la Croze;01510;01019;Armix;;;900614.4;6531025.09;5.585537;45.849316;;;ARMIX;RUE DE LA CROZE;inconnue;inconnue
01019_0025_00054;01019_0025;54;;Rue de la Croze;01510;01019;Armix;;;900681.53;6530995.4;5.586389;45.849029;;;ARMIX;RUE DE LA CROZE;inconnue;inconnue
01019_0025_00099;01019_0025;99;;Rue de la Croze;01510;01019;Armix;;;900699.17;6530999.64;5.586618;45.849062;;;ARMIX;RUE DE LA CROZE;inconnue;inconnue
01019_0105_00006;01019_0105;6;;Rue du Repos;01510;01019;Armix;;;900617.95;6531027.98;5.585584;45.849341;;;ARMIX;RUE DU REPOS;inconnue;inconnue
01019_0105_00027;01019_0105;27;;Rue du Repos;01510;01019;Armix;;;900609.84;6531050.6;5.585489;45.849547;;;ARMIX;RUE DU REPOS;inconnue;inconnue
01019_0105_00046;01019_0105;46;;Rue du Repos;01510;01019;Armix;;;900619.27;6531056.58;5.585613;45.849598;;;ARMIX;RUE DU REPOS;inconnue;inconnue
01019_0105_00051;01019_0105;51;;Rue du Repos;01510;01019;Armix;;;900610.7;6531062.08;5.585505;45.84965;;;ARMIX;RUE DU REPOS;inconnue;inconnue
01019_0105_00103;01019_0105;103;;Rue du Repos;01510;01019;Armix;;;900629.47;6531105.36;5.585765;45.850034;;;ARMIX;RUE DU REPOS;inconnue;inconnue
01019_0105_00117;01019_0105;117;;Rue du Repos;01510;01019;Armix;;;900634.68;6531119.53;5.585838;45.85016;;;ARMIX;RUE DU REPOS;inconnue;inconnue
01019_0105_00147;01019_0105;147;;Rue du Repos;01510;01019;Armix;;;900647.18;6531145.49;5.58601;45.85039;;;ARMIX;RUE DU REPOS;inconnue;inconnue
01019_0112_00026;01019_0112;26;;Route de Rossillon;01510;01019;Armix;;;900575.6;6530964.22;5.585012;45.84878;;;ARMIX;ROUTE DE ROSSILLON;cadastre;cadastre
01162_0062_00009;01162_0062;9;;Che des Grands Hautains;01350;01162;Flaxieu;;;912489.14;6526963.17;5.736647;45.809157;;;FLAXIEU;CHE DES GRANDS HAUTAINS;arcep;arcep
01279_0050_00036;01279_0050;36;;Place de l'Eglise;01230;01279;Oncieu;;;891501.29;6542970.89;5.472985;45.95946;;;ONCIEU;PLACE DE L EGLISE;inconnue;inconnue
01279_0050_00044;01279_0050;44;;Place de l'Eglise;01230;01279;Oncieu;;;891501.29;6542970.89;5.472985;45.95946;;;ONCIEU;PLACE DE L EGLISE;inconnue;inconnue
01279_0050_00050;01279_0050;50;;Place de l'Eglise;01230;01279;Oncieu;;;891501.29;6542970.89;5.472985;45.95946;;;ONCIEU;PLACE DE L EGLISE;inconnue;inconnue
01023_0030_00020;01023_0030;20;;Impasse du Chene;01570;01023;Asnières-sur-Saône;;;844707.11;6588863.34;4.883095;46.384181;;;ASNIERES-SUR-SAONE;IMPASSE DU CHENE;inconnue;inconnue
01023_0080_00009;01023_0080;9;;Impasse des Hortensias;01570;01023;Asnières-sur-Saône;;;844761.88;6588923.07;4.883826;46.384707;;;ASNIERES-SUR-SAONE;IMPASSE DES HORTENSIAS;inconnue;inconnue
01023_0145_00055;01023_0145;55;;Chemin du Pres Ney;01570;01023;Asnières-sur-Saône;;;844797.04;6588986.45;4.884303;46.38527;;;ASNIERES-SUR-SAONE;CHEMIN DU PRES NEY;inconnue;inconnue
01023_b065_00023;01023_B065;23;;Les Vercheres du Port;01570;01023;Asnières-sur-Saône;;;844120.18;6588850.25;4.875456;46.384189;;;ASNIERES-SUR-SAONE;LES VERCHERES DU PORT;inconnue;inconnue
01023_b065_00065;01023_B065;65;;Les Vercheres du Port;01570;01023;Asnières-sur-Saône;;;844112.87;6588818.2;4.875351;46.383902;;;ASNIERES-SUR-SAONE;LES VERCHERES DU PORT;inconnue;inconnue
01023_b065_00069;01023_B065;69;;Les Vercheres du Port;01570;01023;Asnières-sur-Saône;;;844114.48;6588815.02;4.875371;46.383873;;;ASNIERES-SUR-SAONE;LES VERCHERES DU PORT;inconnue;inconnue
01023_b065_00098;01023_B065;98;;Les Vercheres du Port;01570;01023;Asnières-sur-Saône;;;844094.87;6588789.44;4.875108;46.383647;;;ASNIERES-SUR-SAONE;LES VERCHERES DU PORT;inconnue;inconnue
01023_b065_00108;01023_B065;108;;Les Vercheres du Port;01570;01023;Asnières-sur-Saône;;;844090.78;6588780.35;4.875052;46.383566;;;ASNIERES-SUR-SAONE;LES VERCHERES DU PORT;inconnue;inconnue
01023_b065_00130;01023_B065;130;;Les Vercheres du Port;01570;01023;Asnières-sur-Saône;;;844081.8;6588760.25;4.874929;46.383387;;;ASNIERES-SUR-SAONE;LES VERCHERES DU PORT;inconnue;inconnue
01023_b065_00587;01023_B065;587;;Les Vercheres du Port;01570;01023;Asnières-sur-Saône;;;843873.33;6588357.62;4.872093;46.379807;;;ASNIERES-SUR-SAONE;LES VERCHERES DU PORT;inconnue;inconnue
01023_0135_00017;01023_0135;17;;Impasse du Pigeonnier;01570;01023;Asnières-sur-Saône;;;844868.03;6588710.99;4.885141;46.382775;;;ASNIERES-SUR-SAONE;IMPASSE DU PIGEONNIER;inconnue;inconnue
01023_0135_00025;01023_0135;25;;Impasse du Pigeonnier;01570;01023;Asnières-sur-Saône;;;844872.83;6588696.89;4.885199;46.382647;;;ASNIERES-SUR-SAONE;IMPASSE DU PIGEONNIER;inconnue;inconnue
01023_0045_00001;01023_0045;1;;Impasse de la Cure;01570;01023;Asnières-sur-Saône;;;844750.52;6588741.85;4.883622;46.383078;;;ASNIERES-SUR-SAONE;IMPASSE DE LA CURE;inconnue;inconnue
01023_0045_00011;01023_0045;11;;Impasse de la Cure;01570;01023;Asnières-sur-Saône;;;844764.44;6588738.62;4.883802;46.383046;;;ASNIERES-SUR-SAONE;IMPASSE DE LA CURE;inconnue;inconnue
01023_0045_00018;01023_0045;18;;Impasse de la Cure;01570;01023;Asnières-sur-Saône;;;844764.72;6588742.63;4.883807;46.383082;;;ASNIERES-SUR-SAONE;IMPASSE DE LA CURE;inconnue;inconnue
01023_0160_00009;01023_0160;9;;Impasse du Soleil Levant;01570;01023;Asnières-sur-Saône;;;844852.67;6588768.39;4.884959;46.383295;;;ASNIERES-SUR-SAONE;IMPASSE DU SOLEIL LEVANT;inconnue;inconnue
01023_0160_00031;01023_0160;31;;Impasse du Soleil Levant;01570;01023;Asnières-sur-Saône;;;844875.99;6588763.95;4.885261;46.38325;;;ASNIERES-SUR-SAONE;IMPASSE DU SOLEIL LEVANT;inconnue;inconnue
01023_0160_00032;01023_0160;32;;Impasse du Soleil Levant;01570;01023;Asnières-sur-Saône;;;844870.48;6588737.15;4.885181;46.38301;;;ASNIERES-SUR-SAONE;IMPASSE DU SOLEIL LEVANT;inconnue;inconnue
01023_0180_00048;01023_0180;48;;Rue du Vieux Puit;01570;01023;Asnières-sur-Saône;;;844777.29;6588683.05;4.883952;46.382543;;;ASNIERES-SUR-SAONE;RUE DU VIEUX PUIT;inconnue;inconnue
01023_0180_00064;01023_0180;64;;Rue du Vieux Puit;01570;01023;Asnières-sur-Saône;;;844793.54;6588694.99;4.884167;46.382647;;;ASNIERES-SUR-SAONE;RUE DU VIEUX PUIT;inconnue;inconnue
01023_0180_00090;01023_0180;90;;Rue du Vieux Puit;01570;01023;Asnières-sur-Saône;;;844861.27;6588649.51;4.885034;46.382223;;;ASNIERES-SUR-SAONE;RUE DU VIEUX PUIT;inconnue;inconnue
01023_0180_00100;01023_0180;100;;Rue du Vieux Puit;01570;01023;Asnières-sur-Saône;;;844830.72;6588705.77;4.884654;46.382736;;;ASNIERES-SUR-SAONE;RUE DU VIEUX PUIT;inconnue;inconnue
01023_0180_00172;01023_0180;172;;Rue du Vieux Puit;01570;01023;Asnières-sur-Saône;;;844859.3;6588789.99;4.885052;46.383488;;;ASNIERES-SUR-SAONE;RUE DU VIEUX PUIT;inconnue;inconnue
01023_0180_00330;01023_0180;330;;Rue du Vieux Puit;01570;01023;Asnières-sur-Saône;;;844763.29;6588902.45;4.883838;46.384521;;;ASNIERES-SUR-SAONE;RUE DU VIEUX PUIT;inconnue;inconnue
01023_0180_00100_a;01023_0180;100;a;Rue du Vieux Puit;01570;01023;Asnières-sur-Saône;;;844843.21;6588717.17;4.88482;46.382836;;;ASNIERES-SUR-SAONE;RUE DU VIEUX PUIT;inconnue;inconnue
01023_0120_00051;01023_0120;51;;Route de Manziat;01570;01023;Asnières-sur-Saône;;;844750.2;6588658.75;4.883592;46.38233;;;ASNIERES-SUR-SAONE;ROUTE DE MANZIAT;inconnue;inconnue
01023_0120_00055;01023_0120;55;;Route de Manziat;01570;01023;Asnières-sur-Saône;;;844723.53;6588655;4.883244;46.382302;;;ASNIERES-SUR-SAONE;ROUTE DE MANZIAT;inconnue;inconnue
01023_0175_00432;01023_0175;432;;Chemin des Verchères du Port;01570;01023;Asnières-sur-Saône;;;844114.53;6588715.71;4.875341;46.382979;;;ASNIERES-SUR-SAONE;CHEMIN DES VERCHERES DU PORT;inconnue;inconnue
01023_0175_00440;01023_0175;440;;Chemin des Verchères du Port;01570;01023;Asnières-sur-Saône;;;844091.16;6588667.05;4.875022;46.382546;;;ASNIERES-SUR-SAONE;CHEMIN DES VERCHERES DU PORT;inconnue;inconnue
01023_0035_00009;01023_0035;9;;Route du Creux Bouvier;01570;01023;Asnières-sur-Saône;;;844625.22;6588744.97;4.881993;46.383133;;;ASNIERES-SUR-SAONE;ROUTE DU CREUX BOUVIER;inconnue;inconnue
01023_0035_00037;01023_0035;37;;Route du Creux Bouvier;01570;01023;Asnières-sur-Saône;;;844637.99;6588715.39;4.88215;46.382864;;;ASNIERES-SUR-SAONE;ROUTE DU CREUX BOUVIER;inconnue;inconnue
01023_0050_00026;01023_0050;26;;Impasse des Cyprès;01570;01023;Asnières-sur-Saône;;;844838.79;6588873.26;4.884811;46.384242;;;ASNIERES-SUR-SAONE;IMPASSE DES CYPRES;inconnue;inconnue
01023_0040_00057;01023_0040;57;;Chemin des Crozats;01570;01023;Asnières-sur-Saône;;;844693.33;6589002.75;4.882959;46.385439;;;ASNIERES-SUR-SAONE;CHEMIN DES CROZATS;inconnue;inconnue
01023_0040_00076;01023_0040;76;;Chemin des Crozats;01570;01023;Asnières-sur-Saône;;;844691.17;6589025.47;4.882938;46.385644;;;ASNIERES-SUR-SAONE;CHEMIN DES CROZATS;inconnue;inconnue
01023_0040_00087;01023_0040;87;;Chemin des Crozats;01570;01023;Asnières-sur-Saône;;;844664.53;6589027.5;4.882592;46.385668;;;ASNIERES-SUR-SAONE;CHEMIN DES CROZATS;inconnue;inconnue
01023_0130_00023;01023_0130;23;;Route d'Ozan;01570;01023;Asnières-sur-Saône;;;844704.51;6588775.85;4.883034;46.383394;;;ASNIERES-SUR-SAONE;ROUTE D OZAN;inconnue;inconnue
01023_0130_00052;01023_0130;52;;Route d'Ozan;01570;01023;Asnières-sur-Saône;;;844745.79;6588794.94;4.883577;46.383557;;;ASNIERES-SUR-SAONE;ROUTE D OZAN;inconnue;inconnue
01023_0130_00071;01023_0130;71;;Route d'Ozan;01570;01023;Asnières-sur-Saône;;;844650.47;6588830.55;4.882348;46.383898;;;ASNIERES-SUR-SAONE;ROUTE D OZAN;inconnue;inconnue
01023_0130_00090;01023_0130;90;;Route d'Ozan;01570;01023;Asnières-sur-Saône;;;844724.51;6588823.43;4.883309;46.383818;;;ASNIERES-SUR-SAONE;ROUTE D OZAN;inconnue;inconnue
01023_0130_00097;01023_0130;97;;Route d'Ozan;01570;01023;Asnières-sur-Saône;;;844690.04;6588850.71;4.882869;46.384071;;;ASNIERES-SUR-SAONE;ROUTE D OZAN;inconnue;inconnue
01023_0130_00114;01023_0130;114;;Route d'Ozan;01570;01023;Asnières-sur-Saône;;;844744.03;6588833.67;4.883566;46.383906;;;ASNIERES-SUR-SAONE;ROUTE D OZAN;inconnue;inconnue
01023_0130_00221;01023_0130;221;;Route d'Ozan;01570;01023;Asnières-sur-Saône;;;844667.86;6588997.15;4.882626;46.385394;;;ASNIERES-SUR-SAONE;ROUTE D OZAN;inconnue;inconnue
01023_0130_00296;01023_0130;296;;Route d'Ozan;01570;01023;Asnières-sur-Saône;;;844782.27;6589018.98;4.884121;46.385566;;;ASNIERES-SUR-SAONE;ROUTE D OZAN;inconnue;inconnue
01023_0130_00298;01023_0130;298;;Route d'Ozan;01570;01023;Asnières-sur-Saône;;;844798.51;6589021.15;4.884333;46.385582;;;ASNIERES-SUR-SAONE;ROUTE D OZAN;inconnue;inconnue
01023_0155_00012;01023_0155;12;;Chemin du Saule;01570;01023;Asnières-sur-Saône;;;844755.32;6589046.67;4.883779;46.385821;;;ASNIERES-SUR-SAONE;CHEMIN DU SAULE;inconnue;inconnue
01023_0155_00047;01023_0155;47;;Chemin du Saule;01570;01023;Asnières-sur-Saône;;;844711;6589045.05;4.883202;46.385816;;;ASNIERES-SUR-SAONE;CHEMIN DU SAULE;inconnue;inconnue
01023_0140_00023;01023_0140;23;;Route du Port;01570;01023;Asnières-sur-Saône;;;844691.73;6588737.89;4.882856;46.383055;;;ASNIERES-SUR-SAONE;ROUTE DU PORT;inconnue;inconnue
01023_0140_00065;01023_0140;65;;Route du Port;01570;01023;Asnières-sur-Saône;;;844672.18;6588741.98;4.882603;46.383096;;;ASNIERES-SUR-SAONE;ROUTE DU PORT;inconnue;inconnue
01023_0140_00069;01023_0140;69;;Route du Port;01570;01023;Asnières-sur-Saône;;;844642.8;6588733.06;4.882218;46.383022;;;ASNIERES-SUR-SAONE;ROUTE DU PORT;inconnue;inconnue
01023_0140_00098;01023_0140;98;;Route du Port;01570;01023;Asnières-sur-Saône;;;844647.28;6588770.71;4.882288;46.38336;;;ASNIERES-SUR-SAONE;ROUTE DU PORT;inconnue;inconnue
01023_0140_00108;01023_0140;108;;Route du Port;01570;01023;Asnières-sur-Saône;;;844597.63;6588767.19;4.881641;46.383339;;;ASNIERES-SUR-SAONE;ROUTE DU PORT;inconnue;inconnue
01023_0140_00130;01023_0140;130;;Route du Port;01570;01023;Asnières-sur-Saône;;;844610.03;6588772.38;4.881804;46.383383;;;ASNIERES-SUR-SAONE;ROUTE DU PORT;inconnue;inconnue
01023_0140_00587;01023_0140;587;;Route du Port;01570;01023;Asnières-sur-Saône;;;844135.99;6588841.41;4.875659;46.384106;;;ASNIERES-SUR-SAONE;ROUTE DU PORT;inconnue;inconnue
01023_0140_00108_bis;01023_0140;108;bis;Route du Port;01570;01023;Asnières-sur-Saône;;;844595.69;6588767.59;4.881616;46.383343;;;ASNIERES-SUR-SAONE;ROUTE DU PORT;inconnue;inconnue
01045_dh7574_00001;;1;;Le Village;01330;01045;Birieux;;;857982.97;6541320.7;5.039803;45.95323;;;BIRIEUX;LE VILLAGE;inconnue;inconnue
01045_dh7574_00002;;2;;Le Village;01330;01045;Birieux;;;857982.97;6541320.7;5.039803;45.95323;;;BIRIEUX;LE VILLAGE;inconnue;inconnue
01045_dh7574_00003;;3;;Le Village;01330;01045;Birieux;;;857982.97;6541320.7;5.039803;45.95323;;;BIRIEUX;LE VILLAGE;inconnue;inconnue
01045_dh7574_00004;;4;;Le Village;01330;01045;Birieux;;;857982.97;6541320.7;5.039803;45.95323;;;BIRIEUX;LE VILLAGE;inconnue;inconnue
01045_yfv8v2_01111;;1111;;Bellevue;01330;01045;Birieux;;;858185.73;6540117.09;5.042018;45.942348;;;BIRIEUX;BELLEVUE;inconnue;inconnue
01045_g8swkp_00001;;1;;Les Pres de Birieux;01330;01045;Birieux;;;857990.26;6541447.54;5.039939;45.95437;;;BIRIEUX;LES PRES DE BIRIEUX;arcep;arcep
01045_g8swkp_00002;;2;;Les Pres de Birieux;01330;01045;Birieux;;;857982.6;6541473.71;5.039849;45.954607;;;BIRIEUX;LES PRES DE BIRIEUX;arcep;arcep
01045_g8swkp_00003;;3;;Les Pres de Birieux;01330;01045;Birieux;;;857976.18;6541505.89;5.039777;45.954899;;;BIRIEUX;LES PRES DE BIRIEUX;arcep;arcep
01045_g8swkp_00004;;4;;Les Pres de Birieux;01330;01045;Birieux;;;858002.41;6541508.43;5.040117;45.954915;;;BIRIEUX;LES PRES DE BIRIEUX;arcep;arcep
01045_g8swkp_00005;;5;;Les Pres de Birieux;01330;01045;Birieux;;;858031.07;6541511.73;5.040488;45.954938;;;BIRIEUX;LES PRES DE BIRIEUX;arcep;arcep
01045_g8swkp_00006;;6;;Les Pres de Birieux;01330;01045;Birieux;;;858070.77;6541516.36;5.041001;45.954971;;;BIRIEUX;LES PRES DE BIRIEUX;arcep;arcep
01045_g8swkp_00007;;7;;Les Pres de Birieux;01330;01045;Birieux;;;858097.11;6541512.33;5.04134;45.954929;;;BIRIEUX;LES PRES DE BIRIEUX;arcep;arcep
01045_g8swkp_00008;;8;;Les Pres de Birieux;01330;01045;Birieux;;;858089.22;6541482.67;5.041228;45.954663;;;BIRIEUX;LES PRES DE BIRIEUX;arcep;arcep
01045_g8swkp_00009;;9;;Les Pres de Birieux;01330;01045;Birieux;;;858093.32;6541456.61;5.041272;45.954428;;;BIRIEUX;LES PRES DE BIRIEUX;arcep;arcep
01045_g8swkp_00010;;10;;Les Pres de Birieux;01330;01045;Birieux;;;858038.26;6541470.99;5.040567;45.95457;;;BIRIEUX;LES PRES DE BIRIEUX;arcep;arcep
01045_g8swkp_00012;;12;;Les Pres de Birieux;01330;01045;Birieux;;;858047.36;6541415.71;5.040666;45.95407;;;BIRIEUX;LES PRES DE BIRIEUX;arcep;arcep
01045_g8swkp_00013;;13;;Les Pres de Birieux;01330;01045;Birieux;;;858097.25;6541428.3;5.041314;45.954172;;;BIRIEUX;LES PRES DE BIRIEUX;arcep;arcep
01045_g8swkp_00014;;14;;Les Pres de Birieux;01330;01045;Birieux;;;858096.86;6541396.7;5.041298;45.953888;;;BIRIEUX;LES PRES DE BIRIEUX;arcep;arcep
01045_g8swkp_00015;;15;;Les Pres de Birieux;01330;01045;Birieux;;;858070.72;6541379.19;5.040955;45.953736;;;BIRIEUX;LES PRES DE BIRIEUX;arcep;arcep
01045_g8swkp_00016;;16;;Les Pres de Birieux;01330;01045;Birieux;;;858101.78;6541339.45;5.041343;45.953371;;;BIRIEUX;LES PRES DE BIRIEUX;arcep;arcep
01045_g8swkp_00017;;17;;Les Pres de Birieux;01330;01045;Birieux;;;858066.83;6541342.99;5.040893;45.953411;;;BIRIEUX;LES PRES DE BIRIEUX;arcep;arcep
01045_g8swkp_00018;;18;;Les Pres de Birieux;01330;01045;Birieux;;;858042.22;6541344.81;5.040576;45.953433;;;BIRIEUX;LES PRES DE BIRIEUX;arcep;arcep
01045_g8swkp_00019;;19;;Les Pres de Birieux;01330;01045;Birieux;;;858048.65;6541380.23;5.040671;45.953751;;;BIRIEUX;LES PRES DE BIRIEUX;arcep;arcep
01045_8zpt5n_00001;;1;;Les Colverts;01330;01045;Birieux;;;858096.73;6541294.33;5.041262;45.952966;;;BIRIEUX;LES COLVERTS;arcep;arcep
01045_8zpt5n_00004;;4;;Les Colverts;01330;01045;Birieux;;;858111.3;6541194.6;5.041417;45.952065;;;BIRIEUX;LES COLVERTS;arcep;arcep
01045_8zpt5n_00005;;5;;Les Colverts;01330;01045;Birieux;;;858071.14;6541190.89;5.040898;45.952041;;;BIRIEUX;LES COLVERTS;arcep;arcep
01045_8zpt5n_00008;;8;;Les Colverts;01330;01045;Birieux;;;858053.8;6541272.43;5.040701;45.952779;;;BIRIEUX;LES COLVERTS;arcep;arcep
01045_a100_00001;01045_A100;1;;Lotissement les Pres de Birieux;01330;01045;Birieux;;;858013.96;6541452.47;5.040247;45.954409;;;BIRIEUX;LOTISSEMENT LES PRES DE BIRIEUX;inconnue;inconnue
01045_a100_00002;01045_A100;2;;Lotissement les Pres de Birieux;01330;01045;Birieux;;;858009.24;6541470.46;5.040192;45.954572;;;BIRIEUX;LOTISSEMENT LES PRES DE BIRIEUX;inconnue;inconnue
01045_a100_00003;01045_A100;3;;Lotissement les Pres de Birieux;01330;01045;Birieux;;;858008.8;6541478.22;5.040189;45.954642;;;BIRIEUX;LOTISSEMENT LES PRES DE BIRIEUX;inconnue;inconnue
01045_a100_00004;01045_A100;4;;Lotissement les Pres de Birieux;01330;01045;Birieux;;;858013.53;6541484.45;5.040252;45.954697;;;BIRIEUX;LOTISSEMENT LES PRES DE BIRIEUX;inconnue;inconnue
01045_a100_00005;01045_A100;5;;Lotissement les Pres de Birieux;01330;01045;Birieux;;;858035.23;6541493.01;5.040535;45.954769;;;BIRIEUX;LOTISSEMENT LES PRES DE BIRIEUX;inconnue;inconnue
01045_a100_00006;01045_A100;6;;Lotissement les Pres de Birieux;01330;01045;Birieux;;;858056.77;6541499.23;5.040815;45.95482;;;BIRIEUX;LOTISSEMENT LES PRES DE BIRIEUX;inconnue;inconnue
01045_a100_00007;01045_A100;7;;Lotissement les Pres de Birieux;01330;01045;Birieux;;;858057.71;6541495.7;5.040826;45.954788;;;BIRIEUX;LOTISSEMENT LES PRES DE BIRIEUX;inconnue;inconnue
01045_a100_00008;01045_A100;8;;Lotissement les Pres de Birieux;01330;01045;Birieux;;;858059.73;6541486.65;5.040849;45.954706;;;BIRIEUX;LOTISSEMENT LES PRES DE BIRIEUX;inconnue;inconnue
01045_a100_00009;01045_A100;9;;Lotissement les Pres de Birieux;01330;01045;Birieux;;;858068.96;6541456;5.040958;45.954428;;;BIRIEUX;LOTISSEMENT LES PRES DE BIRIEUX;inconnue;inconnue
01045_a100_00010;01045_A100;10;;Lotissement les Pres de Birieux;01330;01045;Birieux;;;858053.47;6541477.04;5.040765;45.954621;;;BIRIEUX;LOTISSEMENT LES PRES DE BIRIEUX;inconnue;inconnue
01045_a100_00011;01045_A100;11;;Lotissement les Pres de Birieux;01330;01045;Birieux;;;858063.37;6541468.63;5.04089;45.954543;;;BIRIEUX;LOTISSEMENT LES PRES DE BIRIEUX;inconnue;inconnue
01045_a100_00012;01045_A100;12;;Lotissement les Pres de Birieux;01330;01045;Birieux;;;858053.99;6541402.85;5.040747;45.953953;;;BIRIEUX;LOTISSEMENT LES PRES DE BIRIEUX;inconnue;inconnue
01045_a100_00013;01045_A100;13;;Lotissement les Pres de Birieux;01330;01045;Birieux;;;858074.9;6541430.05;5.041026;45.954193;;;BIRIEUX;LOTISSEMENT LES PRES DE BIRIEUX;inconnue;inconnue
01045_a100_00014;01045_A100;14;;Lotissement les Pres de Birieux;01330;01045;Birieux;;;858081.18;6541405.88;5.041099;45.953974;;;BIRIEUX;LOTISSEMENT LES PRES DE BIRIEUX;inconnue;inconnue
01045_a100_00015;01045_A100;15;;Lotissement les Pres de Birieux;01330;01045;Birieux;;;858064.93;6541399.35;5.040887;45.953919;;;BIRIEUX;LOTISSEMENT LES PRES DE BIRIEUX;inconnue;inconnue
01045_a100_00016;01045_A100;16;;Lotissement les Pres de Birieux;01330;01045;Birieux;;;858103.29;6541318.03;5.041355;45.953178;;;BIRIEUX;LOTISSEMENT LES PRES DE BIRIEUX;inconnue;inconnue
01045_a100_00017;01045_A100;17;;Lotissement les Pres de Birieux;01330;01045;Birieux;;;858073.28;6541318.92;5.040968;45.953193;;;BIRIEUX;LOTISSEMENT LES PRES DE BIRIEUX;inconnue;inconnue
01045_a100_00018;01045_A100;18;;Lotissement les Pres de Birieux;01330;01045;Birieux;;;858043.88;6541320.38;5.040589;45.953213;;;BIRIEUX;LOTISSEMENT LES PRES DE BIRIEUX;inconnue;inconnue
01045_a100_00019;01045_A100;19;;Lotissement les Pres de Birieux;01330;01045;Birieux;;;858042.5;6541394.55;5.040596;45.953881;;;BIRIEUX;LOTISSEMENT LES PRES DE BIRIEUX;inconnue;inconnue
01045_a050_00001;01045_A050;1;;Lotissement les Colverts;01330;01045;Birieux;;;858079.88;6541291.32;5.041044;45.952943;;;BIRIEUX;LOTISSEMENT LES COLVERTS;inconnue;inconnue
01045_a050_00002;01045_A050;2;;Lotissement les Colverts;01330;01045;Birieux;;;858074.57;6541268.97;5.040968;45.952743;;;BIRIEUX;LOTISSEMENT LES COLVERTS;inconnue;inconnue
01045_a050_00003;01045_A050;3;;Lotissement les Colverts;01330;01045;Birieux;;;858076.54;6541255.69;5.040989;45.952623;;;BIRIEUX;LOTISSEMENT LES COLVERTS;inconnue;inconnue
01045_a050_00004;01045_A050;4;;Lotissement les Colverts;01330;01045;Birieux;;;858105.51;6541196.23;5.041343;45.952081;;;BIRIEUX;LOTISSEMENT LES COLVERTS;inconnue;inconnue
01045_a050_00005;01045_A050;5;;Lotissement les Colverts;01330;01045;Birieux;;;858086.02;6541203.72;5.041094;45.952153;;;BIRIEUX;LOTISSEMENT LES COLVERTS;inconnue;inconnue
01045_a050_00006;01045_A050;6;;Lotissement les Colverts;01330;01045;Birieux;;;858092.41;6541196.33;5.041174;45.952085;;;BIRIEUX;LOTISSEMENT LES COLVERTS;inconnue;inconnue
01045_a050_00007;01045_A050;7;;Lotissement les Colverts;01330;01045;Birieux;;;858084.84;6541261.45;5.041098;45.952673;;;BIRIEUX;LOTISSEMENT LES COLVERTS;inconnue;inconnue
01045_a050_00008;01045_A050;8;;Lotissement les Colverts;01330;01045;Birieux;;;858075.82;6541277.66;5.040987;45.952821;;;BIRIEUX;LOTISSEMENT LES COLVERTS;inconnue;inconnue
01045_a050_00009;01045_A050;9;;Lotissement les Colverts;01330;01045;Birieux;;;858077.4;6541309.36;5.041018;45.953106;;;BIRIEUX;LOTISSEMENT LES COLVERTS;inconnue;inconnue
01045_a050_00010;01045_A050;10;;Lotissement les Colverts;01330;01045;Birieux;;;858077.4;6541309.36;5.041018;45.953106;;;BIRIEUX;LOTISSEMENT LES COLVERTS;inconnue;inconnue
01052_stteot_00001;;1;;Chemin du Reverend;01330;01052;Bouligneux;;;856494.29;6547389.41;5.022597;46.008205;;;BOULIGNEUX;CHEMIN DU REVEREND;inconnue;inconnue
01052_stteot_00025;;25;;Chemin du Reverend;01330;01052;Bouligneux;;;856494.29;6547389.41;5.022597;46.008205;;;BOULIGNEUX;CHEMIN DU REVEREND;inconnue;inconnue
01052_lser5o_00056;;56;;Le Village;01330;01052;Bouligneux;;;853997.17;6548906.99;4.990831;46.022438;;;BOULIGNEUX;LE VILLAGE;arcep;cadastre
01052_yk5f5a_00050;;50;;Reverend;01330;01052;Bouligneux;;;856590.08;6547523.09;5.023879;46.009386;;;BOULIGNEUX;REVEREND;arcep;cadastre
01052_0970_00001;01052_0970;1;;Rue de Filioly;01330;01052;Bouligneux;;;856636.97;6547186.44;5.024373;46.006345;;;BOULIGNEUX;RUE DE FILIOLY;inconnue;inconnue
01052_0970_00002;01052_0970;2;;Rue de Filioly;01330;01052;Bouligneux;;;856632.36;6547194.1;5.024316;46.006415;;;BOULIGNEUX;RUE DE FILIOLY;inconnue;inconnue
01052_0970_00003;01052_0970;3;;Rue de Filioly;01330;01052;Bouligneux;;;856616.83;6547174.82;5.024109;46.006245;;;BOULIGNEUX;RUE DE FILIOLY;inconnue;inconnue
01052_0970_00004;01052_0970;4;;Rue de Filioly;01330;01052;Bouligneux;;;856612.84;6547182.83;5.02406;46.006318;;;BOULIGNEUX;RUE DE FILIOLY;inconnue;inconnue
01052_0970_00005;01052_0970;5;;Rue de Filioly;01330;01052;Bouligneux;;;856604.5;6547169.61;5.023948;46.006201;;;BOULIGNEUX;RUE DE FILIOLY;inconnue;inconnue
01052_0970_00006;01052_0970;6;;Rue de Filioly;01330;01052;Bouligneux;;;856599.2;6547177.03;5.023882;46.006269;;;BOULIGNEUX;RUE DE FILIOLY;inconnue;inconnue
01052_0970_00008;01052_0970;8;;Rue de Filioly;01330;01052;Bouligneux;;;856551.12;6547177.69;5.023261;46.006286;;;BOULIGNEUX;RUE DE FILIOLY;inconnue;inconnue
01052_0970_00010;01052_0970;10;;Rue de Filioly;01330;01052;Bouligneux;;;856521.11;6547182.58;5.022875;46.006337;;;BOULIGNEUX;RUE DE FILIOLY;inconnue;inconnue
01052_2450_00001;01052_2450;1;;Allee de la Riviere;01330;01052;Bouligneux;;;856599.78;6547127.5;5.023873;46.005823;;;BOULIGNEUX;ALLEE DE LA RIVIERE;inconnue;inconnue
01052_2450_00002;01052_2450;2;;Allee de la Riviere;01330;01052;Bouligneux;;;856578.17;6547140.17;5.023598;46.005942;;;BOULIGNEUX;ALLEE DE LA RIVIERE;inconnue;inconnue
01052_2450_00003;01052_2450;3;;Allee de la Riviere;01330;01052;Bouligneux;;;856590.87;6547118.5;5.023755;46.005744;;;BOULIGNEUX;ALLEE DE LA RIVIERE;inconnue;inconnue
01052_2450_00004;01052_2450;4;;Allee de la Riviere;01330;01052;Bouligneux;;;856649.32;6547097.45;5.024503;46.005541;;;BOULIGNEUX;ALLEE DE LA RIVIERE;inconnue;inconnue
01052_2450_00005;01052_2450;5;;Allee de la Riviere;01330;01052;Bouligneux;;;856623.28;6547092.56;5.024165;46.005503;;;BOULIGNEUX;ALLEE DE LA RIVIERE;inconnue;inconnue
01052_2450_00006;01052_2450;6;;Allee de la Riviere;01330;01052;Bouligneux;;;856599.97;6547104.73;5.023868;46.005618;;;BOULIGNEUX;ALLEE DE LA RIVIERE;inconnue;inconnue
01052_2450_00007;01052_2450;7;;Allee de la Riviere;01330;01052;Bouligneux;;;856591;6547125.83;5.023759;46.00581;;;BOULIGNEUX;ALLEE DE LA RIVIERE;inconnue;inconnue
01052_2450_00008;01052_2450;8;;Allee de la Riviere;01330;01052;Bouligneux;;;856590.52;6547129.26;5.023754;46.005841;;;BOULIGNEUX;ALLEE DE LA RIVIERE;inconnue;inconnue
01052_2450_00009;01052_2450;9;;Allee de la Riviere;01330;01052;Bouligneux;;;856579.11;6547148.52;5.023613;46.006017;;;BOULIGNEUX;ALLEE DE LA RIVIERE;inconnue;inconnue
01052_2450_00010;01052_2450;10;;Allee de la Riviere;01330;01052;Bouligneux;;;856570.23;6547162.96;5.023503;46.006149;;;BOULIGNEUX;ALLEE DE LA RIVIERE;inconnue;inconnue
01052_2890_00001;01052_2890;1;;Allee des Vernes;01330;01052;Bouligneux;;;856569.38;6547180.82;5.023498;46.00631;;;BOULIGNEUX;ALLEE DES VERNES;inconnue;inconnue
01052_2890_00002;01052_2890;2;;Allee des Vernes;01330;01052;Bouligneux;;;856568.45;6547214.01;5.023497;46.006609;;;BOULIGNEUX;ALLEE DES VERNES;inconnue;inconnue
01052_2890_00003;01052_2890;3;;Allee des Vernes;01330;01052;Bouligneux;;;856565.23;6547249.26;5.023467;46.006927;;;BOULIGNEUX;ALLEE DES VERNES;inconnue;inconnue
01052_2890_00004;01052_2890;4;;Allee des Vernes;01330;01052;Bouligneux;;;856560.03;6547249.57;5.0234;46.006931;;;BOULIGNEUX;ALLEE DES VERNES;inconnue;inconnue
01052_2890_00005;01052_2890;5;;Allee des Vernes;01330;01052;Bouligneux;;;856570.17;6547258.71;5.023534;46.007011;;;BOULIGNEUX;ALLEE DES VERNES;inconnue;inconnue
01052_2890_00006;01052_2890;6;;Allee des Vernes;01330;01052;Bouligneux;;;856570.17;6547258.71;5.023534;46.007011;;;BOULIGNEUX;ALLEE DES VERNES;inconnue;inconnue
01052_2890_00007;01052_2890;7;;Allee des Vernes;01330;01052;Bouligneux;;;856576.67;6547231.89;5.023609;46.006768;;;BOULIGNEUX;ALLEE DES VERNES;inconnue;inconnue
01052_2890_00008;01052_2890;8;;Allee des Vernes;01330;01052;Bouligneux;;;856577.93;6547203.81;5.023616;46.006515;;;BOULIGNEUX;ALLEE DES VERNES;inconnue;inconnue
01052_2890_00009;01052_2890;9;;Allee des Vernes;01330;01052;Bouligneux;;;856578.3;6547180.05;5.023613;46.006301;;;BOULIGNEUX;ALLEE DES VERNES;inconnue;inconnue
01077_6kbkse_00616;;616;;Chemin sous Sameyriat;01450;01077;Challes-la-Montagne;;;889571.47;6560579.5;5.455148;46.118489;;;CHALLES-LA-MONTAGNE;CHEMIN SOUS SAMEYRIAT;inconnue;inconnue
01077_6kbkse_00634;;634;;Chemin sous Sameyriat;01450;01077;Challes-la-Montagne;;;889571.47;6560579.5;5.455148;46.118489;;;CHALLES-LA-MONTAGNE;CHEMIN SOUS SAMEYRIAT;inconnue;inconnue
01077_6kbkse_00758;;758;;Chemin sous Sameyriat;01450;01077;Challes-la-Montagne;;;889571.47;6560579.5;5.455148;46.118489;;;CHALLES-LA-MONTAGNE;CHEMIN SOUS SAMEYRIAT;inconnue;inconnue
01077_1uyovl_00014;;14;;Chemin des Longschamps;01450;01077;Challes-la-Montagne;;;889991.08;6561224.08;5.460839;46.124173;;;CHALLES-LA-MONTAGNE;CHEMIN DES LONGSCHAMPS;inconnue;inconnue
01077_1uyovl_00067;;67;;Chemin des Longschamps;01450;01077;Challes-la-Montagne;;;889991.08;6561224.08;5.460839;46.124173;;;CHALLES-LA-MONTAGNE;CHEMIN DES LONGSCHAMPS;inconnue;inconnue
01077_0030_00037;01077_0030;37;;Route de Cerdon;01450;01077;Challes-la-Montagne;;;890327.65;6561346.47;5.465245;46.12518;;;CHALLES-LA-MONTAGNE;ROUTE DE CERDON;inconnue;inconnue
01077_0130_00052;01077_0130;52;;Chemin du Syndicat;01450;01077;Challes-la-Montagne;;;890268.86;6561391.07;5.464502;46.125598;;;CHALLES-LA-MONTAGNE;CHEMIN DU SYNDICAT;inconnue;inconnue
01077_0130_00091;01077_0130;91;;Chemin du Syndicat;01450;01077;Challes-la-Montagne;;;890268.86;6561391.07;5.464502;46.125598;;;CHALLES-LA-MONTAGNE;CHEMIN DU SYNDICAT;inconnue;inconnue
01077_0130_00111;01077_0130;111;;Chemin du Syndicat;01450;01077;Challes-la-Montagne;;;890268.86;6561391.07;5.464502;46.125598;;;CHALLES-LA-MONTAGNE;CHEMIN DU SYNDICAT;inconnue;inconnue
01077_0130_00151;01077_0130;151;;Chemin du Syndicat;01450;01077;Challes-la-Montagne;;;890268.86;6561391.07;5.464502;46.125598;;;CHALLES-LA-MONTAGNE;CHEMIN DU SYNDICAT;inconnue;inconnue
01077_0052_00004;01077_0052;4;;Chemin du Grand Essart;01450;01077;Challes-la-Montagne;;;890031.64;6561288.46;5.46139;46.124741;;;CHALLES-LA-MONTAGNE;CHEMIN DU GRAND ESSART;inconnue;inconnue
01077_0052_00032;01077_0052;32;;Chemin du Grand Essart;01450;01077;Challes-la-Montagne;;;890031.64;6561288.46;5.46139;46.124741;;;CHALLES-LA-MONTAGNE;CHEMIN DU GRAND ESSART;inconnue;inconnue
01077_0052_00050;01077_0052;50;;Chemin du Grand Essart;01450;01077;Challes-la-Montagne;;;890031.64;6561288.46;5.46139;46.124741;;;CHALLES-LA-MONTAGNE;CHEMIN DU GRAND ESSART;inconnue;inconnue
01077_0052_00061;01077_0052;61;;Chemin du Grand Essart;01450;01077;Challes-la-Montagne;;;890031.64;6561288.46;5.46139;46.124741;;;CHALLES-LA-MONTAGNE;CHEMIN DU GRAND ESSART;inconnue;inconnue
01077_0052_00062;01077_0052;62;;Chemin du Grand Essart;01450;01077;Challes-la-Montagne;;;890031.64;6561288.46;5.46139;46.124741;;;CHALLES-LA-MONTAGNE;CHEMIN DU GRAND ESSART;inconnue;inconnue
01077_0052_00092;01077_0052;92;;Chemin du Grand Essart;01450;01077;Challes-la-Montagne;;;890031.64;6561288.46;5.46139;46.124741;;;CHALLES-LA-MONTAGNE;CHEMIN DU GRAND ESSART;inconnue;inconnue
01077_0150_00024;01077_0150;24;;Chemin du Village;01450;01077;Challes-la-Montagne;;;889162.49;6560908.88;5.449987;46.121568;;;CHALLES-LA-MONTAGNE;CHEMIN DU VILLAGE;inconnue;inconnue
01077_0150_00057;01077_0150;57;;Chemin du Village;01450;01077;Challes-la-Montagne;;;889162.49;6560908.88;5.449987;46.121568;;;CHALLES-LA-MONTAGNE;CHEMIN DU VILLAGE;inconnue;inconnue
01077_0150_00066;01077_0150;66;;Chemin du Village;01450;01077;Challes-la-Montagne;;;889162.49;6560908.88;5.449987;46.121568;;;CHALLES-LA-MONTAGNE;CHEMIN DU VILLAGE;inconnue;inconnue
01077_0150_00069;01077_0150;69;;Chemin du Village;01450;01077;Challes-la-Montagne;;;889162.49;6560908.88;5.449987;46.121568;;;CHALLES-LA-MONTAGNE;CHEMIN DU VILLAGE;inconnue;inconnue
01077_0150_00086;01077_0150;86;;Chemin du Village;01450;01077;Challes-la-Montagne;;;889162.49;6560908.88;5.449987;46.121568;;;CHALLES-LA-MONTAGNE;CHEMIN DU VILLAGE;inconnue;inconnue
01077_0150_00110;01077_0150;110;;Chemin du Village;01450;01077;Challes-la-Montagne;;;889162.49;6560908.88;5.449987;46.121568;;;CHALLES-LA-MONTAGNE;CHEMIN DU VILLAGE;inconnue;inconnue
01077_0150_00126;01077_0150;126;;Chemin du Village;01450;01077;Challes-la-Montagne;;;889162.49;6560908.88;5.449987;46.121568;;;CHALLES-LA-MONTAGNE;CHEMIN DU VILLAGE;inconnue;inconnue
01077_0044_00003;01077_0044;3;;Place de l'Eglise;01450;01077;Challes-la-Montagne;;;890314.56;6561312.95;5.465062;46.124882;;;CHALLES-LA-MONTAGNE;PLACE DE L EGLISE;inconnue;inconnue
01077_0044_00033;01077_0044;33;;Place de l'Eglise;01450;01077;Challes-la-Montagne;;;890314.56;6561312.95;5.465062;46.124882;;;CHALLES-LA-MONTAGNE;PLACE DE L EGLISE;inconnue;inconnue
01077_0044_00013_a;01077_0044;13;a;Place de l'Eglise;01450;01077;Challes-la-Montagne;;;890314.56;6561312.95;5.465062;46.124882;;;CHALLES-LA-MONTAGNE;PLACE DE L EGLISE;inconnue;inconnue
01077_0044_00013_b;01077_0044;13;b;Place de l'Eglise;01450;01077;Challes-la-Montagne;;;890314.56;6561312.95;5.465062;46.124882;;;CHALLES-LA-MONTAGNE;PLACE DE L EGLISE;inconnue;inconnue
01077_0095_00005;01077_0095;5;;Chemin de Norgeres;01450;01077;Challes-la-Montagne;;;890375.47;6561373.74;5.465875;46.125412;;;CHALLES-LA-MONTAGNE;CHEMIN DE NORGERES;inconnue;inconnue
01077_0095_00025;01077_0095;25;;Chemin de Norgeres;01450;01077;Challes-la-Montagne;;;890375.47;6561373.74;5.465875;46.125412;;;CHALLES-LA-MONTAGNE;CHEMIN DE NORGERES;inconnue;inconnue
01077_0095_00027;01077_0095;27;;Chemin de Norgeres;01450;01077;Challes-la-Montagne;;;890375.47;6561373.74;5.465875;46.125412;;;CHALLES-LA-MONTAGNE;CHEMIN DE NORGERES;inconnue;inconnue
01077_0095_00028;01077_0095;28;;Chemin de Norgeres;01450;01077;Challes-la-Montagne;;;890375.47;6561373.74;5.465875;46.125412;;;CHALLES-LA-MONTAGNE;CHEMIN DE NORGERES;inconnue;inconnue
01077_0095_00041;01077_0095;41;;Chemin de Norgeres;01450;01077;Challes-la-Montagne;;;890375.47;6561373.74;5.465875;46.125412;;;CHALLES-LA-MONTAGNE;CHEMIN DE NORGERES;inconnue;inconnue
01077_0095_00052;01077_0095;52;;Chemin de Norgeres;01450;01077;Challes-la-Montagne;;;890375.47;6561373.74;5.465875;46.125412;;;CHALLES-LA-MONTAGNE;CHEMIN DE NORGERES;inconnue;inconnue
01077_0095_00053;01077_0095;53;;Chemin de Norgeres;01450;01077;Challes-la-Montagne;;;890375.47;6561373.74;5.465875;46.125412;;;CHALLES-LA-MONTAGNE;CHEMIN DE NORGERES;inconnue;inconnue
01077_0136_00061;01077_0136;61;;Chemin de Trecherant;01450;01077;Challes-la-Montagne;;;890421.25;6561231.51;5.46641;46.124119;;;CHALLES-LA-MONTAGNE;CHEMIN DE TRECHERANT;inconnue;inconnue
01077_0125_00023;01077_0125;23;;Impasse sous Sameyriat;01450;01077;Challes-la-Montagne;;;889226.56;6560338.35;5.450587;46.116415;;;CHALLES-LA-MONTAGNE;IMPASSE SOUS SAMEYRIAT;inconnue;inconnue
01077_0125_00037;01077_0125;37;;Impasse sous Sameyriat;01450;01077;Challes-la-Montagne;;;889226.56;6560338.35;5.450587;46.116415;;;CHALLES-LA-MONTAGNE;IMPASSE SOUS SAMEYRIAT;inconnue;inconnue
01077_0125_00055;01077_0125;55;;Impasse sous Sameyriat;01450;01077;Challes-la-Montagne;;;889226.56;6560338.35;5.450587;46.116415;;;CHALLES-LA-MONTAGNE;IMPASSE SOUS SAMEYRIAT;inconnue;inconnue
01077_0055_00016;01077_0055;16;;Chemin de la Grange;01450;01077;Challes-la-Montagne;;;888913.51;6559997.99;5.446399;46.113439;;;CHALLES-LA-MONTAGNE;CHEMIN DE LA GRANGE;inconnue;inconnue
01077_0055_00022;01077_0055;22;;Chemin de la Grange;01450;01077;Challes-la-Montagne;;;888913.51;6559997.99;5.446399;46.113439;;;CHALLES-LA-MONTAGNE;CHEMIN DE LA GRANGE;inconnue;inconnue
01077_0055_00058;01077_0055;58;;Chemin de la Grange;01450;01077;Challes-la-Montagne;;;888913.51;6559997.99;5.446399;46.113439;;;CHALLES-LA-MONTAGNE;CHEMIN DE LA GRANGE;inconnue;inconnue
01077_0055_00105;01077_0055;105;;Chemin de la Grange;01450;01077;Challes-la-Montagne;;;888913.51;6559997.99;5.446399;46.113439;;;CHALLES-LA-MONTAGNE;CHEMIN DE LA GRANGE;inconnue;inconnue
01077_0055_00311;01077_0055;311;;Chemin de la Grange;01450;01077;Challes-la-Montagne;;;888913.51;6559997.99;5.446399;46.113439;;;CHALLES-LA-MONTAGNE;CHEMIN DE LA GRANGE;inconnue;inconnue
01077_0055_00312;01077_0055;312;;Chemin de la Grange;01450;01077;Challes-la-Montagne;;;888913.51;6559997.99;5.446399;46.113439;;;CHALLES-LA-MONTAGNE;CHEMIN DE LA GRANGE;inconnue;inconnue
01077_0075_00007;01077_0075;7;;Chemin de Magrand;01450;01077;Challes-la-Montagne;;;889131.48;6560748.15;5.449521;46.12013;;;CHALLES-LA-MONTAGNE;CHEMIN DE MAGRAND;inconnue;inconnue
01077_0075_00029;01077_0075;29;;Chemin de Magrand;01450;01077;Challes-la-Montagne;;;889131.48;6560748.15;5.449521;46.12013;;;CHALLES-LA-MONTAGNE;CHEMIN DE MAGRAND;inconnue;inconnue
01077_0075_00034;01077_0075;34;;Chemin de Magrand;01450;01077;Challes-la-Montagne;;;889131.48;6560748.15;5.449521;46.12013;;;CHALLES-LA-MONTAGNE;CHEMIN DE MAGRAND;inconnue;inconnue
01077_0021_00014;01077_0021;14;;Chemin de la Boissière;01450;01077;Challes-la-Montagne;;;890284.93;6561277.03;5.464664;46.124567;;;CHALLES-LA-MONTAGNE;CHEMIN DE LA BOISSIERE;inconnue;inconnue
01077_0021_00028;01077_0021;28;;Chemin de la Boissière;01450;01077;Challes-la-Montagne;;;890268.88;6561244.53;5.464443;46.124279;;;CHALLES-LA-MONTAGNE;CHEMIN DE LA BOISSIERE;inconnue;inconnue
01077_0021_00052;01077_0021;52;;Chemin de la Boissière;01450;01077;Challes-la-Montagne;;;890284.93;6561277.03;5.464664;46.124567;;;CHALLES-LA-MONTAGNE;CHEMIN DE LA BOISSIERE;inconnue;inconnue
01077_0021_00080;01077_0021;80;;Chemin de la Boissière;01450;01077;Challes-la-Montagne;;;890284.93;6561277.03;5.464664;46.124567;;;CHALLES-LA-MONTAGNE;CHEMIN DE LA BOISSIERE;inconnue;inconnue
01077_0086_00013;01077_0086;13;;Impasse du Montillet;01450;01077;Challes-la-Montagne;;;889182.01;6560934.6;5.45025;46.121794;;;CHALLES-LA-MONTAGNE;IMPASSE DU MONTILLET;inconnue;inconnue
01077_0086_00023;01077_0086;23;;Impasse du Montillet;01450;01077;Challes-la-Montagne;;;889182.01;6560934.6;5.45025;46.121794;;;CHALLES-LA-MONTAGNE;IMPASSE DU MONTILLET;inconnue;inconnue
01077_0086_00027;01077_0086;27;;Impasse du Montillet;01450;01077;Challes-la-Montagne;;;889182.01;6560934.6;5.45025;46.121794;;;CHALLES-LA-MONTAGNE;IMPASSE DU MONTILLET;inconnue;inconnue
01077_0086_00032;01077_0086;32;;Impasse du Montillet;01450;01077;Challes-la-Montagne;;;889182.01;6560934.6;5.45025;46.121794;;;CHALLES-LA-MONTAGNE;IMPASSE DU MONTILLET;inconnue;inconnue
01077_0086_00037;01077_0086;37;;Impasse du Montillet;01450;01077;Challes-la-Montagne;;;889182.01;6560934.6;5.45025;46.121794;;;CHALLES-LA-MONTAGNE;IMPASSE DU MONTILLET;inconnue;inconnue
01077_0025_00080;01077_0025;80;;Montée de la Carronnière;01450;01077;Challes-la-Montagne;;;890409.83;6561376.79;5.466321;46.12543;;;CHALLES-LA-MONTAGNE;MONTEE DE LA CARRONNIERE;cadastre;cadastre
01108_fhqjhn_00013;;13;;La Jaconniere;01270;01108;Coligny;;;880211.36;6590834.65;5.345634;46.393366;;;COLIGNY;LA JACONNIERE;inconnue;inconnue
01108_0037_00082;01108_0037;82;;Rue de Lorette;01270;01108;Coligny;;;880630.2;6589282;5.350481;46.379279;;;COLIGNY;RUE DE LORETTE;inconnue;inconnue
01108_a002_00001;01108_A002;1;;Lotissement les Vieilles Vignes;01270;01108;Coligny;;;880835.72;6589228.46;5.353133;46.378742;;;COLIGNY;LOTISSEMENT LES VIEILLES VIGNES;inconnue;inconnue
01108_a002_00002;01108_A002;2;;Lotissement les Vieilles Vignes;01270;01108;Coligny;;;880844.32;6589283.04;5.353266;46.379231;;;COLIGNY;LOTISSEMENT LES VIEILLES VIGNES;inconnue;inconnue
01108_a002_00003;01108_A002;3;;Lotissement les Vieilles Vignes;01270;01108;Coligny;;;880847.4;6589295.91;5.353311;46.379346;;;COLIGNY;LOTISSEMENT LES VIEILLES VIGNES;inconnue;inconnue
01108_a002_00004;01108_A002;4;;Lotissement les Vieilles Vignes;01270;01108;Coligny;;;880871.91;6589301.53;5.353632;46.37939;;;COLIGNY;LOTISSEMENT LES VIEILLES VIGNES;inconnue;inconnue
01108_a002_00005;01108_A002;5;;Lotissement les Vieilles Vignes;01270;01108;Coligny;;;880857.79;6589282.67;5.353441;46.379224;;;COLIGNY;LOTISSEMENT LES VIEILLES VIGNES;inconnue;inconnue
01108_a002_00006;01108_A002;6;;Lotissement les Vieilles Vignes;01270;01108;Coligny;;;880851.63;6589277.82;5.353359;46.379182;;;COLIGNY;LOTISSEMENT LES VIEILLES VIGNES;inconnue;inconnue
01108_a002_00007;01108_A002;7;;Lotissement les Vieilles Vignes;01270;01108;Coligny;;;880847.35;6589264.03;5.353298;46.379059;;;COLIGNY;LOTISSEMENT LES VIEILLES VIGNES;inconnue;inconnue
01108_a002_00008;01108_A002;8;;Lotissement les Vieilles Vignes;01270;01108;Coligny;;;880845.14;6589245.18;5.353262;46.37889;;;COLIGNY;LOTISSEMENT LES VIEILLES VIGNES;inconnue;inconnue
01108_a002_00009;01108_A002;9;;Lotissement les Vieilles Vignes;01270;01108;Coligny;;;880844.71;6589226.28;5.353249;46.37872;;;COLIGNY;LOTISSEMENT LES VIEILLES VIGNES;inconnue;inconnue
01108_a205_00001;01108_A205;1;;Lotissement les Fontaines;01270;01108;Coligny;;;880626.13;6589599.63;5.350551;46.382139;;;COLIGNY;LOTISSEMENT LES FONTAINES;inconnue;inconnue
01108_b168_02730;01108_B168;2730;;Terre de Presle;01270;01108;Coligny;;;880099.92;6588977.37;5.343467;46.376679;;;COLIGNY;TERRE DE PRESLE;inconnue;inconnue
01108_0004_00262;01108_0004;262;;Rue de Bresse;01270;01108;Coligny;;;880329.97;6590232.55;5.346944;46.387915;;;COLIGNY;RUE DE BRESSE;inconnue;inconnue
01121_0035_00021;01121_0035;21;;Impasse de la Fruitière;01110;01121;Corlier;;;893264.71;6550932.68;5.498995;46.03062;;;CORLIER;IMPASSE DE LA FRUITIERE;inconnue;inconnue
01121_0060_00011;01121_0060;11;;Rue du Quart d'Amu;01110;01121;Corlier;;;893258.6;6550913.05;5.498908;46.030445;;;CORLIER;RUE DU QUART D AMU;inconnue;inconnue
01121_0060_00031;01121_0060;31;;Rue du Quart d'Amu;01110;01121;Corlier;;;893281.19;6550930.54;5.499207;46.030596;;;CORLIER;RUE DU QUART D AMU;inconnue;inconnue
01121_0060_00049;01121_0060;49;;Rue du Quart d'Amu;01110;01121;Corlier;;;893290.83;6550933.96;5.499333;46.030624;;;CORLIER;RUE DU QUART D AMU;inconnue;inconnue
01121_0060_00063;01121_0060;63;;Rue du Quart d'Amu;01110;01121;Corlier;;;893305.19;6550942.19;5.499522;46.030694;;;CORLIER;RUE DU QUART D AMU;inconnue;inconnue
01121_0060_00076;01121_0060;76;;Rue du Quart d'Amu;01110;01121;Corlier;;;893304.43;6550937.16;5.49951;46.030649;;;CORLIER;RUE DU QUART D AMU;inconnue;inconnue
01121_0060_00085;01121_0060;85;;Rue du Quart d'Amu;01110;01121;Corlier;;;893315.68;6550975.18;5.499671;46.030988;;;CORLIER;RUE DU QUART D AMU;inconnue;inconnue
01121_0060_00100;01121_0060;100;;Rue du Quart d'Amu;01110;01121;Corlier;;;893341.16;6550937.88;5.499985;46.030645;;;CORLIER;RUE DU QUART D AMU;inconnue;inconnue
01121_0060_00104;01121_0060;104;;Rue du Quart d'Amu;01110;01121;Corlier;;;893345.88;6550952.48;5.500052;46.030775;;;CORLIER;RUE DU QUART D AMU;inconnue;inconnue
01121_0060_00105;01121_0060;105;;Rue du Quart d'Amu;01110;01121;Corlier;;;893339.46;6550974.38;5.499978;46.030974;;;CORLIER;RUE DU QUART D AMU;inconnue;inconnue
01121_0060_00130;01121_0060;130;;Rue du Quart d'Amu;01110;01121;Corlier;;;893363.9;6550965.16;5.50029;46.030884;;;CORLIER;RUE DU QUART D AMU;inconnue;inconnue
01121_0060_00152;01121_0060;152;;Rue du Quart d'Amu;01110;01121;Corlier;;;893408.1;6550996.67;5.500874;46.031155;;;CORLIER;RUE DU QUART D AMU;inconnue;inconnue
01121_0060_00153;01121_0060;153;;Rue du Quart d'Amu;01110;01121;Corlier;;;893367.19;6550998.04;5.500346;46.031179;;;CORLIER;RUE DU QUART D AMU;inconnue;inconnue
01121_0060_00163;01121_0060;163;;Rue du Quart d'Amu;01110;01121;Corlier;;;893379.22;6551009.42;5.500506;46.031278;;;CORLIER;RUE DU QUART D AMU;inconnue;inconnue
01121_0060_00171;01121_0060;171;;Rue du Quart d'Amu;01110;01121;Corlier;;;893388.81;6551009.39;5.50063;46.031275;;;CORLIER;RUE DU QUART D AMU;inconnue;inconnue
01121_0060_00177;01121_0060;177;;Rue du Quart d'Amu;01110;01121;Corlier;;;893394.84;6551014.69;5.50071;46.031321;;;CORLIER;RUE DU QUART D AMU;inconnue;inconnue
01121_0060_00191;01121_0060;191;;Rue du Quart d'Amu;01110;01121;Corlier;;;893409.97;6551020.72;5.500908;46.031371;;;CORLIER;RUE DU QUART D AMU;inconnue;inconnue
01121_0060_00244;01121_0060;244;;Rue du Quart d'Amu;01110;01121;Corlier;;;893422.38;6550995.45;5.501058;46.03114;;;CORLIER;RUE DU QUART D AMU;inconnue;inconnue
01121_0060_00255;01121_0060;255;;Rue du Quart d'Amu;01110;01121;Corlier;;;893473.82;6551032.53;5.501738;46.031459;;;CORLIER;RUE DU QUART D AMU;inconnue;inconnue
01121_0060_00269;01121_0060;269;;Rue du Quart d'Amu;01110;01121;Corlier;;;893490.89;6551026.51;5.501956;46.0314;;;CORLIER;RUE DU QUART D AMU;inconnue;inconnue
01121_0060_00270;01121_0060;270;;Rue du Quart d'Amu;01110;01121;Corlier;;;893483.48;6551001.39;5.50185;46.031176;;;CORLIER;RUE DU QUART D AMU;inconnue;inconnue
01121_0060_00291;01121_0060;291;;Rue du Quart d'Amu;01110;01121;Corlier;;;893518.7;6551013.17;5.50231;46.031272;;;CORLIER;RUE DU QUART D AMU;inconnue;inconnue
01121_0055_00057;01121_0055;57;;Rue Principale;01110;01121;Corlier;;;893274.48;6550824.66;5.499077;46.029645;;;CORLIER;RUE PRINCIPALE;inconnue;inconnue
01121_0055_00061;01121_0055;61;;Rue Principale;01110;01121;Corlier;;;893292.17;6550830.56;5.499308;46.029693;;;CORLIER;RUE PRINCIPALE;inconnue;inconnue
01121_0055_00098;01121_0055;98;;Rue Principale;01110;01121;Corlier;;;893308.86;6550860.53;5.499536;46.029958;;;CORLIER;RUE PRINCIPALE;inconnue;inconnue
01121_0055_00107;01121_0055;107;;Rue Principale;01110;01121;Corlier;;;893258.98;6550849.73;5.498887;46.029875;;;CORLIER;RUE PRINCIPALE;inconnue;inconnue
01121_0055_00116;01121_0055;116;;Rue Principale;01110;01121;Corlier;;;893278.67;6550873.02;5.499151;46.030079;;;CORLIER;RUE PRINCIPALE;inconnue;inconnue
01121_0055_00126;01121_0055;126;;Rue Principale;01110;01121;Corlier;;;893268.31;6550887.36;5.499023;46.030211;;;CORLIER;RUE PRINCIPALE;inconnue;inconnue
01121_0055_00138;01121_0055;138;;Rue Principale;01110;01121;Corlier;;;893261.5;6550897.25;5.498939;46.030302;;;CORLIER;RUE PRINCIPALE;inconnue;inconnue
01121_0055_00170;01121_0055;170;;Rue Principale;01110;01121;Corlier;;;893231.21;6550922.73;5.498558;46.03054;;;CORLIER;RUE PRINCIPALE;inconnue;inconnue
01121_0055_00181;01121_0055;181;;Rue Principale;01110;01121;Corlier;;;893211.01;6550905.54;5.49829;46.030391;;;CORLIER;RUE PRINCIPALE;inconnue;inconnue
01121_0055_00184;01121_0055;184;;Rue Principale;01110;01121;Corlier;;;893212.28;6550936.36;5.498319;46.030668;;;CORLIER;RUE PRINCIPALE;inconnue;inconnue
01121_0055_00191;01121_0055;191;;Rue Principale;01110;01121;Corlier;;;893189.42;6550912.75;5.498014;46.030462;;;CORLIER;RUE PRINCIPALE;inconnue;inconnue
01121_0055_00197;01121_0055;197;;Rue Principale;01110;01121;Corlier;;;893155.31;6550924.55;5.497578;46.030578;;;CORLIER;RUE PRINCIPALE;inconnue;inconnue
01121_0055_00202;01121_0055;202;;Rue Principale;01110;01121;Corlier;;;893220.53;6550937.51;5.498426;46.030676;;;CORLIER;RUE PRINCIPALE;inconnue;inconnue
01121_0055_00219;01121_0055;219;;Rue Principale;01110;01121;Corlier;;;893188.98;6550934.18;5.498017;46.030655;;;CORLIER;RUE PRINCIPALE;inconnue;inconnue
01121_0055_00226;01121_0055;226;;Rue Principale;01110;01121;Corlier;;;893197.4;6550954.22;5.498134;46.030833;;;CORLIER;RUE PRINCIPALE;inconnue;inconnue
01121_0055_00239;01121_0055;239;;Rue Principale;01110;01121;Corlier;;;893179.72;6550962.55;5.497909;46.030913;;;CORLIER;RUE PRINCIPALE;inconnue;inconnue
01121_0055_00250;01121_0055;250;;Rue Principale;01110;01121;Corlier;;;893184.36;6550970.03;5.497972;46.030979;;;CORLIER;RUE PRINCIPALE;inconnue;inconnue
01121_0055_00277;01121_0055;277;;Rue Principale;01110;01121;Corlier;;;893144.74;6550984.77;5.497466;46.031123;;;CORLIER;RUE PRINCIPALE;inconnue;inconnue
01121_0055_00286;01121_0055;286;;Rue Principale;01110;01121;Corlier;;;893153.48;6550987.16;5.49758;46.031142;;;CORLIER;RUE PRINCIPALE;inconnue;inconnue
01121_0055_00290;01121_0055;290;;Rue Principale;01110;01121;Corlier;;;893134.39;6550989;5.497334;46.031164;;;CORLIER;RUE PRINCIPALE;inconnue;inconnue
01121_0055_00326;01121_0055;326;;Rue Principale;01110;01121;Corlier;;;893125.15;6551012.04;5.497224;46.031374;;;CORLIER;RUE PRINCIPALE;inconnue;inconnue
01121_0025_00009;01121_0025;9;;Rue de l'Eglise;01110;01121;Corlier;;;893237.48;6550885.82;5.498624;46.030206;;;CORLIER;RUE DE L EGLISE;inconnue;inconnue
01121_0025_00035;01121_0025;35;;Rue de l'Eglise;01110;01121;Corlier;;;893224.67;6550882.2;5.498457;46.030177;;;CORLIER;RUE DE L EGLISE;inconnue;inconnue
01121_0025_00055;01121_0025;55;;Rue de l'Eglise;01110;01121;Corlier;;;893196.49;6550877.75;5.498091;46.030145;;;CORLIER;RUE DE L EGLISE;inconnue;inconnue
01121_0025_00067;01121_0025;67;;Rue de l'Eglise;01110;01121;Corlier;;;893183.21;6550874.44;5.497918;46.030119;;;CORLIER;RUE DE L EGLISE;inconnue;inconnue
01121_0025_00095;01121_0025;95;;Rue de l'Eglise;01110;01121;Corlier;;;893170.3;6550864.03;5.497747;46.030029;;;CORLIER;RUE DE L EGLISE;inconnue;inconnue
01121_0045_00020;01121_0045;20;;Route de Montgriffon;01110;01121;Corlier;;;893295.63;6550718.78;5.499307;46.028686;;;CORLIER;ROUTE DE MONTGRIFFON;inconnue;inconnue
01121_0045_00094;01121_0045;94;;Route de Montgriffon;01110;01121;Corlier;;;893219.37;6550661.15;5.498298;46.028189;;;CORLIER;ROUTE DE MONTGRIFFON;inconnue;inconnue
01121_0010_00008;01121_0010;8;;Impasse du Colombier;01110;01121;Corlier;;;893258.42;6550872.15;5.498889;46.030077;;;CORLIER;IMPASSE DU COLOMBIER;inconnue;inconnue
01121_0010_00014;01121_0010;14;;Impasse du Colombier;01110;01121;Corlier;;;893256.49;6550886.87;5.49887;46.03021;;;CORLIER;IMPASSE DU COLOMBIER;inconnue;inconnue
01121_0010_00065;01121_0010;65;;Impasse du Colombier;01110;01121;Corlier;;;893231.43;6550856.97;5.498534;46.029948;;;CORLIER;IMPASSE DU COLOMBIER;inconnue;inconnue
01121_0030_00017;01121_0030;17;;Chemin de la Fin;01110;01121;Corlier;;;893185.33;6550990.72;5.497993;46.031165;;;CORLIER;CHEMIN DE LA FIN;inconnue;inconnue
01121_0050_00022;01121_0050;22;;Chemin du Plagnon;01110;01121;Corlier;;;893362.77;6551013.23;5.500295;46.031317;;;CORLIER;CHEMIN DU PLAGNON;inconnue;inconnue
01121_0050_00071;01121_0050;71;;Chemin du Plagnon;01110;01121;Corlier;;;893334.49;6551050.67;5.499945;46.031662;;;CORLIER;CHEMIN DU PLAGNON;inconnue;inconnue
01121_0015_00011;01121_0015;11;;Chemin de Très-courtioux;01110;01121;Corlier;;;893550.78;6550979.96;5.502711;46.030964;;;CORLIER;CHEMIN DE TRES COURTIOUX;cadastre;cadastre
01121_0015_00067;01121_0015;67;;Chemin de Très-courtioux;01110;01121;Corlier;;;893583.83;6550962.86;5.503131;46.030801;;;CORLIER;CHEMIN DE TRES COURTIOUX;cadastre;cadastre
01121_0005_00043;01121_0005;43;;Chemin du Petit Bret;01110;01121;Corlier;;;893393.75;6550764.74;5.500594;46.029072;;;CORLIER;CHEMIN DU PETIT BRET;cadastre;cadastre
01121_0005_00058;01121_0005;58;;Chemin du Petit Bret;01110;01121;Corlier;;;893387.98;6550758.1;5.500516;46.029013;;;CORLIER;CHEMIN DU PETIT BRET;cadastre;cadastre
01121_0005_00090;01121_0005;90;;Chemin du Petit Bret;01110;01121;Corlier;;;893405.37;6550746.18;5.500736;46.028901;;;CORLIER;CHEMIN DU PETIT BRET;cadastre;cadastre
01121_0005_00096;01121_0005;96;;Chemin du Petit Bret;01110;01121;Corlier;;;893412.06;6550750.4;5.500824;46.028937;;;CORLIER;CHEMIN DU PETIT BRET;cadastre;cadastre
01121_0005_00102;01121_0005;102;;Chemin du Petit Bret;01110;01121;Corlier;;;893424.4;6550731.27;5.500976;46.028762;;;CORLIER;CHEMIN DU PETIT BRET;cadastre;cadastre
01121_0005_00110;01121_0005;110;;Chemin du Petit Bret;01110;01121;Corlier;;;893424.43;6550729.14;5.500976;46.028742;;;CORLIER;CHEMIN DU PETIT BRET;cadastre;cadastre
01188_4gl6pg_00102;;102;;Tang;01140;01188;Illiat;;;844373.49;6566790.39;4.871947;46.185547;;;ILLIAT;TANG;inconnue;inconnue
01188_oz3gyi_00001;;1;;Le Bourg;01140;01188;Illiat;;;845633.82;6567283.17;4.888435;46.189713;;;ILLIAT;LE BOURG;inconnue;inconnue
01188_oz3gyi_00002;;2;;Le Bourg;01140;01188;Illiat;;;845625.61;6567297.53;4.888333;46.189844;;;ILLIAT;LE BOURG;inconnue;inconnue
01188_oz3gyi_00003;;3;;Le Bourg;01140;01188;Illiat;;;845624.48;6567206.08;4.88829;46.189021;;;ILLIAT;LE BOURG;inconnue;inconnue
01188_oz3gyi_00004;;4;;Le Bourg;01140;01188;Illiat;;;845615.52;6567248.3;4.888187;46.189403;;;ILLIAT;LE BOURG;inconnue;inconnue
01188_oz3gyi_00005;;5;;Le Bourg;01140;01188;Illiat;;;845643.8;6567146.56;4.888522;46.188481;;;ILLIAT;LE BOURG;inconnue;inconnue
01188_oz3gyi_00006;;6;;Le Bourg;01140;01188;Illiat;;;845635.39;6567143.25;4.888412;46.188453;;;ILLIAT;LE BOURG;inconnue;inconnue
01188_a014_00001;01188_A014;1;;Lotissement En Bresse;01140;01188;Illiat;;;845878.57;6567342.8;4.891626;46.190197;;;ILLIAT;LOTISSEMENT EN BRESSE;inconnue;inconnue
01188_a014_00002;01188_A014;2;;Lotissement En Bresse;01140;01188;Illiat;;;845932.28;6567316.54;4.892314;46.189949;;;ILLIAT;LOTISSEMENT EN BRESSE;inconnue;inconnue
01188_a014_00004;01188_A014;4;;Lotissement En Bresse;01140;01188;Illiat;;;845957.9;6567313.15;4.892645;46.189913;;;ILLIAT;LOTISSEMENT EN BRESSE;inconnue;inconnue
01188_a014_00005;01188_A014;5;;Lotissement En Bresse;01140;01188;Illiat;;;845959.8;6567298.09;4.892665;46.189777;;;ILLIAT;LOTISSEMENT EN BRESSE;inconnue;inconnue
01188_a014_00006;01188_A014;6;;Lotissement En Bresse;01140;01188;Illiat;;;845954.66;6567290.41;4.892596;46.189709;;;ILLIAT;LOTISSEMENT EN BRESSE;inconnue;inconnue
01188_a014_00007;01188_A014;7;;Lotissement En Bresse;01140;01188;Illiat;;;845934.87;6567288.83;4.892339;46.189699;;;ILLIAT;LOTISSEMENT EN BRESSE;inconnue;inconnue
01188_a014_00008;01188_A014;8;;Lotissement En Bresse;01140;01188;Illiat;;;845901.38;6567314.8;4.891913;46.18994;;;ILLIAT;LOTISSEMENT EN BRESSE;inconnue;inconnue
01188_a014_00010;01188_A014;10;;Lotissement En Bresse;01140;01188;Illiat;;;845834.89;6567369.08;4.891068;46.190443;;;ILLIAT;LOTISSEMENT EN BRESSE;inconnue;inconnue
01188_b040_00001;01188_B040;1;;En Bresse;01140;01188;Illiat;;;845890.27;6567355.05;4.891781;46.190305;;;ILLIAT;EN BRESSE;arcep;arcep
01188_b040_00002;01188_B040;2;;En Bresse;01140;01188;Illiat;;;845926.45;6567338.82;4.892245;46.190151;;;ILLIAT;EN BRESSE;arcep;arcep
01188_b040_00004;01188_B040;4;;En Bresse;01140;01188;Illiat;;;845996.87;6567327.9;4.893155;46.190037;;;ILLIAT;EN BRESSE;arcep;arcep
01188_b040_00005;01188_B040;5;;En Bresse;01140;01188;Illiat;;;846002.49;6567284.38;4.893214;46.189644;;;ILLIAT;EN BRESSE;arcep;arcep
01188_b040_00006;01188_B040;6;;En Bresse;01140;01188;Illiat;;;845969.6;6567268.33;4.892783;46.189507;;;ILLIAT;EN BRESSE;arcep;arcep
01188_b040_00007;01188_B040;7;;En Bresse;01140;01188;Illiat;;;845922.17;6567266.97;4.892167;46.189505;;;ILLIAT;EN BRESSE;arcep;arcep
01188_b040_00008;01188_B040;8;;En Bresse;01140;01188;Illiat;;;845889.8;6567298.26;4.891758;46.189794;;;ILLIAT;EN BRESSE;arcep;arcep
01188_b040_00010;01188_B040;10;;En Bresse;01140;01188;Illiat;;;845829.6;6567346.11;4.890992;46.190237;;;ILLIAT;EN BRESSE;arcep;arcep
01309_n5k2x2_00009;;9;;Rte du Flaconnat;01250;01309;Pouillat;;;886790.76;6583744.93;5.428381;46.327764;;;POUILLAT;RTE DU FLACONNAT;arcep;arcep
01309_n5k2x2_00027;;27;;Rte du Flaconnat;01250;01309;Pouillat;;;886777.69;6583772.77;5.428223;46.328018;;;POUILLAT;RTE DU FLACONNAT;arcep;arcep
01309_n5k2x2_00063;;63;;Rte du Flaconnat;01250;01309;Pouillat;;;886792.4;6583798.4;5.428424;46.328245;;;POUILLAT;RTE DU FLACONNAT;arcep;arcep
01309_0040_00012;01309_0040;12;;Impasse de la Condamine;01250;01309;Pouillat;;;886874.88;6583744.32;5.429474;46.327735;;;POUILLAT;IMPASSE DE LA CONDAMINE;inconnue;inconnue
01309_0040_00040;01309_0040;40;;Impasse de la Condamine;01250;01309;Pouillat;;;886880.33;6583767.15;5.429554;46.327939;;;POUILLAT;IMPASSE DE LA CONDAMINE;inconnue;inconnue
01309_0040_00046;01309_0040;46;;Impasse de la Condamine;01250;01309;Pouillat;;;886822.57;6583794.47;5.428814;46.328201;;;POUILLAT;IMPASSE DE LA CONDAMINE;arcep;inconnue
01309_0130_00018;01309_0130;18;;Route du Revermont;01250;01309;Pouillat;;;886937.96;6583757.81;5.430299;46.327839;;;POUILLAT;ROUTE DU REVERMONT;inconnue;inconnue
01309_0130_00022;01309_0130;22;;Route du Revermont;01250;01309;Pouillat;;;886941.02;6583766.02;5.430342;46.327912;;;POUILLAT;ROUTE DU REVERMONT;inconnue;inconnue
01309_0130_00040;01309_0130;40;;Route du Revermont;01250;01309;Pouillat;;;886947.01;6583781.31;5.430426;46.328048;;;POUILLAT;ROUTE DU REVERMONT;inconnue;inconnue
01309_0130_00056;01309_0130;56;;Route du Revermont;01250;01309;Pouillat;;;886950.49;6583790.75;5.430475;46.328132;;;POUILLAT;ROUTE DU REVERMONT;inconnue;inconnue
01309_0130_00059;01309_0130;59;;Route du Revermont;01250;01309;Pouillat;;;886912.76;6583742.2;5.429965;46.327706;;;POUILLAT;ROUTE DU REVERMONT;arcep;inconnue
01309_0130_00091;01309_0130;91;;Route du Revermont;01250;01309;Pouillat;;;886947.82;6583812.67;5.430449;46.32833;;;POUILLAT;ROUTE DU REVERMONT;inconnue;inconnue
01309_0130_00114;01309_0130;114;;Route du Revermont;01250;01309;Pouillat;;;886965.03;6583843.64;5.430685;46.328604;;;POUILLAT;ROUTE DU REVERMONT;inconnue;inconnue
01309_0130_00115;01309_0130;115;;Route du Revermont;01250;01309;Pouillat;;;886953.8;6583835.74;5.430536;46.328536;;;POUILLAT;ROUTE DU REVERMONT;inconnue;inconnue
01309_0130_00148;01309_0130;148;;Route du Revermont;01250;01309;Pouillat;;;886970.67;6583872.93;5.43077;46.328866;;;POUILLAT;ROUTE DU REVERMONT;inconnue;inconnue
01309_0130_00214;01309_0130;214;;Route du Revermont;01250;01309;Pouillat;;;886976.2;6583930.65;5.430865;46.329384;;;POUILLAT;ROUTE DU REVERMONT;inconnue;inconnue
01309_0130_00238;01309_0130;238;;Route du Revermont;01250;01309;Pouillat;;;886979.24;6583952.07;5.430913;46.329576;;;POUILLAT;ROUTE DU REVERMONT;inconnue;inconnue
01309_0102_00005;01309_0102;5;;Impasse de la Mairie;01250;01309;Pouillat;;;886807.99;6583726.93;5.428598;46.327597;;;POUILLAT;IMPASSE DE LA MAIRIE;inconnue;inconnue
01309_0102_00006;01309_0102;6;;Impasse de la Mairie;01250;01309;Pouillat;;;886798.94;6583725.87;5.42848;46.32759;;;POUILLAT;IMPASSE DE LA MAIRIE;inconnue;inconnue
01309_0102_00008;01309_0102;8;;Impasse de la Mairie;01250;01309;Pouillat;;;886799.22;6583724.1;5.428483;46.327574;;;POUILLAT;IMPASSE DE LA MAIRIE;inconnue;inconnue
01309_0102_00015;01309_0102;15;;Impasse de la Mairie;01250;01309;Pouillat;;;886808.97;6583720.07;5.428608;46.327535;;;POUILLAT;IMPASSE DE LA MAIRIE;inconnue;inconnue
01309_0102_00028;01309_0102;28;;Impasse de la Mairie;01250;01309;Pouillat;;;886786.77;6583715.86;5.428318;46.327503;;;POUILLAT;IMPASSE DE LA MAIRIE;arcep;inconnue
01309_0102_00036;01309_0102;36;;Impasse de la Mairie;01250;01309;Pouillat;;;886802.67;6583699.54;5.428518;46.327352;;;POUILLAT;IMPASSE DE LA MAIRIE;inconnue;inconnue
01309_0102_00044;01309_0102;44;;Impasse de la Mairie;01250;01309;Pouillat;;;886807.43;6583694.91;5.428578;46.327309;;;POUILLAT;IMPASSE DE LA MAIRIE;inconnue;inconnue
01309_0160_00009;01309_0160;9;;Impasse Tout Terrain;01250;01309;Pouillat;;;886890.44;6583741.35;5.429675;46.327704;;;POUILLAT;IMPASSE TOUT TERRAIN;inconnue;inconnue
01309_0160_00017;01309_0160;17;;Impasse Tout Terrain;01250;01309;Pouillat;;;886891.04;6583746.93;5.429685;46.327754;;;POUILLAT;IMPASSE TOUT TERRAIN;inconnue;inconnue
01309_0050_00425;01309_0050;425;;Route de Dancia;01250;01309;Pouillat;;;886441.03;6584257.29;5.424042;46.332472;;;POUILLAT;ROUTE DE DANCIA;inconnue;inconnue
01309_0030_00423;01309_0030;423;;Route du Champ Fleuri;01250;01309;Pouillat;;;886844.61;6583322.07;5.428912;46.323943;;;POUILLAT;ROUTE DU CHAMP FLEURI;inconnue;inconnue
01309_0030_00504;01309_0030;504;;Route du Champ Fleuri;01250;01309;Pouillat;;;886849.36;6583247.67;5.428944;46.323272;;;POUILLAT;ROUTE DU CHAMP FLEURI;inconnue;inconnue
01309_0030_00835;01309_0030;835;;Route du Champ Fleuri;01250;01309;Pouillat;;;886989.37;6582960.66;5.430648;46.32065;;;POUILLAT;ROUTE DU CHAMP FLEURI;inconnue;inconnue
01309_0030_01093;01309_0030;1093;;Route du Champ Fleuri;01250;01309;Pouillat;;;887052.92;6582711.85;5.431374;46.318393;;;POUILLAT;ROUTE DU CHAMP FLEURI;inconnue;inconnue
01309_0030_01435;01309_0030;1435;;Route du Champ Fleuri;01250;01309;Pouillat;;;887109.87;6582377.62;5.43198;46.315369;;;POUILLAT;ROUTE DU CHAMP FLEURI;inconnue;inconnue
01309_0030_01515;01309_0030;1515;;Route du Champ Fleuri;01250;01309;Pouillat;;;887120.58;6582299.74;5.432088;46.314665;;;POUILLAT;ROUTE DU CHAMP FLEURI;inconnue;inconnue
01309_0030_01540;01309_0030;1540;;Route du Champ Fleuri;01250;01309;Pouillat;;;887113.57;6582274.74;5.431987;46.314442;;;POUILLAT;ROUTE DU CHAMP FLEURI;inconnue;inconnue
01309_0030_01556;01309_0030;1556;;Route du Champ Fleuri;01250;01309;Pouillat;;;887112.37;6582258.93;5.431965;46.3143;;;POUILLAT;ROUTE DU CHAMP FLEURI;inconnue;inconnue
01309_0030_01575;01309_0030;1575;;Route du Champ Fleuri;01250;01309;Pouillat;;;887118.42;6582239.78;5.432036;46.314126;;;POUILLAT;ROUTE DU CHAMP FLEURI;inconnue;inconnue
01309_0060_00009;01309_0060;9;;Route du Falconnat;01250;01309;Pouillat;;;886800.78;6583750.93;5.428514;46.327815;;;POUILLAT;ROUTE DU FALCONNAT;inconnue;inconnue
01309_0060_00027;01309_0060;27;;Route du Falconnat;01250;01309;Pouillat;;;886799.33;6583768.1;5.428502;46.32797;;;POUILLAT;ROUTE DU FALCONNAT;inconnue;inconnue
01309_0060_00063;01309_0060;63;;Route du Falconnat;01250;01309;Pouillat;;;886795.22;6583804.31;5.428463;46.328297;;;POUILLAT;ROUTE DU FALCONNAT;inconnue;inconnue
01309_0075_00006;01309_0075;6;;Route du Jura;01250;01309;Pouillat;;;886996.24;6583814.94;5.431079;46.328337;;;POUILLAT;ROUTE DU JURA;inconnue;inconnue
01309_0075_00032;01309_0075;32;;Route du Jura;01250;01309;Pouillat;;;887002;6583827.56;5.431159;46.328449;;;POUILLAT;ROUTE DU JURA;inconnue;inconnue
01309_0075_00264;01309_0075;264;;Route du Jura;01250;01309;Pouillat;;;887053.81;6583959.47;5.431885;46.329622;;;POUILLAT;ROUTE DU JURA;arcep;inconnue
01309_0075_00317;01309_0075;317;;Route du Jura;01250;01309;Pouillat;;;887060.32;6584023.12;5.431995;46.330193;;;POUILLAT;ROUTE DU JURA;inconnue;inconnue
01309_0020_00030;01309_0020;30;;Chemin des Bressans;01250;01309;Pouillat;;;886982.08;6584007.16;5.430972;46.330071;;;POUILLAT;CHEMIN DES BRESSANS;inconnue;inconnue
01309_0020_00049;01309_0020;49;;Chemin des Bressans;01250;01309;Pouillat;;;886982.08;6584007.16;5.430972;46.330071;;;POUILLAT;CHEMIN DES BRESSANS;inconnue;inconnue
01309_0020_00055;01309_0020;55;;Chemin des Bressans;01250;01309;Pouillat;;;886982.08;6584007.16;5.430972;46.330071;;;POUILLAT;CHEMIN DES BRESSANS;inconnue;inconnue
01309_0065_00016;01309_0065;16;;Rue de la Fontaine;01250;01309;Pouillat;;;887102.81;6582169.42;5.431805;46.313497;;;POUILLAT;RUE DE LA FONTAINE;inconnue;inconnue
01309_0065_00091;01309_0065;91;;Rue de la Fontaine;01250;01309;Pouillat;;;887039.15;6582106.27;5.430953;46.312946;;;POUILLAT;RUE DE LA FONTAINE;arcep;inconnue
01309_0065_00122;01309_0065;122;;Rue de la Fontaine;01250;01309;Pouillat;;;886929.84;6582183.64;5.429564;46.313673;;;POUILLAT;RUE DE LA FONTAINE;inconnue;inconnue
01309_0120_00022;01309_0120;22;;Chemin du Perchet;01250;01309;Pouillat;;;887074.28;6582093.32;5.431404;46.31282;;;POUILLAT;CHEMIN DU PERCHET;inconnue;inconnue
01309_0120_00083;01309_0120;83;;Chemin du Perchet;01250;01309;Pouillat;;;887094.28;6582031.49;5.431639;46.312258;;;POUILLAT;CHEMIN DU PERCHET;inconnue;inconnue
01309_0120_00160;01309_0120;160;;Chemin du Perchet;01250;01309;Pouillat;;;887089.78;6581960.03;5.431552;46.311616;;;POUILLAT;CHEMIN DU PERCHET;inconnue;inconnue
01309_0090_00010;01309_0090;10;;Chemin du Lavoir;01250;01309;Pouillat;;;886789.79;6583740.48;5.428367;46.327724;;;POUILLAT;CHEMIN DU LAVOIR;inconnue;inconnue
01309_0090_00018;01309_0090;18;;Chemin du Lavoir;01250;01309;Pouillat;;;886771.49;6583744.89;5.428131;46.327769;;;POUILLAT;CHEMIN DU LAVOIR;arcep;inconnue
01309_0100_00008;01309_0100;8;;Imp des Maires;01250;01309;Pouillat;;;886873.64;6583738.22;5.429455;46.32768;;;POUILLAT;IMP DES MAIRES;arcep;arcep
01309_0100_00015;01309_0100;15;;Imp des Maires;01250;01309;Pouillat;;;886864.31;6583748.88;5.429339;46.327779;;;POUILLAT;IMP DES MAIRES;arcep;arcep
01309_0100_00021;01309_0100;21;;Imp des Maires;01250;01309;Pouillat;;;886867.54;6583755.95;5.429383;46.327842;;;POUILLAT;IMP DES MAIRES;arcep;arcep
01439_0009_00058;01439_0009;58;;Route des Bressauts;01570;01439;Vésines;;;843402.28;6585806.52;4.865182;46.356942;;;VESINES;ROUTE DES BRESSAUTS;inconnue;inconnue
01439_0009_00059;01439_0009;59;;Route des Bressauts;01570;01439;Vésines;;;843397.78;6585798.64;4.865121;46.356872;;;VESINES;ROUTE DES BRESSAUTS;inconnue;inconnue
01439_0025_00037;01439_0025;37;;Chemin des Chaintres;01570;01439;Vésines;;;843602.27;6586072.41;4.867864;46.359293;;;VESINES;CHEMIN DES CHAINTRES;inconnue;inconnue
01439_0029_00042;01439_0029;42;;Route des Dravots;01570;01439;Vésines;;;843511.78;6585927.97;4.866643;46.358012;;;VESINES;ROUTE DES DRAVOTS;inconnue;inconnue
01439_0029_00052;01439_0029;52;;Route des Dravots;01570;01439;Vésines;;;843473.66;6585939.73;4.866151;46.358126;;;VESINES;ROUTE DES DRAVOTS;inconnue;inconnue
01439_0029_00053;01439_0029;53;;Route des Dravots;01570;01439;Vésines;;;843436.48;6585931.52;4.865665;46.35806;;;VESINES;ROUTE DES DRAVOTS;inconnue;inconnue
01439_0029_00070;01439_0029;70;;Route des Dravots;01570;01439;Vésines;;;843452.58;6585943.24;4.865878;46.358162;;;VESINES;ROUTE DES DRAVOTS;inconnue;inconnue
01439_0029_00084;01439_0029;84;;Route des Dravots;01570;01439;Vésines;;;843421.46;6585941.94;4.865473;46.358157;;;VESINES;ROUTE DES DRAVOTS;inconnue;inconnue
01439_0015_00011;01439_0015;11;;Chemin du Breuil;01570;01439;Vésines;;;843670.28;6586403.05;4.86885;46.362255;;;VESINES;CHEMIN DU BREUIL;inconnue;inconnue
01439_0065_00931;01439_0065;931;;Route du Port;01570;01439;Vésines;;;842771.9;6586415.29;4.857172;46.362556;;;VESINES;ROUTE DU PORT;inconnue;inconnue
01439_0065_00940;01439_0065;940;;Route du Port;01570;01439;Vésines;;;842755.09;6586426.78;4.856957;46.362663;;;VESINES;ROUTE DU PORT;inconnue;inconnue
01439_0079_00021;01439_0079;21;;Route des Thenards;01570;01439;Vésines;;;843528.51;6586072.67;4.866905;46.359311;;;VESINES;ROUTE DES THENARDS;inconnue;inconnue
01439_0079_00034;01439_0079;34;;Route des Thenards;01570;01439;Vésines;;;843531.93;6586080.86;4.866952;46.359384;;;VESINES;ROUTE DES THENARDS;inconnue;inconnue
01439_0079_00075;01439_0079;75;;Route des Thenards;01570;01439;Vésines;;;843427.03;6586119.7;4.8656;46.359756;;;VESINES;ROUTE DES THENARDS;inconnue;inconnue
01439_0079_00108;01439_0079;108;;Route des Thenards;01570;01439;Vésines;;;843432.16;6586127.15;4.865669;46.359822;;;VESINES;ROUTE DES THENARDS;inconnue;inconnue
01439_0079_00157;01439_0079;157;;Route des Thenards;01570;01439;Vésines;;;843433.86;6586162.63;4.865702;46.360141;;;VESINES;ROUTE DES THENARDS;inconnue;inconnue
01439_0079_00164;01439_0079;164;;Route des Thenards;01570;01439;Vésines;;;843432.22;6586131.04;4.865671;46.359857;;;VESINES;ROUTE DES THENARDS;inconnue;inconnue
01439_0079_00182;01439_0079;182;;Route des Thenards;01570;01439;Vésines;;;843443.39;6586162.85;4.865826;46.360141;;;VESINES;ROUTE DES THENARDS;inconnue;inconnue
01439_0079_00206;01439_0079;206;;Route des Thenards;01570;01439;Vésines;;;843454.99;6586202.56;4.865989;46.360496;;;VESINES;ROUTE DES THENARDS;inconnue;inconnue
01439_0079_00220;01439_0079;220;;Route des Thenards;01570;01439;Vésines;;;843457.4;6586211.17;4.866023;46.360573;;;VESINES;ROUTE DES THENARDS;inconnue;inconnue
01439_0079_00272;01439_0079;272;;Route des Thenards;01570;01439;Vésines;;;843513.07;6586410.22;4.866808;46.362353;;;VESINES;ROUTE DES THENARDS;inconnue;inconnue
01439_0040_00001;01439_0040;1;;Place de la Mairie;01570;01439;Vésines;;;843533.72;6586070.35;4.866972;46.359289;;;VESINES;PLACE DE LA MAIRIE;inconnue;inconnue
01439_0007_00026;01439_0007;26;;Route du Bourg;01570;01439;Vésines;;;843489.09;6585840.35;4.866321;46.357228;;;VESINES;ROUTE DU BOURG;inconnue;inconnue
01439_0007_00053;01439_0007;53;;Route du Bourg;01570;01439;Vésines;;;843479.83;6585841.35;4.866201;46.357239;;;VESINES;ROUTE DU BOURG;inconnue;inconnue
01439_0007_00103;01439_0007;103;;Route du Bourg;01570;01439;Vésines;;;843507.38;6585902.76;4.866578;46.357786;;;VESINES;ROUTE DU BOURG;inconnue;inconnue
01439_0007_00139;01439_0007;139;;Route du Bourg;01570;01439;Vésines;;;843518.77;6585934.91;4.866736;46.358073;;;VESINES;ROUTE DU BOURG;inconnue;inconnue
01439_0007_00140;01439_0007;140;;Route du Bourg;01570;01439;Vésines;;;843531.92;6585944.78;4.86691;46.358159;;;VESINES;ROUTE DU BOURG;inconnue;inconnue
01439_0007_00177;01439_0007;177;;Route du Bourg;01570;01439;Vésines;;;843524.48;6585950.38;4.866815;46.358211;;;VESINES;ROUTE DU BOURG;inconnue;inconnue
01439_0007_00251;01439_0007;251;;Route du Bourg;01570;01439;Vésines;;;843524.29;6586029.8;4.866837;46.358926;;;VESINES;ROUTE DU BOURG;inconnue;inconnue
01439_0007_00262;01439_0007;262;;Route du Bourg;01570;01439;Vésines;;;843530.59;6586020.51;4.866916;46.358841;;;VESINES;ROUTE DU BOURG;inconnue;inconnue
01439_0007_00264;01439_0007;264;;Route du Bourg;01570;01439;Vésines;;;843539.91;6586049.28;4.867046;46.359098;;;VESINES;ROUTE DU BOURG;inconnue;inconnue
01439_0007_00310;01439_0007;310;;Route du Bourg;01570;01439;Vésines;;;843553.96;6586082.6;4.867239;46.359395;;;VESINES;ROUTE DU BOURG;inconnue;inconnue
01439_0007_00314;01439_0007;314;;Route du Bourg;01570;01439;Vésines;;;843554.48;6586083.61;4.867246;46.359404;;;VESINES;ROUTE DU BOURG;inconnue;inconnue
01439_0007_00330;01439_0007;330;;Route du Bourg;01570;01439;Vésines;;;843562.68;6586101.02;4.867358;46.359559;;;VESINES;ROUTE DU BOURG;inconnue;inconnue
01439_0007_00335;01439_0007;335;;Route du Bourg;01570;01439;Vésines;;;843553.78;6586103.15;4.867243;46.35958;;;VESINES;ROUTE DU BOURG;inconnue;inconnue
01439_0007_00350;01439_0007;350;;Route du Bourg;01570;01439;Vésines;;;843569.49;6586115.51;4.867451;46.359688;;;VESINES;ROUTE DU BOURG;inconnue;inconnue
01439_0007_00388;01439_0007;388;;Route du Bourg;01570;01439;Vésines;;;843586.27;6586150.68;4.86768;46.360001;;;VESINES;ROUTE DU BOURG;inconnue;inconnue
01439_0007_00406;01439_0007;406;;Route du Bourg;01570;01439;Vésines;;;843599.58;6586176.32;4.867861;46.360229;;;VESINES;ROUTE DU BOURG;inconnue;inconnue
01439_0007_00426;01439_0007;426;;Route du Bourg;01570;01439;Vésines;;;843602.67;6586182.28;4.867903;46.360282;;;VESINES;ROUTE DU BOURG;inconnue;inconnue
01439_0007_00434;01439_0007;434;;Route du Bourg;01570;01439;Vésines;;;843610.18;6586196.68;4.868005;46.36041;;;VESINES;ROUTE DU BOURG;inconnue;inconnue
01439_0007_00439;01439_0007;439;;Route du Bourg;01570;01439;Vésines;;;843597.83;6586191.94;4.867843;46.36037;;;VESINES;ROUTE DU BOURG;inconnue;inconnue
01439_0007_00478;01439_0007;478;;Route du Bourg;01570;01439;Vésines;;;843626.03;6586235.38;4.868223;46.360755;;;VESINES;ROUTE DU BOURG;inconnue;inconnue
01439_0007_00510;01439_0007;510;;Route du Bourg;01570;01439;Vésines;;;843634.92;6586255.92;4.868345;46.360938;;;VESINES;ROUTE DU BOURG;inconnue;inconnue
01439_0007_00571;01439_0007;571;;Route du Bourg;01570;01439;Vésines;;;843640.17;6586317.03;4.868432;46.361487;;;VESINES;ROUTE DU BOURG;inconnue;inconnue
01439_0007_00579;01439_0007;579;;Route du Bourg;01570;01439;Vésines;;;843642.83;6586340.86;4.868474;46.361701;;;VESINES;ROUTE DU BOURG;inconnue;inconnue
01439_0007_00600;01439_0007;600;;Route du Bourg;01570;01439;Vésines;;;843651.95;6586342.3;4.868593;46.361712;;;VESINES;ROUTE DU BOURG;inconnue;inconnue
01439_0007_00605;01439_0007;605;;Route du Bourg;01570;01439;Vésines;;;843644.26;6586358.45;4.868498;46.361859;;;VESINES;ROUTE DU BOURG;inconnue;inconnue
01439_0007_00615;01439_0007;615;;Route du Bourg;01570;01439;Vésines;;;843633.41;6586394.74;4.868368;46.362188;;;VESINES;ROUTE DU BOURG;inconnue;inconnue
01439_0007_00624;01439_0007;624;;Route du Bourg;01570;01439;Vésines;;;843653.71;6586384.78;4.868629;46.362094;;;VESINES;ROUTE DU BOURG;inconnue;inconnue
01439_0007_00644;01439_0007;644;;Route du Bourg;01570;01439;Vésines;;;843644.69;6586402.23;4.868517;46.362253;;;VESINES;ROUTE DU BOURG;inconnue;inconnue
01439_0007_00744;01439_0007;744;;Route du Bourg;01570;01439;Vésines;;;843623.57;6586462.6;4.868261;46.362801;;;VESINES;ROUTE DU BOURG;inconnue;inconnue
01439_0007_00026_a;01439_0007;26;a;Route du Bourg;01570;01439;Vésines;;;843474.01;6585807.78;4.866115;46.356938;;;VESINES;ROUTE DU BOURG;inconnue;inconnue
01456_0050_00073;01456_0050;73;;Chemin de la Grande Vie;01350;01456;Vongnes;;;911760.4;6527592.91;5.727549;45.815051;;;VONGNES;CHEMIN DE LA GRANDE VIE;inconnue;inconnue
01456_0050_00172;01456_0050;172;;Chemin de la Grande Vie;01350;01456;Vongnes;;;911810.4;6527557.97;5.728177;45.814721;;;VONGNES;CHEMIN DE LA GRANDE VIE;inconnue;inconnue
01456_0050_00203;01456_0050;203;;Chemin de la Grande Vie;01350;01456;Vongnes;;;911911.11;6527598.12;5.729491;45.815051;;;VONGNES;CHEMIN DE LA GRANDE VIE;inconnue;inconnue
01456_0090_00009;01456_0090;9;;Rue de la Vigne du Bois;01350;01456;Vongnes;;;911669.14;6527627.76;5.72639;45.815393;;;VONGNES;RUE DE LA VIGNE DU BOIS;inconnue;inconnue
01456_0090_00011;01456_0090;11;;Rue de la Vigne du Bois;01350;01456;Vongnes;;;911642.92;6527617.41;5.726048;45.815308;;;VONGNES;RUE DE LA VIGNE DU BOIS;inconnue;inconnue
01456_0090_00022;01456_0090;22;;Rue de la Vigne du Bois;01350;01456;Vongnes;;;911649.69;6527635.2;5.726143;45.815466;;;VONGNES;RUE DE LA VIGNE DU BOIS;inconnue;inconnue
01456_0090_00040;01456_0090;40;;Rue de la Vigne du Bois;01350;01456;Vongnes;;;911648.77;6527634.95;5.726131;45.815464;;;VONGNES;RUE DE LA VIGNE DU BOIS;inconnue;inconnue
01456_0090_00046;01456_0090;46;;Rue de la Vigne du Bois;01350;01456;Vongnes;;;911640.99;6527628.46;5.726028;45.815408;;;VONGNES;RUE DE LA VIGNE DU BOIS;inconnue;inconnue
01456_0090_00066;01456_0090;66;;Rue de la Vigne du Bois;01350;01456;Vongnes;;;911596.11;6527600.46;5.725438;45.81517;;;VONGNES;RUE DE LA VIGNE DU BOIS;inconnue;inconnue
01456_0090_00083;01456_0090;83;;Rue de la Vigne du Bois;01350;01456;Vongnes;;;911606.98;6527596.17;5.725576;45.815128;;;VONGNES;RUE DE LA VIGNE DU BOIS;inconnue;inconnue
01456_0090_00097;01456_0090;97;;Rue de la Vigne du Bois;01350;01456;Vongnes;;;911544.35;6527558.23;5.724753;45.814806;;;VONGNES;RUE DE LA VIGNE DU BOIS;inconnue;inconnue
01456_0090_00110;01456_0090;110;;Rue de la Vigne du Bois;01350;01456;Vongnes;;;911574.63;6527590.28;5.725157;45.815085;;;VONGNES;RUE DE LA VIGNE DU BOIS;inconnue;inconnue
01456_0090_00117;01456_0090;117;;Rue de la Vigne du Bois;01350;01456;Vongnes;;;911586.9;6527586.03;5.725313;45.815043;;;VONGNES;RUE DE LA VIGNE DU BOIS;inconnue;inconnue
01456_0090_00120;01456_0090;120;;Rue de la Vigne du Bois;01350;01456;Vongnes;;;911544.35;6527558.23;5.724753;45.814806;;;VONGNES;RUE DE LA VIGNE DU BOIS;inconnue;inconnue
01456_0090_00146;01456_0090;146;;Rue de la Vigne du Bois;01350;01456;Vongnes;;;911541.82;6527568.25;5.724725;45.814897;;;VONGNES;RUE DE LA VIGNE DU BOIS;inconnue;inconnue
01456_0090_00148;01456_0090;148;;Rue de la Vigne du Bois;01350;01456;Vongnes;;;911553.58;6527578.88;5.724881;45.814989;;;VONGNES;RUE DE LA VIGNE DU BOIS;inconnue;inconnue
01456_0090_00157;01456_0090;157;;Rue de la Vigne du Bois;01350;01456;Vongnes;;;911508.02;6527521.2;5.724269;45.814484;;;VONGNES;RUE DE LA VIGNE DU BOIS;inconnue;inconnue
01456_0090_00164;01456_0090;164;;Rue de la Vigne du Bois;01350;01456;Vongnes;;;911537.38;6527564.1;5.724666;45.814861;;;VONGNES;RUE DE LA VIGNE DU BOIS;inconnue;inconnue
01456_0090_00174;01456_0090;174;;Rue de la Vigne du Bois;01350;01456;Vongnes;;;911524.22;6527549.42;5.72449;45.814733;;;VONGNES;RUE DE LA VIGNE DU BOIS;inconnue;inconnue
01456_0090_00198;01456_0090;198;;Rue de la Vigne du Bois;01350;01456;Vongnes;;;911517.46;6527542.52;5.7244;45.814673;;;VONGNES;RUE DE LA VIGNE DU BOIS;inconnue;inconnue
01456_0090_00204;01456_0090;204;;Rue de la Vigne du Bois;01350;01456;Vongnes;;;911503.92;6527529.61;5.72422;45.814561;;;VONGNES;RUE DE LA VIGNE DU BOIS;inconnue;inconnue
01456_0090_00219;01456_0090;219;;Rue de la Vigne du Bois;01350;01456;Vongnes;;;911504.01;6527518.06;5.724216;45.814457;;;VONGNES;RUE DE LA VIGNE DU BOIS;inconnue;inconnue
01456_0090_00226;01456_0090;226;;Rue de la Vigne du Bois;01350;01456;Vongnes;;;911491;6527519.05;5.724049;45.81447;;;VONGNES;RUE DE LA VIGNE DU BOIS;inconnue;inconnue
01456_0090_00250;01456_0090;250;;Rue de la Vigne du Bois;01350;01456;Vongnes;;;911476.3;6527508.21;5.723855;45.814377;;;VONGNES;RUE DE LA VIGNE DU BOIS;inconnue;inconnue
01456_0090_00265;01456_0090;265;;Rue de la Vigne du Bois;01350;01456;Vongnes;;;911461.98;6527488.49;5.723662;45.814204;;;VONGNES;RUE DE LA VIGNE DU BOIS;inconnue;inconnue
01456_0090_00270;01456_0090;270;;Rue de la Vigne du Bois;01350;01456;Vongnes;;;911459.79;6527497.86;5.723638;45.814289;;;VONGNES;RUE DE LA VIGNE DU BOIS;inconnue;inconnue
01456_0090_00285;01456_0090;285;;Rue de la Vigne du Bois;01350;01456;Vongnes;;;911443.67;6527474.31;5.72342;45.814082;;;VONGNES;RUE DE LA VIGNE DU BOIS;inconnue;inconnue
01456_0090_00288;01456_0090;288;;Rue de la Vigne du Bois;01350;01456;Vongnes;;;911444.56;6527486.67;5.723437;45.814193;;;VONGNES;RUE DE LA VIGNE DU BOIS;inconnue;inconnue
01456_0090_00326;01456_0090;326;;Rue de la Vigne du Bois;01350;01456;Vongnes;;;911431.03;6527473.65;5.723257;45.81408;;;VONGNES;RUE DE LA VIGNE DU BOIS;inconnue;inconnue
01456_0070_00020;01456_0070;20;;Impasse de la Saint Vincent;01350;01456;Vongnes;;;911463.73;6527523.45;5.7237;45.814518;;;VONGNES;IMPASSE DE LA SAINT VINCENT;inconnue;inconnue
01456_0070_00030;01456_0070;30;;Impasse de la Saint Vincent;01350;01456;Vongnes;;;911455.53;6527520.05;5.723593;45.81449;;;VONGNES;IMPASSE DE LA SAINT VINCENT;inconnue;inconnue
01456_0025_00001;01456_0025;1;;Rue des Collonges;01350;01456;Vongnes;;;911657.69;6527529.47;5.726199;45.814512;;;VONGNES;RUE DES COLLONGES;inconnue;inconnue
01456_0025_00054;01456_0025;54;;Rue des Collonges;01350;01456;Vongnes;;;911702.99;6527500.37;5.726769;45.814236;;;VONGNES;RUE DES COLLONGES;inconnue;inconnue
01456_0040_00150;01456_0040;150;;Route du Grand Colombier;01350;01456;Vongnes;;;911706.29;6527587.05;5.72685;45.815015;;;VONGNES;ROUTE DU GRAND COLOMBIER;inconnue;inconnue
01456_0040_00374;01456_0040;374;;Route du Grand Colombier;01350;01456;Vongnes;;;911697.5;6527814.42;5.726838;45.817064;;;VONGNES;ROUTE DU GRAND COLOMBIER;inconnue;inconnue
01456_0040_00386;01456_0040;386;;Route du Grand Colombier;01350;01456;Vongnes;;;911699.59;6527828.27;5.726871;45.817188;;;VONGNES;ROUTE DU GRAND COLOMBIER;inconnue;inconnue
01456_0040_00510;01456_0040;510;;Route du Grand Colombier;01350;01456;Vongnes;;;911694.51;6527615.42;5.726711;45.815274;;;VONGNES;ROUTE DU GRAND COLOMBIER;inconnue;inconnue
01456_0040_02000;01456_0040;2000;;Route du Grand Colombier;01350;01456;Vongnes;;;911694.51;6527615.42;5.726711;45.815274;;;VONGNES;ROUTE DU GRAND COLOMBIER;inconnue;inconnue
01456_0095_00020;01456_0095;20;;Chemin des Vignes;01350;01456;Vongnes;;;911666.87;6527873.36;5.72647;45.817604;;;VONGNES;CHEMIN DES VIGNES;inconnue;inconnue
01456_0095_00030;01456_0095;30;;Chemin des Vignes;01350;01456;Vongnes;;;911625.12;6527865.14;5.725929;45.817543;;;VONGNES;CHEMIN DES VIGNES;inconnue;inconnue
01456_0095_00065;01456_0095;65;;Chemin des Vignes;01350;01456;Vongnes;;;911419.72;6527778.72;5.723247;45.816829;;;VONGNES;CHEMIN DES VIGNES;inconnue;inconnue
01456_0080_00001;01456_0080;1;;Rue de Sarsellet;01350;01456;Vongnes;;;911628.87;6527594.48;5.725857;45.815106;;;VONGNES;RUE DE SARSELLET;inconnue;inconnue
01456_0080_00053;01456_0080;53;;Rue de Sarsellet;01350;01456;Vongnes;;;911635.53;6527559.16;5.725927;45.814786;;;VONGNES;RUE DE SARSELLET;inconnue;inconnue
01456_0080_00063;01456_0080;63;;Rue de Sarsellet;01350;01456;Vongnes;;;911642.93;6527542.85;5.726015;45.814637;;;VONGNES;RUE DE SARSELLET;inconnue;inconnue
01456_0080_00089;01456_0080;89;;Rue de Sarsellet;01350;01456;Vongnes;;;911643.64;6527508.99;5.726009;45.814332;;;VONGNES;RUE DE SARSELLET;inconnue;inconnue
01456_0080_00139;01456_0080;139;;Rue de Sarsellet;01350;01456;Vongnes;;;911629.03;6527484.26;5.72581;45.814114;;;VONGNES;RUE DE SARSELLET;inconnue;inconnue
01456_0030_00026;01456_0030;26;;Chemin de l'Eglise;01350;01456;Vongnes;;;911433.14;6527461.83;5.723279;45.813973;;;VONGNES;CHEMIN DE L EGLISE;inconnue;inconnue
01456_0030_00046;01456_0030;46;;Chemin de l'Eglise;01350;01456;Vongnes;;;911439.43;6527426.05;5.723344;45.813649;;;VONGNES;CHEMIN DE L EGLISE;inconnue;inconnue
01456_0030_00075;01456_0030;75;;Chemin de l'Eglise;01350;01456;Vongnes;;;911495.14;6527360.85;5.724032;45.813045;;;VONGNES;CHEMIN DE L EGLISE;inconnue;inconnue
01456_0010_00020;01456_0010;20;;Chemin de Bossieu;01350;01456;Vongnes;;;911713.49;6527848.64;5.727059;45.817367;;;VONGNES;CHEMIN DE BOSSIEU;inconnue;inconnue
01456_0010_00186;01456_0010;186;;Chemin de Bossieu;01350;01456;Vongnes;;;911908.97;6527868.95;5.729584;45.817489;;;VONGNES;CHEMIN DE BOSSIEU;inconnue;inconnue
01456_0010_00257;01456_0010;257;;Chemin de Bossieu;01350;01456;Vongnes;;;911908.97;6527868.95;5.729584;45.817489;;;VONGNES;CHEMIN DE BOSSIEU;inconnue;inconnue
01456_0010_00490;01456_0010;490;;Chemin de Bossieu;01350;01456;Vongnes;;;911907.41;6527878.01;5.729568;45.817571;;;VONGNES;CHEMIN DE BOSSIEU;inconnue;inconnue
01456_0060_00046;01456_0060;46;;Chemin de la Patinière;01350;01456;Vongnes;;;911425.63;6527521.91;5.723209;45.814516;;;VONGNES;CHEMIN DE LA PATINIERE;inconnue;inconnue
01456_0020_00022;01456_0020;22;;Chemin de Chanoz;01350;01456;Vongnes;;;912015.07;6527687.95;5.730869;45.815827;;;VONGNES;CHEMIN DE CHANOZ;inconnue;inconnue
01456_0020_00050;01456_0020;50;;Chemin de Chanoz;01350;01456;Vongnes;;;912003.2;6527707.65;5.730725;45.816008;;;VONGNES;CHEMIN DE CHANOZ;inconnue;inconnue
01456_b034_00157;01456_B034;157;;Vignes du Bois;01350;01456;Vongnes;;;911532.72;6527493.98;5.724575;45.814231;;;VONGNES;VIGNES DU BOIS;arcep;cadastre
01006_e4zdnj_00597;;597;;Route du Carre;01300;01006;Ambléon;;;902175.61;6519700.65;5.600838;45.746934;;;AMBLEON;ROUTE DU CARRE;inconnue;inconnue
01006_0021_00058;01006_0021;58;;Rue de la Chapelle;01300;01006;Ambléon;;;902239.77;6519852.21;5.601727;45.748279;;;AMBLEON;RUE DE LA CHAPELLE;inconnue;inconnue
01006_0021_00212;01006_0021;212;;Rue de la Chapelle;01300;01006;Ambléon;;;902229.16;6519848.42;5.601589;45.748248;;;AMBLEON;RUE DE LA CHAPELLE;inconnue;inconnue
01006_0025_00005;01006_0025;5;;Rue du Clos;01300;01006;Ambléon;;;902209.2;6519934.87;5.601369;45.749032;;;AMBLEON;RUE DU CLOS;inconnue;inconnue
01006_0025_00016;01006_0025;16;;Rue du Clos;01300;01006;Ambléon;;;902206.86;6519913.68;5.60133;45.748842;;;AMBLEON;RUE DU CLOS;inconnue;inconnue
01006_0025_00038;01006_0025;38;;Rue du Clos;01300;01006;Ambléon;;;902211.79;6519898.85;5.601387;45.748707;;;AMBLEON;RUE DU CLOS;inconnue;inconnue
01006_0025_00055;01006_0025;55;;Rue du Clos;01300;01006;Ambléon;;;902222.42;6519894.86;5.601522;45.748668;;;AMBLEON;RUE DU CLOS;inconnue;inconnue
01006_0025_00070;01006_0025;70;;Rue du Clos;01300;01006;Ambléon;;;902218.42;6519876.95;5.601463;45.748508;;;AMBLEON;RUE DU CLOS;inconnue;inconnue
01006_0079_00041;01006_0079;41;;Chemin de la Source;01300;01006;Ambléon;;;902056.18;6519953.94;5.59941;45.749249;;;AMBLEON;CHEMIN DE LA SOURCE;inconnue;inconnue
01006_0079_00051;01006_0079;51;;Chemin de la Source;01300;01006;Ambléon;;;902067.77;6519953.99;5.599559;45.749246;;;AMBLEON;CHEMIN DE LA SOURCE;inconnue;inconnue
01006_0045_00051;01006_0045;51;;Rue du Four;01300;01006;Ambléon;;;902153.83;6519995.83;5.600683;45.749597;;;AMBLEON;RUE DU FOUR;inconnue;inconnue
01006_0045_00052;01006_0045;52;;Rue du Four;01300;01006;Ambléon;;;902161.61;6519988.75;5.60078;45.749531;;;AMBLEON;RUE DU FOUR;inconnue;inconnue
01006_0045_00055;01006_0045;55;;Rue du Four;01300;01006;Ambléon;;;902170.28;6519989.92;5.600892;45.749539;;;AMBLEON;RUE DU FOUR;arcep;inconnue
01006_0045_00059;01006_0045;59;;Rue du Four;01300;01006;Ambléon;;;902154.98;6520003.42;5.600701;45.749665;;;AMBLEON;RUE DU FOUR;inconnue;inconnue
01006_0045_00066;01006_0045;66;;Rue du Four;01300;01006;Ambléon;;;902165.86;6519996.44;5.600838;45.749599;;;AMBLEON;RUE DU FOUR;inconnue;inconnue
01006_0070_00015;01006_0070;15;;Route de la Prairie;01300;01006;Ambléon;;;902225.7;6519993.64;5.601606;45.749556;;;AMBLEON;ROUTE DE LA PRAIRIE;inconnue;inconnue
01006_0070_00027;01006_0070;27;;Route de la Prairie;01300;01006;Ambléon;;;902234.31;6519994.37;5.601717;45.74956;;;AMBLEON;ROUTE DE LA PRAIRIE;inconnue;inconnue
01006_0070_00045;01006_0070;45;;Route de la Prairie;01300;01006;Ambléon;;;902254.86;6519993.82;5.601981;45.749549;;;AMBLEON;ROUTE DE LA PRAIRIE;inconnue;inconnue
01006_0070_00057;01006_0070;57;;Route de la Prairie;01300;01006;Ambléon;;;902266.92;6519989.22;5.602134;45.749504;;;AMBLEON;ROUTE DE LA PRAIRIE;inconnue;inconnue
01006_0070_00066;01006_0070;66;;Route de la Prairie;01300;01006;Ambléon;;;902267.28;6519978.01;5.602134;45.749403;;;AMBLEON;ROUTE DE LA PRAIRIE;inconnue;inconnue
01006_0070_00091;01006_0070;91;;Route de la Prairie;01300;01006;Ambléon;;;902291.89;6519963.26;5.602444;45.749263;;;AMBLEON;ROUTE DE LA PRAIRIE;inconnue;inconnue
01006_0070_00108;01006_0070;108;;Route de la Prairie;01300;01006;Ambléon;;;902288.18;6519948.25;5.60239;45.749129;;;AMBLEON;ROUTE DE LA PRAIRIE;inconnue;inconnue
01006_0070_00126;01006_0070;126;;Route de la Prairie;01300;01006;Ambléon;;;902291.6;6519931.92;5.602427;45.748981;;;AMBLEON;ROUTE DE LA PRAIRIE;inconnue;inconnue
01006_0070_00150;01006_0070;150;;Route de la Prairie;01300;01006;Ambléon;;;902293.3;6519910.87;5.60244;45.748791;;;AMBLEON;ROUTE DE LA PRAIRIE;inconnue;inconnue
01006_0070_00158;01006_0070;158;;Route de la Prairie;01300;01006;Ambléon;;;902293.78;6519903.55;5.602443;45.748725;;;AMBLEON;ROUTE DE LA PRAIRIE;inconnue;inconnue
01006_0070_00163;01006_0070;163;;Route de la Prairie;01300;01006;Ambléon;;;902306.42;6519906.85;5.602607;45.748751;;;AMBLEON;ROUTE DE LA PRAIRIE;inconnue;inconnue
01006_0070_00165;01006_0070;165;;Route de la Prairie;01300;01006;Ambléon;;;902308.19;6519907.69;5.60263;45.748758;;;AMBLEON;ROUTE DE LA PRAIRIE;inconnue;inconnue
01006_0070_00212;01006_0070;212;;Route de la Prairie;01300;01006;Ambléon;;;902336.13;6519928.5;5.602998;45.748937;;;AMBLEON;ROUTE DE LA PRAIRIE;inconnue;inconnue
01006_0100_00014;01006_0100;14;;Rue du Village;01300;01006;Ambléon;;;902141.54;6519929.75;5.600497;45.749006;;;AMBLEON;RUE DU VILLAGE;inconnue;inconnue
01006_0100_00058;01006_0100;58;;Rue du Village;01300;01006;Ambléon;;;902124.49;6519896.97;5.600264;45.748716;;;AMBLEON;RUE DU VILLAGE;inconnue;inconnue
01006_0100_00075;01006_0100;75;;Rue du Village;01300;01006;Ambléon;;;902136.8;6519880.04;5.600415;45.74856;;;AMBLEON;RUE DU VILLAGE;inconnue;inconnue
01006_0100_00083;01006_0100;83;;Rue du Village;01300;01006;Ambléon;;;902148.52;6519880.65;5.600566;45.748562;;;AMBLEON;RUE DU VILLAGE;inconnue;inconnue
01006_0100_00093;01006_0100;93;;Rue du Village;01300;01006;Ambléon;;;902154.16;6519874.73;5.600636;45.748507;;;AMBLEON;RUE DU VILLAGE;inconnue;inconnue
01006_0030_00007;01006_0030;7;;Route des Combes;01300;01006;Ambléon;;;902191.7;6520057.52;5.601196;45.750141;;;AMBLEON;ROUTE DES COMBES;inconnue;inconnue
01006_0030_00022;01006_0030;22;;Route des Combes;01300;01006;Ambléon;;;902188.32;6520086.96;5.601165;45.750407;;;AMBLEON;ROUTE DES COMBES;inconnue;inconnue
01006_0030_00043;01006_0030;43;;Route des Combes;01300;01006;Ambléon;;;902174.99;6520083.08;5.600992;45.750376;;;AMBLEON;ROUTE DES COMBES;inconnue;inconnue
01006_0030_00100;01006_0030;100;;Route des Combes;01300;01006;Ambléon;;;902135;6520130.01;5.600498;45.75081;;;AMBLEON;ROUTE DES COMBES;arcep;inconnue
01006_0030_00138;01006_0030;138;;Route des Combes;01300;01006;Ambléon;;;902082.41;6520100.03;5.599809;45.750556;;;AMBLEON;ROUTE DES COMBES;inconnue;inconnue
01006_0030_00222;01006_0030;222;;Route des Combes;01300;01006;Ambléon;;;901999.13;6520115.62;5.598745;45.750721;;;AMBLEON;ROUTE DES COMBES;inconnue;inconnue
01006_0050_00111;01006_0050;111;;Grande Rue;01300;01006;Ambléon;;;902206.95;6520066.8;5.601396;45.75022;;;AMBLEON;GRANDE RUE;inconnue;inconnue
01006_0050_00150;01006_0050;150;;Grande Rue;01300;01006;Ambléon;;;902187.31;6519853.26;5.601053;45.748304;;;AMBLEON;GRANDE RUE;inconnue;inconnue
01006_0050_00159;01006_0050;159;;Grande Rue;01300;01006;Ambléon;;;902178.31;6519854.97;5.600938;45.748322;;;AMBLEON;GRANDE RUE;inconnue;inconnue
01006_0050_00246;01006_0050;246;;Grande Rue;01300;01006;Ambléon;;;902199.86;6519920.79;5.601243;45.748908;;;AMBLEON;GRANDE RUE;inconnue;inconnue
01006_0050_00248;01006_0050;248;;Grande Rue;01300;01006;Ambléon;;;902200.28;6519922.13;5.601249;45.74892;;;AMBLEON;GRANDE RUE;inconnue;inconnue
01006_0050_00259;01006_0050;259;;Grande Rue;01300;01006;Ambléon;;;902198.01;6519944.06;5.601229;45.749118;;;AMBLEON;GRANDE RUE;inconnue;inconnue
01006_0050_00272;01006_0050;272;;Grande Rue;01300;01006;Ambléon;;;902210.42;6519961.47;5.601396;45.749271;;;AMBLEON;GRANDE RUE;inconnue;inconnue
01006_0050_00291;01006_0050;291;;Grande Rue;01300;01006;Ambléon;;;902202.48;6519983.1;5.601303;45.749468;;;AMBLEON;GRANDE RUE;inconnue;inconnue
01006_0050_00311;01006_0050;311;;Grande Rue;01300;01006;Ambléon;;;902199.19;6520011.88;5.601273;45.749728;;;AMBLEON;GRANDE RUE;inconnue;inconnue
01006_0050_00320;01006_0050;320;;Grande Rue;01300;01006;Ambléon;;;902208.14;6520011.95;5.601388;45.749726;;;AMBLEON;GRANDE RUE;inconnue;inconnue
01006_0050_00324;01006_0050;324;;Grande Rue;01300;01006;Ambléon;;;902207.69;6520015.93;5.601384;45.749762;;;AMBLEON;GRANDE RUE;inconnue;inconnue
01006_0050_00331;01006_0050;331;;Grande Rue;01300;01006;Ambléon;;;902198.03;6520026.06;5.601264;45.749856;;;AMBLEON;GRANDE RUE;inconnue;inconnue
01006_0050_00339;01006_0050;339;;Grande Rue;01300;01006;Ambléon;;;902197.61;6520031.6;5.601261;45.749906;;;AMBLEON;GRANDE RUE;inconnue;inconnue
01006_0050_00343;01006_0050;343;;Grande Rue;01300;01006;Ambléon;;;902197.36;6520034.37;5.601259;45.749931;;;AMBLEON;GRANDE RUE;inconnue;inconnue
01006_0050_00358;01006_0050;358;;Grande Rue;01300;01006;Ambléon;;;902206.1;6520050.21;5.601378;45.750071;;;AMBLEON;GRANDE RUE;inconnue;inconnue
01006_0050_00444;01006_0050;444;;Grande Rue;01300;01006;Ambléon;;;902170.9;6519746.94;5.600797;45.747352;;;AMBLEON;GRANDE RUE;inconnue;inconnue
01006_0050_00478;01006_0050;478;;Grande Rue;01300;01006;Ambléon;;;902241.42;6520165.6;5.601881;45.751099;;;AMBLEON;GRANDE RUE;inconnue;inconnue
01006_0050_00484;01006_0050;484;;Grande Rue;01300;01006;Ambléon;;;902243.68;6520170.34;5.601912;45.751141;;;AMBLEON;GRANDE RUE;inconnue;inconnue
01006_0050_00491;01006_0050;491;;Grande Rue;01300;01006;Ambléon;;;902235.12;6520172.62;5.601803;45.751164;;;AMBLEON;GRANDE RUE;inconnue;inconnue
01006_0050_00493;01006_0050;493;;Grande Rue;01300;01006;Ambléon;;;902235.7;6520173.86;5.601811;45.751175;;;AMBLEON;GRANDE RUE;inconnue;inconnue
01006_0050_00507;01006_0050;507;;Grande Rue;01300;01006;Ambléon;;;902247.64;6520201.25;5.601976;45.751418;;;AMBLEON;GRANDE RUE;inconnue;inconnue
01006_0050_00557;01006_0050;557;;Grande Rue;01300;01006;Ambléon;;;902261.99;6520244.95;5.602179;45.751807;;;AMBLEON;GRANDE RUE;inconnue;inconnue
01006_0050_00597;01006_0050;597;;Grande Rue;01300;01006;Ambléon;;;902175.61;6519700.65;5.600838;45.746934;;;AMBLEON;GRANDE RUE;inconnue;inconnue
01006_0050_00623;01006_0050;623;;Grande Rue;01300;01006;Ambléon;;;902271.81;6520305.49;5.602331;45.752349;;;AMBLEON;GRANDE RUE;inconnue;inconnue
01006_0023_00030;01006_0023;30;;Rue du Chateau;01300;01006;Ambléon;;;902177.9;6519952.29;5.600974;45.749198;;;AMBLEON;RUE DU CHATEAU;inconnue;inconnue
01006_0023_00071;01006_0023;71;;Rue du Chateau;01300;01006;Ambléon;;;902132.6;6519943.79;5.600388;45.749135;;;AMBLEON;RUE DU CHATEAU;inconnue;inconnue
01006_0023_00095;01006_0023;95;;Rue du Chateau;01300;01006;Ambléon;;;902111.38;6519959.65;5.600122;45.749284;;;AMBLEON;RUE DU CHATEAU;inconnue;inconnue
01006_0023_00104;01006_0023;104;;Rue du Chateau;01300;01006;Ambléon;;;902109.76;6519978.04;5.600109;45.74945;;;AMBLEON;RUE DU CHATEAU;inconnue;inconnue
01006_0023_00147;01006_0023;147;;Rue du Chateau;01300;01006;Ambléon;;;902078.79;6519978.58;5.599711;45.749464;;;AMBLEON;RUE DU CHATEAU;inconnue;inconnue
01006_0023_00173;01006_0023;173;;Rue du Chateau;01300;01006;Ambléon;;;902055.1;6519998.57;5.599415;45.749651;;;AMBLEON;RUE DU CHATEAU;inconnue;inconnue
01006_0023_00179;01006_0023;179;;Rue du Chateau;01300;01006;Ambléon;;;902055.79;6520003.82;5.599426;45.749698;;;AMBLEON;RUE DU CHATEAU;inconnue;inconnue
01006_0023_00242;01006_0023;242;;Rue du Chateau;01300;01006;Ambléon;;;902079.58;6520056.05;5.599754;45.750161;;;AMBLEON;RUE DU CHATEAU;inconnue;inconnue
01006_0023_00247;01006_0023;247;;Rue du Chateau;01300;01006;Ambléon;;;902061.05;6520028.21;5.599504;45.749916;;;AMBLEON;RUE DU CHATEAU;inconnue;inconnue
01006_0023_00263;01006_0023;263;;Rue du Chateau;01300;01006;Ambléon;;;902074.54;6520074.55;5.599697;45.750329;;;AMBLEON;RUE DU CHATEAU;inconnue;inconnue
01110_0005_00202;01110_0005;202;;Chemin de Buis;01300;01110;Colomieu;;;903742.88;6518153.92;5.620325;45.732547;;;COLOMIEU;CHEMIN DE BUIS;inconnue;inconnue
01110_0005_00261;01110_0005;261;;Chemin de Buis;01300;01110;Colomieu;;;903713.01;6518142.16;5.619936;45.73245;;;COLOMIEU;CHEMIN DE BUIS;inconnue;inconnue
01110_0018_00067;01110_0018;67;;Rue de la Mairie;01300;01110;Colomieu;;;903732.77;6518186.7;5.620209;45.732845;;;COLOMIEU;RUE DE LA MAIRIE;inconnue;inconnue
01110_0018_00071;01110_0018;71;;Rue de la Mairie;01300;01110;Colomieu;;;903758.17;6518209.21;5.620545;45.73304;;;COLOMIEU;RUE DE LA MAIRIE;inconnue;inconnue
01110_0018_00077;01110_0018;77;;Rue de la Mairie;01300;01110;Colomieu;;;903754.2;6518234.97;5.620505;45.733273;;;COLOMIEU;RUE DE LA MAIRIE;inconnue;inconnue
01110_0018_00087;01110_0018;87;;Rue de la Mairie;01300;01110;Colomieu;;;903715.83;6518242.36;5.620015;45.733351;;;COLOMIEU;RUE DE LA MAIRIE;inconnue;inconnue
01110_0018_00094;01110_0018;94;;Rue de la Mairie;01300;01110;Colomieu;;;903759.81;6518244.04;5.620581;45.733353;;;COLOMIEU;RUE DE LA MAIRIE;inconnue;inconnue
01110_0018_00114;01110_0018;114;;Rue de la Mairie;01300;01110;Colomieu;;;903764;6518267.96;5.620645;45.733567;;;COLOMIEU;RUE DE LA MAIRIE;inconnue;inconnue
01110_0018_00127;01110_0018;127;;Rue de la Mairie;01300;01110;Colomieu;;;903742.27;6518261.46;5.620363;45.733515;;;COLOMIEU;RUE DE LA MAIRIE;inconnue;inconnue
01110_0004_00120;01110_0004;120;;Route de Bondar;01300;01110;Colomieu;;;903842.22;6518236.67;5.621637;45.733262;;;COLOMIEU;ROUTE DE BONDAR;inconnue;inconnue
01110_0004_00121;01110_0004;121;;Route de Bondar;01300;01110;Colomieu;;;903820.77;6518217.18;5.621353;45.733093;;;COLOMIEU;ROUTE DE BONDAR;inconnue;inconnue
01110_0004_00179;01110_0004;179;;Route de Bondar;01300;01110;Colomieu;;;903803.82;6518235.73;5.621143;45.733265;;;COLOMIEU;ROUTE DE BONDAR;inconnue;inconnue
01110_0004_00185;01110_0004;185;;Route de Bondar;01300;01110;Colomieu;;;903792.46;6518240.24;5.620999;45.733309;;;COLOMIEU;ROUTE DE BONDAR;inconnue;inconnue
01110_0004_00191;01110_0004;191;;Route de Bondar;01300;01110;Colomieu;;;903789.88;6518257.15;5.620973;45.733462;;;COLOMIEU;ROUTE DE BONDAR;inconnue;inconnue
01110_0004_00206;01110_0004;206;;Route de Bondar;01300;01110;Colomieu;;;903807.4;6518275.51;5.621206;45.733622;;;COLOMIEU;ROUTE DE BONDAR;inconnue;inconnue
01110_0004_00268;01110_0004;268;;Route de Bondar;01300;01110;Colomieu;;;903815.67;6518345.23;5.621342;45.734247;;;COLOMIEU;ROUTE DE BONDAR;inconnue;inconnue
01110_0004_00297;01110_0004;297;;Route de Bondar;01300;01110;Colomieu;;;903798.82;6518372.23;5.621137;45.734495;;;COLOMIEU;ROUTE DE BONDAR;inconnue;inconnue
01110_0004_00317;01110_0004;317;;Route de Bondar;01300;01110;Colomieu;;;903798.2;6518397.88;5.62114;45.734726;;;COLOMIEU;ROUTE DE BONDAR;inconnue;inconnue
01110_0030_00215;01110_0030;215;;Route du Vernay;01300;01110;Colomieu;;;903779.01;6518258.68;5.620834;45.733479;;;COLOMIEU;ROUTE DU VERNAY;inconnue;inconnue
01110_0030_00218;01110_0030;218;;Route du Vernay;01300;01110;Colomieu;;;903782.52;6518286.46;5.620891;45.733728;;;COLOMIEU;ROUTE DU VERNAY;inconnue;inconnue
01110_0030_00219;01110_0030;219;;Route du Vernay;01300;01110;Colomieu;;;903771.87;6518263;5.620744;45.73352;;;COLOMIEU;ROUTE DU VERNAY;inconnue;inconnue
01110_0030_00245;01110_0030;245;;Route du Vernay;01300;01110;Colomieu;;;903690.83;6518289.75;5.619714;45.733785;;;COLOMIEU;ROUTE DU VERNAY;inconnue;inconnue
01110_0030_00260;01110_0030;260;;Route du Vernay;01300;01110;Colomieu;;;903769.96;6518294.49;5.620733;45.733804;;;COLOMIEU;ROUTE DU VERNAY;inconnue;inconnue
01110_0030_00278;01110_0030;278;;Route du Vernay;01300;01110;Colomieu;;;903743.09;6518311.71;5.620395;45.733967;;;COLOMIEU;ROUTE DU VERNAY;inconnue;inconnue
01110_0030_00280;01110_0030;280;;Route du Vernay;01300;01110;Colomieu;;;903729.49;6518337.15;5.620231;45.7342;;;COLOMIEU;ROUTE DU VERNAY;inconnue;inconnue
01110_0030_00299;01110_0030;299;;Route du Vernay;01300;01110;Colomieu;;;903708.88;6518320.46;5.619959;45.734056;;;COLOMIEU;ROUTE DU VERNAY;inconnue;inconnue
01110_0030_00301;01110_0030;301;;Route du Vernay;01300;01110;Colomieu;;;903713.31;6518322.94;5.620017;45.734077;;;COLOMIEU;ROUTE DU VERNAY;inconnue;inconnue
01110_0030_00322;01110_0030;322;;Route du Vernay;01300;01110;Colomieu;;;903723.8;6518363.18;5.620169;45.734436;;;COLOMIEU;ROUTE DU VERNAY;inconnue;inconnue
01110_0030_00347;01110_0030;347;;Route du Vernay;01300;01110;Colomieu;;;903677.81;6518344.54;5.61957;45.734282;;;COLOMIEU;ROUTE DU VERNAY;inconnue;inconnue
01110_0030_00420;01110_0030;420;;Route du Vernay;01300;01110;Colomieu;;;903601.95;6518506.14;5.618664;45.735759;;;COLOMIEU;ROUTE DU VERNAY;inconnue;inconnue
01110_0055_00323;01110_0055;323;;Route du Stade;01300;01110;Colomieu;;;904034.69;6518223.95;5.624105;45.73309;;;COLOMIEU;ROUTE DU STADE;inconnue;inconnue
01110_0055_00373;01110_0055;373;;Route du Stade;01300;01110;Colomieu;;;904050.86;6518184.38;5.624296;45.732729;;;COLOMIEU;ROUTE DU STADE;inconnue;inconnue
01110_0055_00380;01110_0055;380;;Route du Stade;01300;01110;Colomieu;;;903991.72;6518165.97;5.623528;45.732581;;;COLOMIEU;ROUTE DU STADE;inconnue;inconnue
01110_0055_00394;01110_0055;394;;Route du Stade;01300;01110;Colomieu;;;903967.51;6518131.05;5.623202;45.732274;;;COLOMIEU;ROUTE DU STADE;inconnue;inconnue
01110_0055_00403;01110_0055;403;;Route du Stade;01300;01110;Colomieu;;;904115.41;6518166.75;5.625118;45.732551;;;COLOMIEU;ROUTE DU STADE;inconnue;inconnue
01110_0118_00193;01110_0118;193;;Route du Moulin;01300;01110;Colomieu;;;903913.78;6518247.05;5.622561;45.733334;;;COLOMIEU;ROUTE DU MOULIN;inconnue;inconnue
01110_0118_00204;01110_0118;204;;Route du Moulin;01300;01110;Colomieu;;;903917.4;6518217.72;5.622595;45.733069;;;COLOMIEU;ROUTE DU MOULIN;inconnue;inconnue
01110_0118_00211;01110_0118;211;;Route du Moulin;01300;01110;Colomieu;;;903928.1;6518275.7;5.622757;45.733588;;;COLOMIEU;ROUTE DU MOULIN;cadastre;inconnue
01110_0118_00225;01110_0118;225;;Route du Moulin;01300;01110;Colomieu;;;903944.54;6518236.96;5.622952;45.733234;;;COLOMIEU;ROUTE DU MOULIN;inconnue;inconnue
01110_0118_00226;01110_0118;226;;Route du Moulin;01300;01110;Colomieu;;;903960.79;6518190.5;5.623141;45.732811;;;COLOMIEU;ROUTE DU MOULIN;inconnue;inconnue
01110_0118_00235;01110_0118;235;;Route du Moulin;01300;01110;Colomieu;;;903967.73;6518255.39;5.623258;45.733393;;;COLOMIEU;ROUTE DU MOULIN;inconnue;inconnue
01110_0118_00244;01110_0118;244;;Route du Moulin;01300;01110;Colomieu;;;903956.62;6518222.36;5.623101;45.733099;;;COLOMIEU;ROUTE DU MOULIN;inconnue;inconnue
01110_0118_00254;01110_0118;254;;Route du Moulin;01300;01110;Colomieu;;;904146.88;6518235.91;5.625552;45.733164;;;COLOMIEU;ROUTE DU MOULIN;inconnue;inconnue
01110_0118_00270;01110_0118;270;;Route du Moulin;01300;01110;Colomieu;;;903984.2;6518221.16;5.623455;45.73308;;;COLOMIEU;ROUTE DU MOULIN;inconnue;inconnue
01110_0118_00273;01110_0118;273;;Route du Moulin;01300;01110;Colomieu;;;904001.89;6518239.08;5.62369;45.733236;;;COLOMIEU;ROUTE DU MOULIN;inconnue;inconnue
01110_0118_00288;01110_0118;288;;Route du Moulin;01300;01110;Colomieu;;;904009.82;6518227.46;5.623787;45.733129;;;COLOMIEU;ROUTE DU MOULIN;inconnue;inconnue
01110_0118_00298;01110_0118;298;;Route du Moulin;01300;01110;Colomieu;;;904011.26;6518216.95;5.623801;45.733034;;;COLOMIEU;ROUTE DU MOULIN;inconnue;inconnue
01110_0118_00305;01110_0118;305;;Route du Moulin;01300;01110;Colomieu;;;904020.28;6518252.36;5.623932;45.73335;;;COLOMIEU;ROUTE DU MOULIN;inconnue;inconnue
01110_0118_00314;01110_0118;314;;Route du Moulin;01300;01110;Colomieu;;;904013.37;6518198.02;5.62382;45.732863;;;COLOMIEU;ROUTE DU MOULIN;inconnue;inconnue
01110_0118_00319;01110_0118;319;;Route du Moulin;01300;01110;Colomieu;;;904041.44;6518261.96;5.624208;45.73343;;;COLOMIEU;ROUTE DU MOULIN;inconnue;inconnue
01110_0118_00332;01110_0118;332;;Route du Moulin;01300;01110;Colomieu;;;904185.4;6518170.3;5.626019;45.732562;;;COLOMIEU;ROUTE DU MOULIN;inconnue;inconnue
01110_0118_00344;01110_0118;344;;Route du Moulin;01300;01110;Colomieu;;;904192.11;6518160.52;5.626101;45.732472;;;COLOMIEU;ROUTE DU MOULIN;inconnue;inconnue
01110_0118_00355;01110_0118;355;;Route du Moulin;01300;01110;Colomieu;;;904069.8;6518265.45;5.624574;45.733453;;;COLOMIEU;ROUTE DU MOULIN;inconnue;inconnue
01110_0118_00360;01110_0118;360;;Route du Moulin;01300;01110;Colomieu;;;904202.86;6518148.32;5.626234;45.732359;;;COLOMIEU;ROUTE DU MOULIN;inconnue;inconnue
01110_0118_00368;01110_0118;368;;Route du Moulin;01300;01110;Colomieu;;;904114.82;6518242.95;5.625143;45.733237;;;COLOMIEU;ROUTE DU MOULIN;inconnue;inconnue
01110_0118_00448;01110_0118;448;;Route du Moulin;01300;01110;Colomieu;;;904139.52;6518216.22;5.625449;45.732989;;;COLOMIEU;ROUTE DU MOULIN;inconnue;inconnue
01110_0118_00211_a;01110_0118;211;a;Route du Moulin;01300;01110;Colomieu;;;903949.53;6518255.23;5.623024;45.733397;;;COLOMIEU;ROUTE DU MOULIN;inconnue;inconnue
01110_0118_00211_b;01110_0118;211;b;Route du Moulin;01300;01110;Colomieu;;;904105.51;6518258.64;5.62503;45.733381;;;COLOMIEU;ROUTE DU MOULIN;inconnue;inconnue
01110_0006_00187;01110_0006;187;;Impasse de l'Agnin;01300;01110;Colomieu;;;903901.39;6518209.97;5.622386;45.733004;;;COLOMIEU;IMPASSE DE L AGNIN;inconnue;inconnue
01110_0006_00207;01110_0006;207;;Impasse de l'Agnin;01300;01110;Colomieu;;;903928.03;6518199.85;5.622724;45.732905;;;COLOMIEU;IMPASSE DE L AGNIN;inconnue;inconnue
01110_0006_00217;01110_0006;217;;Impasse de l'Agnin;01300;01110;Colomieu;;;903921.68;6518191.97;5.622639;45.732836;;;COLOMIEU;IMPASSE DE L AGNIN;inconnue;inconnue
01110_0006_00227;01110_0006;227;;Impasse de l'Agnin;01300;01110;Colomieu;;;903935.7;6518165.66;5.622808;45.732595;;;COLOMIEU;IMPASSE DE L AGNIN;inconnue;inconnue
01110_0006_00187_bis;01110_0006;187;bis;Impasse de l'Agnin;01300;01110;Colomieu;;;903910.57;6518203.05;5.622501;45.732939;;;COLOMIEU;IMPASSE DE L AGNIN;inconnue;inconnue
01110_0068_00034;01110_0068;34;;Route de Croze;01300;01110;Colomieu;;;903820.69;6518135.4;5.621317;45.732357;;;COLOMIEU;ROUTE DE CROZE;inconnue;inconnue
01110_0068_00044;01110_0068;44;;Route de Croze;01300;01110;Colomieu;;;903818.78;6518152.89;5.6213;45.732515;;;COLOMIEU;ROUTE DE CROZE;inconnue;inconnue
01110_0068_00078;01110_0068;78;;Route de Croze;01300;01110;Colomieu;;;903829.49;6518170.25;5.621445;45.732668;;;COLOMIEU;ROUTE DE CROZE;inconnue;inconnue
01110_0068_00101;01110_0068;101;;Route de Croze;01300;01110;Colomieu;;;903802.19;6518205.01;5.621109;45.732989;;;COLOMIEU;ROUTE DE CROZE;inconnue;inconnue
01110_0068_00103;01110_0068;103;;Route de Croze;01300;01110;Colomieu;;;903790.51;6518195.95;5.620955;45.732911;;;COLOMIEU;ROUTE DE CROZE;inconnue;inconnue
01110_0068_00108;01110_0068;108;;Route de Croze;01300;01110;Colomieu;;;903830.73;6518186.95;5.621468;45.732818;;;COLOMIEU;ROUTE DE CROZE;inconnue;inconnue
01110_0068_00121;01110_0068;121;;Route de Croze;01300;01110;Colomieu;;;903813.87;6518134.39;5.621229;45.73235;;;COLOMIEU;ROUTE DE CROZE;inconnue;inconnue
01110_0068_00420;01110_0068;420;;Route de Croze;01300;01110;Colomieu;;;903853.73;6518208.94;5.621773;45.733009;;;COLOMIEU;ROUTE DE CROZE;inconnue;inconnue
01110_0020_00220;01110_0020;220;;Chemin de Sanceres;01300;01110;Colomieu;;;903900;6518256.7;5.622388;45.733425;;;COLOMIEU;CHEMIN DE SANCERES;inconnue;inconnue
01110_0020_00256;01110_0020;256;;Chemin de Sanceres;01300;01110;Colomieu;;;903912.88;6518288.02;5.622567;45.733703;;;COLOMIEU;CHEMIN DE SANCERES;inconnue;inconnue
01110_0020_00292;01110_0020;292;;Chemin de Sanceres;01300;01110;Colomieu;;;903941.79;6518319.53;5.622952;45.733978;;;COLOMIEU;CHEMIN DE SANCERES;inconnue;inconnue
01110_0020_00364;01110_0020;364;;Chemin de Sanceres;01300;01110;Colomieu;;;903942.02;6518392.21;5.622986;45.734632;;;COLOMIEU;CHEMIN DE SANCERES;inconnue;inconnue
01110_0020_00381;01110_0020;381;;Chemin de Sanceres;01300;01110;Colomieu;;;903907.99;6518432.97;5.622566;45.735009;;;COLOMIEU;CHEMIN DE SANCERES;inconnue;inconnue
01110_0020_00387;01110_0020;387;;Chemin de Sanceres;01300;01110;Colomieu;;;903925.42;6518465.66;5.622804;45.735298;;;COLOMIEU;CHEMIN DE SANCERES;inconnue;inconnue
01110_0020_00393;01110_0020;393;;Chemin de Sanceres;01300;01110;Colomieu;;;903948.54;6518420.98;5.623082;45.734889;;;COLOMIEU;CHEMIN DE SANCERES;inconnue;inconnue
01110_0015_00101;01110_0015;101;;Rue de l'Eglise;01300;01110;Colomieu;;;903766.52;6518098.15;5.620605;45.732038;;;COLOMIEU;RUE DE L EGLISE;inconnue;inconnue
01110_0015_00104;01110_0015;104;;Rue de l'Eglise;01300;01110;Colomieu;;;903761.01;6518109.53;5.620539;45.732142;;;COLOMIEU;RUE DE L EGLISE;inconnue;inconnue
01110_0015_00117;01110_0015;117;;Rue de l'Eglise;01300;01110;Colomieu;;;903767.71;6518085.75;5.620615;45.731926;;;COLOMIEU;RUE DE L EGLISE;inconnue;inconnue
01110_0015_00143;01110_0015;143;;Rue de l'Eglise;01300;01110;Colomieu;;;903751.24;6518042.98;5.620385;45.731546;;;COLOMIEU;RUE DE L EGLISE;inconnue;inconnue
01110_0015_00183;01110_0015;183;;Rue de l'Eglise;01300;01110;Colomieu;;;903757.36;6518116.18;5.620495;45.732203;;;COLOMIEU;RUE DE L EGLISE;inconnue;inconnue
01110_0015_00184;01110_0015;184;;Rue de l'Eglise;01300;01110;Colomieu;;;903769.88;6518149.38;5.62067;45.732498;;;COLOMIEU;RUE DE L EGLISE;inconnue;inconnue
01110_0015_00210;01110_0015;210;;Rue de l'Eglise;01300;01110;Colomieu;;;903780.99;6518168.52;5.620821;45.732667;;;COLOMIEU;RUE DE L EGLISE;inconnue;inconnue
01110_0015_00223;01110_0015;223;;Rue de l'Eglise;01300;01110;Colomieu;;;903764.48;6518173.75;5.620611;45.732719;;;COLOMIEU;RUE DE L EGLISE;inconnue;inconnue
01110_0065_00332;01110_0065;332;;Chemin du Tracot;01300;01110;Colomieu;;;903986.67;6518278.02;5.623511;45.733591;;;COLOMIEU;CHEMIN DU TRACOT;inconnue;inconnue
01110_0065_00344;01110_0065;344;;Chemin du Tracot;01300;01110;Colomieu;;;903969.28;6518293.22;5.623294;45.733733;;;COLOMIEU;CHEMIN DU TRACOT;inconnue;inconnue
01111_0075_00023;01111_0075;23;;Chemin des Vignes;01230;01111;Conand;;;891604.97;6535592.78;5.471342;45.893024;;;CONAND;CHEMIN DES VIGNES;inconnue;inconnue
01111_0075_00044;01111_0075;44;;Chemin des Vignes;01230;01111;Conand;;;891621.3;6535606.29;5.471558;45.893141;;;CONAND;CHEMIN DES VIGNES;inconnue;inconnue
01111_0026_00166;01111_0026;166;;Chemin de Conand de le;01230;01111;Conand;;;891092.01;6535567.52;5.46472;45.892941;;;CONAND;CHEMIN DE CONAND DE LE;inconnue;inconnue
01111_0026_00198;01111_0026;198;;Chemin de Conand de le;01230;01111;Conand;;;891086.19;6535537.78;5.464633;45.892675;;;CONAND;CHEMIN DE CONAND DE LE;inconnue;inconnue
01111_0007_00001;01111_0007;1;;Chemin de l'Argentiere;01230;01111;Conand;;;890526.11;6536632.36;5.457853;45.902684;;;CONAND;CHEMIN DE L ARGENTIERE;inconnue;inconnue
01111_0007_00815;01111_0007;815;;Chemin de l'Argentiere;01230;01111;Conand;;;890186.92;6537315.65;5.453754;45.908929;;;CONAND;CHEMIN DE L ARGENTIERE;inconnue;inconnue
01111_0034_00023;01111_0034;23;;Impasse de la Fruitiere;01230;01111;Conand;;;891116.18;6535543.83;5.465022;45.892721;;;CONAND;IMPASSE DE LA FRUITIERE;inconnue;inconnue
01111_0034_00027;01111_0034;27;;Impasse de la Fruitiere;01230;01111;Conand;;;891118.67;6535541.24;5.465053;45.892697;;;CONAND;IMPASSE DE LA FRUITIERE;inconnue;inconnue
01111_0018_00085;01111_0018;85;;Route de la Caline;01230;01111;Conand;;;891716.08;6535500.59;5.472737;45.892163;;;CONAND;ROUTE DE LA CALINE;inconnue;inconnue
01111_0018_00103;01111_0018;103;;Route de la Caline;01230;01111;Conand;;;891703.93;6535512.1;5.472585;45.89227;;;CONAND;ROUTE DE LA CALINE;inconnue;inconnue
01111_0018_00110;01111_0018;110;;Route de la Caline;01230;01111;Conand;;;891711.21;6535517.33;5.472681;45.892315;;;CONAND;ROUTE DE LA CALINE;inconnue;inconnue
01111_0018_00124;01111_0018;124;;Route de la Caline;01230;01111;Conand;;;891693.44;6535532.33;5.472458;45.892455;;;CONAND;ROUTE DE LA CALINE;inconnue;inconnue
01111_0018_00165;01111_0018;165;;Route de la Caline;01230;01111;Conand;;;891649.29;6535547.5;5.471895;45.892604;;;CONAND;ROUTE DE LA CALINE;inconnue;inconnue
01111_0018_00173;01111_0018;173;;Route de la Caline;01230;01111;Conand;;;891643.28;6535551.09;5.471819;45.892638;;;CONAND;ROUTE DE LA CALINE;inconnue;inconnue
01111_0018_00174;01111_0018;174;;Route de la Caline;01230;01111;Conand;;;891670.54;6535547.51;5.472169;45.892598;;;CONAND;ROUTE DE LA CALINE;cadastre;inconnue
01111_0018_00181;01111_0018;181;;Route de la Caline;01230;01111;Conand;;;891637.62;6535553.58;5.471747;45.892662;;;CONAND;ROUTE DE LA CALINE;inconnue;inconnue
01111_0018_00189;01111_0018;189;;Route de la Caline;01230;01111;Conand;;;891640.26;6535549.67;5.47178;45.892626;;;CONAND;ROUTE DE LA CALINE;cadastre;inconnue
01111_0018_00199;01111_0018;199;;Route de la Caline;01230;01111;Conand;;;891621.68;6535559.41;5.471544;45.892719;;;CONAND;ROUTE DE LA CALINE;inconnue;inconnue
01111_0018_00202;01111_0018;202;;Route de la Caline;01230;01111;Conand;;;891629.62;6535566.22;5.471649;45.892778;;;CONAND;ROUTE DE LA CALINE;inconnue;inconnue
01111_0018_00218;01111_0018;218;;Route de la Caline;01230;01111;Conand;;;891597.01;6535574.53;5.471232;45.892862;;;CONAND;ROUTE DE LA CALINE;inconnue;inconnue
01111_0018_00239;01111_0018;239;;Route de la Caline;01230;01111;Conand;;;891585.81;6535567.84;5.471085;45.892805;;;CONAND;ROUTE DE LA CALINE;inconnue;inconnue
01111_0018_00260;01111_0018;260;;Route de la Caline;01230;01111;Conand;;;891558.5;6535585.1;5.47074;45.892968;;;CONAND;ROUTE DE LA CALINE;inconnue;inconnue
01111_0018_00261;01111_0018;261;;Route de la Caline;01230;01111;Conand;;;891564.67;6535573.85;5.470815;45.892865;;;CONAND;ROUTE DE LA CALINE;inconnue;inconnue
01111_0018_00282;01111_0018;282;;Route de la Caline;01230;01111;Conand;;;891539.6;6535591.62;5.470499;45.893032;;;CONAND;ROUTE DE LA CALINE;inconnue;inconnue
01111_0018_00299;01111_0018;299;;Route de la Caline;01230;01111;Conand;;;891529.08;6535585.85;5.470361;45.892983;;;CONAND;ROUTE DE LA CALINE;inconnue;inconnue
01111_0018_00323;01111_0018;323;;Route de la Caline;01230;01111;Conand;;;891505.94;6535594.01;5.470066;45.893063;;;CONAND;ROUTE DE LA CALINE;inconnue;inconnue
01111_0018_00345;01111_0018;345;;Route de la Caline;01230;01111;Conand;;;891484.39;6535600.78;5.469791;45.89313;;;CONAND;ROUTE DE LA CALINE;inconnue;inconnue
01111_0018_00375;01111_0018;375;;Route de la Caline;01230;01111;Conand;;;891455.58;6535606.54;5.469422;45.89319;;;CONAND;ROUTE DE LA CALINE;inconnue;inconnue
01111_0018_00387;01111_0018;387;;Route de la Caline;01230;01111;Conand;;;891443.41;6535608.72;5.469266;45.893213;;;CONAND;ROUTE DE LA CALINE;inconnue;inconnue
01111_0018_00437;01111_0018;437;;Route de la Caline;01230;01111;Conand;;;891393.77;6535618.28;5.46863;45.893313;;;CONAND;ROUTE DE LA CALINE;inconnue;inconnue
01111_0018_00580;01111_0018;580;;Route de la Caline;01230;01111;Conand;;;891256.38;6535655.2;5.466874;45.893684;;;CONAND;ROUTE DE LA CALINE;inconnue;inconnue
01111_0018_00595;01111_0018;595;;Route de la Caline;01230;01111;Conand;;;891238.28;6535653.64;5.46664;45.893675;;;CONAND;ROUTE DE LA CALINE;inconnue;inconnue
01111_0018_00614;01111_0018;614;;Route de la Caline;01230;01111;Conand;;;891235.38;6535666.88;5.466608;45.893795;;;CONAND;ROUTE DE LA CALINE;inconnue;inconnue
01111_0018_00660;01111_0018;660;;Route de la Caline;01230;01111;Conand;;;891199.43;6535705.31;5.46616;45.894151;;;CONAND;ROUTE DE LA CALINE;inconnue;inconnue
01111_0018_01016;01111_0018;1016;;Route de la Caline;01230;01111;Conand;;;890954.58;6535953.98;5.463104;45.896458;;;CONAND;ROUTE DE LA CALINE;inconnue;inconnue
01111_0018_01264;01111_0018;1264;;Route de la Caline;01230;01111;Conand;;;890739.87;6536072.94;5.460384;45.897589;;;CONAND;ROUTE DE LA CALINE;inconnue;inconnue
01111_0018_01289;01111_0018;1289;;Route de la Caline;01230;01111;Conand;;;890721.9;6536074.38;5.460153;45.897607;;;CONAND;ROUTE DE LA CALINE;inconnue;inconnue
01111_0018_01317;01111_0018;1317;;Route de la Caline;01230;01111;Conand;;;890686.73;6536102.73;5.459711;45.897872;;;CONAND;ROUTE DE LA CALINE;inconnue;inconnue
01111_0018_01330;01111_0018;1330;;Route de la Caline;01230;01111;Conand;;;890689.13;6536112.92;5.459746;45.897963;;;CONAND;ROUTE DE LA CALINE;inconnue;inconnue
01111_0018_01353;01111_0018;1353;;Route de la Caline;01230;01111;Conand;;;890664.49;6536127.04;5.459434;45.898097;;;CONAND;ROUTE DE LA CALINE;inconnue;inconnue
01111_0018_01363;01111_0018;1363;;Route de la Caline;01230;01111;Conand;;;890658.76;6536133.97;5.459363;45.898161;;;CONAND;ROUTE DE LA CALINE;inconnue;inconnue
01111_0018_01395;01111_0018;1395;;Route de la Caline;01230;01111;Conand;;;890640.3;6536156.39;5.459134;45.898368;;;CONAND;ROUTE DE LA CALINE;inconnue;inconnue
01111_0018_01403;01111_0018;1403;;Route de la Caline;01230;01111;Conand;;;890526.1;6536632.58;5.457853;45.902686;;;CONAND;ROUTE DE LA CALINE;inconnue;inconnue
01111_0018_01427;01111_0018;1427;;Route de la Caline;01230;01111;Conand;;;890525.92;6536633.47;5.457851;45.902694;;;CONAND;ROUTE DE LA CALINE;inconnue;inconnue
01111_0018_01481;01111_0018;1481;;Route de la Caline;01230;01111;Conand;;;890525.47;6536635.45;5.457846;45.902712;;;CONAND;ROUTE DE LA CALINE;inconnue;inconnue
01111_0018_01846;01111_0018;1846;;Route de la Caline;01230;01111;Conand;;;890544.82;6536575.04;5.458071;45.902163;;;CONAND;ROUTE DE LA CALINE;cadastre;inconnue
01111_0018_01858;01111_0018;1858;;Route de la Caline;01230;01111;Conand;;;890539.4;6536609;5.458015;45.90247;;;CONAND;ROUTE DE LA CALINE;inconnue;inconnue
01111_0018_02007;01111_0018;2007;;Route de la Caline;01230;01111;Conand;;;890507.51;6536754;5.457662;45.903784;;;CONAND;ROUTE DE LA CALINE;inconnue;inconnue
01111_0018_00174_a;01111_0018;174;a;Route de la Caline;01230;01111;Conand;;;891654.49;6535554.88;5.471965;45.892669;;;CONAND;ROUTE DE LA CALINE;inconnue;inconnue
01111_0018_00174_b;01111_0018;174;b;Route de la Caline;01230;01111;Conand;;;891638.8;6535562.95;5.471766;45.892746;;;CONAND;ROUTE DE LA CALINE;inconnue;inconnue
01111_0018_00189_a;01111_0018;189;a;Route de la Caline;01230;01111;Conand;;;891630.54;6535556.58;5.471657;45.892691;;;CONAND;ROUTE DE LA CALINE;inconnue;inconnue
01111_0018_00189_b;01111_0018;189;b;Route de la Caline;01230;01111;Conand;;;891628.97;6535557.09;5.471637;45.892696;;;CONAND;ROUTE DE LA CALINE;inconnue;inconnue
01111_0018_01846_a;01111_0018;1846;a;Route de la Caline;01230;01111;Conand;;;890540.83;6536595.38;5.458028;45.902347;;;CONAND;ROUTE DE LA CALINE;inconnue;inconnue
01111_0018_01846_b;01111_0018;1846;b;Route de la Caline;01230;01111;Conand;;;890540.62;6536597.15;5.458026;45.902363;;;CONAND;ROUTE DE LA CALINE;inconnue;inconnue
01111_0018_01846_c;01111_0018;1846;c;Route de la Caline;01230;01111;Conand;;;890540.74;6536595.82;5.458027;45.902351;;;CONAND;ROUTE DE LA CALINE;inconnue;inconnue
01111_0032_00018;01111_0032;18;;Impasse du Four;01230;01111;Conand;;;891237.72;6535686.39;5.466646;45.89397;;;CONAND;IMPASSE DU FOUR;inconnue;inconnue
01111_0032_00030;01111_0032;30;;Impasse du Four;01230;01111;Conand;;;891244;6535693.92;5.46673;45.894036;;;CONAND;IMPASSE DU FOUR;inconnue;inconnue
01111_0010_00008;01111_0010;8;;Impasse du Bac;01230;01111;Conand;;;891688.83;6535533.52;5.472399;45.892467;;;CONAND;IMPASSE DU BAC;inconnue;inconnue
01111_0010_00027;01111_0010;27;;Impasse du Bac;01230;01111;Conand;;;891697;6535549.99;5.472511;45.892613;;;CONAND;IMPASSE DU BAC;inconnue;inconnue
01111_0010_00035;01111_0010;35;;Impasse du Bac;01230;01111;Conand;;;891696.39;6535544.75;5.472501;45.892566;;;CONAND;IMPASSE DU BAC;inconnue;inconnue
01111_0049_00004;01111_0049;4;;Chemin du Moulin;01230;01111;Conand;;;891678.21;6535523.41;5.472258;45.892379;;;CONAND;CHEMIN DU MOULIN;inconnue;inconnue
01111_0049_00010;01111_0049;10;;Chemin du Moulin;01230;01111;Conand;;;891668.78;6535514.59;5.472133;45.892302;;;CONAND;CHEMIN DU MOULIN;cadastre;inconnue
01111_0049_00014;01111_0049;14;;Chemin du Moulin;01230;01111;Conand;;;891678.79;6535514.54;5.472262;45.892299;;;CONAND;CHEMIN DU MOULIN;inconnue;inconnue
01111_0049_00100;01111_0049;100;;Chemin du Moulin;01230;01111;Conand;;;891678.79;6535514.54;5.472262;45.892299;;;CONAND;CHEMIN DU MOULIN;inconnue;inconnue
01111_0049_00010_a;01111_0049;10;a;Chemin du Moulin;01230;01111;Conand;;;891678.5;6535518.97;5.47226;45.892339;;;CONAND;CHEMIN DU MOULIN;inconnue;inconnue
01111_0049_00010_b;01111_0049;10;b;Chemin du Moulin;01230;01111;Conand;;;891680.03;6535504.69;5.472274;45.89221;;;CONAND;CHEMIN DU MOULIN;inconnue;inconnue
01111_0013_00170;01111_0013;170;;Chemin de la Boissiere;01230;01111;Conand;;;891729.03;6535651.99;5.472965;45.893522;;;CONAND;CHEMIN DE LA BOISSIERE;inconnue;inconnue
01117_85bhcm_00036;;36;;Sous le Verger;01300;01117;Conzieu;;;902894.67;6517628.71;5.609201;45.728073;;;CONZIEU;SOUS LE VERGER;inconnue;inconnue
01117_85bhcm_00307;;307;;Sous le Verger;01300;01117;Conzieu;;;902894.67;6517628.71;5.609201;45.728073;;;CONZIEU;SOUS LE VERGER;inconnue;inconnue
01117_0128_00465;01117_0128;465;;Route de Fayne;01300;01117;Conzieu;;;902098.94;6518785.57;5.599465;45.738721;;;CONZIEU;ROUTE DE FAYNE;inconnue;inconnue
01117_0065_00050;01117_0065;50;;Impasse de la Source;01300;01117;Conzieu;;;902919.36;6517420.75;5.60943;45.726194;;;CONZIEU;IMPASSE DE LA SOURCE;inconnue;inconnue
01117_0065_00056;01117_0065;56;;Impasse de la Source;01300;01117;Conzieu;;;902905.17;6517440.5;5.609256;45.726376;;;CONZIEU;IMPASSE DE LA SOURCE;inconnue;inconnue
01117_0065_00070;01117_0065;70;;Impasse de la Source;01300;01117;Conzieu;;;902890.69;6517450.02;5.609074;45.726466;;;CONZIEU;IMPASSE DE LA SOURCE;inconnue;inconnue
01117_0011_00241;01117_0011;241;;Chemin du Buis;01300;01117;Conzieu;;;903104.87;6517437.66;5.611821;45.726291;;;CONZIEU;CHEMIN DU BUIS;inconnue;inconnue
01117_0129_00054;01117_0129;54;;Chemin de la Fontaine;01300;01117;Conzieu;;;901966.23;6518685.65;5.597717;45.737861;;;CONZIEU;CHEMIN DE LA FONTAINE;inconnue;inconnue
01117_0135_00063;01117_0135;63;;Rue de Tantenay;01300;01117;Conzieu;;;902066.94;6518564.19;5.59896;45.736738;;;CONZIEU;RUE DE TANTENAY;inconnue;inconnue
01117_0135_00117;01117_0135;117;;Rue de Tantenay;01300;01117;Conzieu;;;902060.01;6518604.4;5.598888;45.737102;;;CONZIEU;RUE DE TANTENAY;inconnue;inconnue
01117_0135_00126;01117_0135;126;;Rue de Tantenay;01300;01117;Conzieu;;;902117.47;6518626.96;5.599636;45.737288;;;CONZIEU;RUE DE TANTENAY;inconnue;inconnue
01117_0135_00152;01117_0135;152;;Rue de Tantenay;01300;01117;Conzieu;;;902103.41;6518640.5;5.599461;45.737414;;;CONZIEU;RUE DE TANTENAY;inconnue;inconnue
01117_0135_00154;01117_0135;154;;Rue de Tantenay;01300;01117;Conzieu;;;902118.38;6518658.21;5.599661;45.737569;;;CONZIEU;RUE DE TANTENAY;inconnue;inconnue
01117_0135_00156;01117_0135;156;;Rue de Tantenay;01300;01117;Conzieu;;;902101.82;6518662.67;5.59945;45.737614;;;CONZIEU;RUE DE TANTENAY;inconnue;inconnue
01117_0135_00206;01117_0135;206;;Rue de Tantenay;01300;01117;Conzieu;;;902092.02;6518707.46;5.599343;45.73802;;;CONZIEU;RUE DE TANTENAY;inconnue;inconnue
01117_0135_00254;01117_0135;254;;Rue de Tantenay;01300;01117;Conzieu;;;902072.22;6518777.03;5.599118;45.738652;;;CONZIEU;RUE DE TANTENAY;inconnue;inconnue
01117_0135_00278;01117_0135;278;;Rue de Tantenay;01300;01117;Conzieu;;;902033.2;6518757.19;5.598608;45.738485;;;CONZIEU;RUE DE TANTENAY;inconnue;inconnue
01117_0135_00280;01117_0135;280;;Rue de Tantenay;01300;01117;Conzieu;;;901982.53;6518741.18;5.59795;45.738356;;;CONZIEU;RUE DE TANTENAY;inconnue;inconnue
01117_0135_00310;01117_0135;310;;Rue de Tantenay;01300;01117;Conzieu;;;902008.69;6518752.38;5.598291;45.738449;;;CONZIEU;RUE DE TANTENAY;inconnue;inconnue
01117_0135_00325;01117_0135;325;;Rue de Tantenay;01300;01117;Conzieu;;;902038.54;6518772.25;5.598683;45.738619;;;CONZIEU;RUE DE TANTENAY;inconnue;inconnue
01117_0135_00358;01117_0135;358;;Rue de Tantenay;01300;01117;Conzieu;;;901989.48;6518790.19;5.59806;45.738795;;;CONZIEU;RUE DE TANTENAY;inconnue;inconnue
01117_0060_00019;01117_0060;19;;Impasse des Roches;01300;01117;Conzieu;;;902770.53;6517428.94;5.607521;45.726312;;;CONZIEU;IMPASSE DES ROCHES;inconnue;inconnue
01117_0060_00030;01117_0060;30;;Impasse des Roches;01300;01117;Conzieu;;;902786.2;6517414.24;5.607716;45.726175;;;CONZIEU;IMPASSE DES ROCHES;inconnue;inconnue
01117_0060_00038;01117_0060;38;;Impasse des Roches;01300;01117;Conzieu;;;902810.76;6517415.05;5.608032;45.726175;;;CONZIEU;IMPASSE DES ROCHES;inconnue;inconnue
01117_0055_00022;01117_0055;22;;Impasse du Monument;01300;01117;Conzieu;;;902793.53;6517479.7;5.607838;45.726762;;;CONZIEU;IMPASSE DU MONUMENT;inconnue;inconnue
01117_0138_00076;01117_0138;76;;Rue du Village;01300;01117;Conzieu;;;902907.8;6517405.7;5.609275;45.726062;;;CONZIEU;RUE DU VILLAGE;inconnue;inconnue
01117_0138_00110;01117_0138;110;;Rue du Village;01300;01117;Conzieu;;;902871.73;6517411.51;5.608814;45.726125;;;CONZIEU;RUE DU VILLAGE;inconnue;inconnue
01117_0138_00125;01117_0138;125;;Rue du Village;01300;01117;Conzieu;;;902823.67;6517316.48;5.608156;45.725284;;;CONZIEU;RUE DU VILLAGE;inconnue;inconnue
01117_0138_00173;01117_0138;173;;Rue du Village;01300;01117;Conzieu;;;902800.88;6517370.17;5.607886;45.725774;;;CONZIEU;RUE DU VILLAGE;inconnue;inconnue
01117_0138_00183;01117_0138;183;;Rue du Village;01300;01117;Conzieu;;;902776.16;6517362.24;5.607565;45.72571;;;CONZIEU;RUE DU VILLAGE;inconnue;inconnue
01117_0138_00196;01117_0138;196;;Rue du Village;01300;01117;Conzieu;;;902792.68;6517404.01;5.607795;45.726081;;;CONZIEU;RUE DU VILLAGE;inconnue;inconnue
01117_0138_00205;01117_0138;205;;Rue du Village;01300;01117;Conzieu;;;902773;6517391;5.607537;45.72597;;;CONZIEU;RUE DU VILLAGE;arcep;inconnue
01117_0138_00247;01117_0138;247;;Rue du Village;01300;01117;Conzieu;;;902733.16;6517417.71;5.607036;45.726222;;;CONZIEU;RUE DU VILLAGE;inconnue;inconnue
01117_0138_00248;01117_0138;248;;Rue du Village;01300;01117;Conzieu;;;902774.79;6517443.75;5.607582;45.726444;;;CONZIEU;RUE DU VILLAGE;inconnue;inconnue
01117_0138_00261;01117_0138;261;;Rue du Village;01300;01117;Conzieu;;;902725.4;6517433.67;5.606943;45.726368;;;CONZIEU;RUE DU VILLAGE;inconnue;inconnue
01117_0138_00285;01117_0138;285;;Rue du Village;01300;01117;Conzieu;;;902709.47;6517446.93;5.606744;45.726492;;;CONZIEU;RUE DU VILLAGE;inconnue;inconnue
01117_0138_00300;01117_0138;300;;Rue du Village;01300;01117;Conzieu;;;902694.58;6517476.21;5.606565;45.72676;;;CONZIEU;RUE DU VILLAGE;inconnue;inconnue
01117_0138_00352;01117_0138;352;;Rue du Village;01300;01117;Conzieu;;;902669.23;6517499.15;5.606249;45.726974;;;CONZIEU;RUE DU VILLAGE;inconnue;inconnue
01117_0138_00361;01117_0138;361;;Rue du Village;01300;01117;Conzieu;;;902629.41;6517493.84;5.605735;45.726938;;;CONZIEU;RUE DU VILLAGE;inconnue;inconnue
01117_0138_00409;01117_0138;409;;Rue du Village;01300;01117;Conzieu;;;902571.87;6517506.38;5.605001;45.727068;;;CONZIEU;RUE DU VILLAGE;inconnue;inconnue
01117_0138_00441;01117_0138;441;;Rue du Village;01300;01117;Conzieu;;;902583.19;6517547.76;5.605164;45.727437;;;CONZIEU;RUE DU VILLAGE;inconnue;inconnue
01117_0138_00487;01117_0138;487;;Rue du Village;01300;01117;Conzieu;;;902531.03;6517581.37;5.604508;45.727755;;;CONZIEU;RUE DU VILLAGE;inconnue;inconnue
01117_0070_00036;01117_0070;36;;Chemin sous le Verger;01300;01117;Conzieu;;;902972.81;6517404.85;5.61011;45.726035;;;CONZIEU;CHEMIN SOUS LE VERGER;inconnue;inconnue
01117_0070_00044;01117_0070;44;;Chemin sous le Verger;01300;01117;Conzieu;;;902942.38;6517404.73;5.609719;45.726043;;;CONZIEU;CHEMIN SOUS LE VERGER;inconnue;inconnue
01117_0070_00307;01117_0070;307;;Chemin sous le Verger;01300;01117;Conzieu;;;902898.11;6517625.83;5.609244;45.728046;;;CONZIEU;CHEMIN SOUS LE VERGER;inconnue;inconnue
01117_0026_00043;01117_0026;43;;Impasse de l'Eglise;01300;01117;Conzieu;;;902721.38;6517470.43;5.606907;45.7267;;;CONZIEU;IMPASSE DE L EGLISE;inconnue;inconnue
01117_0050_00035;01117_0050;35;;Chemin de la Lechere;01300;01117;Conzieu;;;902131;6518426.41;5.599725;45.735479;;;CONZIEU;CHEMIN DE LA LECHERE;inconnue;inconnue
01117_0050_00047;01117_0050;47;;Chemin de la Lechere;01300;01117;Conzieu;;;902144.5;6518418.18;5.599895;45.735401;;;CONZIEU;CHEMIN DE LA LECHERE;inconnue;inconnue
01117_0131_00001;01117_0131;1;;Place de la Mairie;01300;01117;Conzieu;;;902708.99;6517586.47;5.606797;45.727748;;;CONZIEU;PLACE DE LA MAIRIE;inconnue;inconnue
01117_0134_00020;01117_0134;20;;Chemin sous la Mairie;01300;01117;Conzieu;;;902761.46;6517500.98;5.607435;45.726963;;;CONZIEU;CHEMIN SOUS LA MAIRIE;inconnue;inconnue
01117_0045_00044;01117_0045;44;;Rue des Lacs;01300;01117;Conzieu;;;902717.41;6517395.19;5.606824;45.726024;;;CONZIEU;RUE DES LACS;inconnue;inconnue
01117_0045_00052;01117_0045;52;;Rue des Lacs;01300;01117;Conzieu;;;902686.21;6517392.71;5.606422;45.726011;;;CONZIEU;RUE DES LACS;inconnue;inconnue
01117_0045_00082;01117_0045;82;;Rue des Lacs;01300;01117;Conzieu;;;902670.02;6517362.18;5.606201;45.725741;;;CONZIEU;RUE DES LACS;inconnue;inconnue
01117_0045_00085;01117_0045;85;;Rue des Lacs;01300;01117;Conzieu;;;902712.21;6517347.46;5.606737;45.725596;;;CONZIEU;RUE DES LACS;inconnue;inconnue
01117_0045_00093;01117_0045;93;;Rue des Lacs;01300;01117;Conzieu;;;902695.8;6517347.36;5.606526;45.7256;;;CONZIEU;RUE DES LACS;inconnue;inconnue
01117_0045_00108;01117_0045;108;;Rue des Lacs;01300;01117;Conzieu;;;902665.54;6517351.7;5.606139;45.725648;;;CONZIEU;RUE DES LACS;inconnue;inconnue
01117_0045_00111;01117_0045;111;;Rue des Lacs;01300;01117;Conzieu;;;902680.78;6517330.64;5.606326;45.725454;;;CONZIEU;RUE DES LACS;inconnue;inconnue
01117_0045_00128;01117_0045;128;;Rue des Lacs;01300;01117;Conzieu;;;902639.82;6517343.51;5.605805;45.725582;;;CONZIEU;RUE DES LACS;inconnue;inconnue
01117_0036_00005;01117_0036;5;;Rue du Four;01300;01117;Conzieu;;;902103.72;6518685.17;5.599484;45.737816;;;CONZIEU;RUE DU FOUR;inconnue;inconnue
01117_0036_00025;01117_0036;25;;Rue du Four;01300;01117;Conzieu;;;902121.53;6518692.65;5.599716;45.737878;;;CONZIEU;RUE DU FOUR;inconnue;inconnue
01117_0036_00045;01117_0036;45;;Rue du Four;01300;01117;Conzieu;;;902135.99;6518700.01;5.599905;45.73794;;;CONZIEU;RUE DU FOUR;inconnue;inconnue
01117_0137_00060;01117_0137;60;;Impasse des Vignes;01300;01117;Conzieu;;;902103.54;6518504.17;5.599405;45.736187;;;CONZIEU;IMPASSE DES VIGNES;inconnue;inconnue
01117_0137_00061;01117_0137;61;;Impasse des Vignes;01300;01117;Conzieu;;;902042.69;6518494.72;5.598619;45.73612;;;CONZIEU;IMPASSE DES VIGNES;inconnue;inconnue
01117_0137_00065;01117_0137;65;;Impasse des Vignes;01300;01117;Conzieu;;;902042.5;6518519.49;5.598627;45.736343;;;CONZIEU;IMPASSE DES VIGNES;inconnue;inconnue
01117_0137_00082;01117_0137;82;;Impasse des Vignes;01300;01117;Conzieu;;;902036.82;6518420.19;5.598512;45.735451;;;CONZIEU;IMPASSE DES VIGNES;inconnue;inconnue
01117_0137_00101;01117_0137;101;;Impasse des Vignes;01300;01117;Conzieu;;;902067.96;6518422;5.598913;45.735458;;;CONZIEU;IMPASSE DES VIGNES;inconnue;inconnue
01117_0137_00110;01117_0137;110;;Impasse des Vignes;01300;01117;Conzieu;;;901947.97;6518370.38;5.597349;45.735029;;;CONZIEU;IMPASSE DES VIGNES;inconnue;inconnue
01117_0136_00039;01117_0136;39;;Chemin des Vignes;01300;01117;Conzieu;;;902144.44;6518441.18;5.599904;45.735608;;;CONZIEU;CHEMIN DES VIGNES;inconnue;inconnue
01117_0136_00096;01117_0136;96;;Chemin des Vignes;01300;01117;Conzieu;;;902194.63;6518403.17;5.600533;45.735251;;;CONZIEU;CHEMIN DES VIGNES;inconnue;inconnue
01117_0130_00045;01117_0130;45;;Chemin de la Foret;01300;01117;Conzieu;;;902674.18;6517271.54;5.606216;45.724924;;;CONZIEU;CHEMIN DE LA FORET;inconnue;inconnue
01117_0132_00028;01117_0132;28;;Chemin de la Montagne;01300;01117;Conzieu;;;902057.5;6518711.54;5.598901;45.738067;;;CONZIEU;CHEMIN DE LA MONTAGNE;inconnue;inconnue
01117_0132_00088;01117_0132;88;;Chemin de la Montagne;01300;01117;Conzieu;;;901990.01;6518676.99;5.598019;45.737776;;;CONZIEU;CHEMIN DE LA MONTAGNE;inconnue;inconnue
01117_0132_00154;01117_0132;154;;Chemin de la Montagne;01300;01117;Conzieu;;;901956.98;6518633.23;5.597576;45.737392;;;CONZIEU;CHEMIN DE LA MONTAGNE;inconnue;inconnue
01117_0132_00165;01117_0132;165;;Chemin de la Montagne;01300;01117;Conzieu;;;901986.02;6518578.52;5.597926;45.736891;;;CONZIEU;CHEMIN DE LA MONTAGNE;inconnue;inconnue
01117_0025_00086;01117_0025;86;;Chemin de l'Eglise;01300;01117;Conzieu;;;902595.47;6517581.38;5.605336;45.727736;;;CONZIEU;CHEMIN DE L EGLISE;inconnue;inconnue
01117_0025_00256;01117_0025;256;;Chemin de l'Eglise;01300;01117;Conzieu;;;902689.53;6517560.71;5.606536;45.727522;;;CONZIEU;CHEMIN DE L EGLISE;inconnue;inconnue
01117_0133_00021;01117_0133;21;;Rue de Montcarrat;01300;01117;Conzieu;;;902105.23;6518769.45;5.599539;45.738574;;;CONZIEU;RUE DE MONTCARRAT;inconnue;inconnue
01117_0133_00065;01117_0133;65;;Rue de Montcarrat;01300;01117;Conzieu;;;902135.47;6518775;5.59993;45.738615;;;CONZIEU;RUE DE MONTCARRAT;inconnue;inconnue
01117_0015_00084;01117_0015;84;;Rue du Chateau;01300;01117;Conzieu;;;902638.46;6517408.03;5.605815;45.726163;;;CONZIEU;RUE DU CHATEAU;inconnue;inconnue
01117_0015_00103;01117_0015;103;;Rue du Chateau;01300;01117;Conzieu;;;902652.18;6517369.7;5.605975;45.725814;;;CONZIEU;RUE DU CHATEAU;inconnue;inconnue
01117_0015_00122;01117_0015;122;;Rue du Chateau;01300;01117;Conzieu;;;902617;6517383.98;5.605529;45.725953;;;CONZIEU;RUE DU CHATEAU;inconnue;inconnue
01117_0040_00001;01117_0040;1;;Rue des Jardins;01300;01117;Conzieu;;;902098.96;6518735.24;5.599444;45.738268;;;CONZIEU;RUE DES JARDINS;inconnue;inconnue
01117_0040_00035;01117_0040;35;;Rue des Jardins;01300;01117;Conzieu;;;902116.33;6518737.03;5.599668;45.738279;;;CONZIEU;RUE DES JARDINS;inconnue;inconnue
01117_0040_00072;01117_0040;72;;Rue des Jardins;01300;01117;Conzieu;;;902149.66;6518700.69;5.600081;45.737942;;;CONZIEU;RUE DES JARDINS;inconnue;inconnue
01117_0040_00075;01117_0040;75;;Rue des Jardins;01300;01117;Conzieu;;;902165.85;6518752.44;5.600311;45.738403;;;CONZIEU;RUE DES JARDINS;inconnue;inconnue
01247_frm850_00001_b;;1;b;La Vattay;01410;01247;Mijoux;;;934612.79;6592174.42;6.053774;46.388678;;;MIJOUX;LA VATTAY;inconnue;inconnue
01247_frm850_00001_c;;1;c;La Vattay;01410;01247;Mijoux;;;934612.79;6592174.42;6.053774;46.388678;;;MIJOUX;LA VATTAY;inconnue;inconnue
01247_frm850_00001_a;;1;a;La Vattay;01410;01247;Mijoux;;;934612.79;6592174.42;6.053774;46.388678;;;MIJOUX;LA VATTAY;inconnue;inconnue
01247_e0a8bh_00001_x;;1;x;Lieu Dit la Vasserode;01410;01247;Mijoux;;;934643.67;6593959.36;6.055074;46.404728;;;MIJOUX;LIEU DIT LA VASSERODE;inconnue;inconnue
01247_cpt37b_00001_x;;1;x;La Lécherolle;01410;01247;Mijoux;;;934617.08;6593259.95;6.054376;46.398444;;;MIJOUX;LA LECHEROLLE;inconnue;inconnue
01247_vtsko5_00001;;1;;Lotissement les Bovettes;01410;01247;Mijoux;;;927020.7;6584013.24;5.951079;46.317841;;;MIJOUX;LOTISSEMENT LES BOVETTES;inconnue;inconnue
01247_vtsko5_00002;;2;;Lotissement les Bovettes;01410;01247;Mijoux;;;927131;6584004.14;5.952507;46.317722;;;MIJOUX;LOTISSEMENT LES BOVETTES;inconnue;inconnue
01247_vtsko5_00003;;3;;Lotissement les Bovettes;01410;01247;Mijoux;;;927217.49;6584061.27;5.953658;46.318207;;;MIJOUX;LOTISSEMENT LES BOVETTES;inconnue;inconnue
01247_vtsko5_00004;;4;;Lotissement les Bovettes;01410;01247;Mijoux;;;927226.82;6584071.18;5.953784;46.318293;;;MIJOUX;LOTISSEMENT LES BOVETTES;inconnue;inconnue
01247_vtsko5_00005;;5;;Lotissement les Bovettes;01410;01247;Mijoux;;;927236.52;6584083.55;5.953916;46.318401;;;MIJOUX;LOTISSEMENT LES BOVETTES;inconnue;inconnue
01247_vtsko5_00006;;6;;Lotissement les Bovettes;01410;01247;Mijoux;;;927245.66;6584096.56;5.954041;46.318515;;;MIJOUX;LOTISSEMENT LES BOVETTES;inconnue;inconnue
01247_vtsko5_00007;;7;;Lotissement les Bovettes;01410;01247;Mijoux;;;927257.19;6584113.32;5.954199;46.318662;;;MIJOUX;LOTISSEMENT LES BOVETTES;inconnue;inconnue
01247_vtsko5_00008;;8;;Lotissement les Bovettes;01410;01247;Mijoux;;;927263.63;6584122.46;5.954287;46.318742;;;MIJOUX;LOTISSEMENT LES BOVETTES;inconnue;inconnue
01247_vtsko5_00009;;9;;Lotissement les Bovettes;01410;01247;Mijoux;;;927256.43;6584127.52;5.954196;46.31879;;;MIJOUX;LOTISSEMENT LES BOVETTES;inconnue;inconnue
01247_vtsko5_00010;;10;;Lotissement les Bovettes;01410;01247;Mijoux;;;927237.21;6584100.13;5.953933;46.31855;;;MIJOUX;LOTISSEMENT LES BOVETTES;inconnue;inconnue
01247_vtsko5_00011;;11;;Lotissement les Bovettes;01410;01247;Mijoux;;;927217.02;6584073.59;5.953658;46.318318;;;MIJOUX;LOTISSEMENT LES BOVETTES;inconnue;inconnue
01247_vtsko5_00012;;12;;Lotissement les Bovettes;01410;01247;Mijoux;;;927213.99;6584070.37;5.953617;46.31829;;;MIJOUX;LOTISSEMENT LES BOVETTES;inconnue;inconnue
01247_vtsko5_00013;;13;;Lotissement les Bovettes;01410;01247;Mijoux;;;927126.85;6584011.99;5.952457;46.317794;;;MIJOUX;LOTISSEMENT LES BOVETTES;inconnue;inconnue
01247_bvx28z_00008;;8;;La Poste;01410;01247;Mijoux;;;930186.55;6589473.54;5.994884;46.365901;;;MIJOUX;LA POSTE;arcep;arcep
01247_mad81y_00113;;113;;La Site;01410;01247;Mijoux;;;926693.53;6583074.15;5.946375;46.309501;;;MIJOUX;LA SITE;arcep;cadastre
01247_28gb11_01516;;1516;;Rte de la Telecabine;01410;01247;Mijoux;;;931694.26;6589649.71;6.014569;46.36697;;;MIJOUX;RTE DE LA TELECABINE;arcep;arcep
01247_j78iif_00110;;110;;Rte le Creux de la Mainaz;01410;01247;Mijoux;;;932395.78;6589219.09;6.023473;46.362854;;;MIJOUX;RTE LE CREUX DE LA MAINAZ;arcep;arcep
01247_0028_00520;01247_0028;520;;Route de la Vieille Faucille;01410;01247;Mijoux;;;932369.99;6589303.9;6.02318;46.363626;;;MIJOUX;ROUTE DE LA VIEILLE FAUCILLE;inconnue;inconnue
01247_0028_00001_a;01247_0028;1;a;Route de la Vieille Faucille;01410;01247;Mijoux;;;932369.99;6589303.9;6.02318;46.363626;;;MIJOUX;ROUTE DE LA VIEILLE FAUCILLE;inconnue;inconnue
01247_0028_00001_b;01247_0028;1;b;Route de la Vieille Faucille;01410;01247;Mijoux;;;932369.99;6589303.9;6.02318;46.363626;;;MIJOUX;ROUTE DE LA VIEILLE FAUCILLE;inconnue;inconnue
01247_0028_00001_c;01247_0028;1;c;Route de la Vieille Faucille;01410;01247;Mijoux;;;932369.99;6589303.9;6.02318;46.363626;;;MIJOUX;ROUTE DE LA VIEILLE FAUCILLE;inconnue;inconnue
01247_0028_00001_d;01247_0028;1;d;Route de la Vieille Faucille;01410;01247;Mijoux;;;932369.99;6589303.9;6.02318;46.363626;;;MIJOUX;ROUTE DE LA VIEILLE FAUCILLE;inconnue;inconnue
01247_0028_00001_e;01247_0028;1;e;Route de la Vieille Faucille;01410;01247;Mijoux;;;932369.99;6589303.9;6.02318;46.363626;;;MIJOUX;ROUTE DE LA VIEILLE FAUCILLE;inconnue;inconnue
01247_0028_00001_f;01247_0028;1;f;Route de la Vieille Faucille;01410;01247;Mijoux;;;932369.99;6589303.9;6.02318;46.363626;;;MIJOUX;ROUTE DE LA VIEILLE FAUCILLE;inconnue;inconnue
01247_0055_00001;01247_0055;1;;Chemin le Murgani;01410;01247;Mijoux;;;926689.42;6583127.16;5.946347;46.309979;;;MIJOUX;CHEMIN LE MURGANI;inconnue;inconnue
01247_0055_00002;01247_0055;2;;Chemin le Murgani;01410;01247;Mijoux;;;926692.25;6583135.82;5.946388;46.310056;;;MIJOUX;CHEMIN LE MURGANI;inconnue;inconnue
01247_0055_00003;01247_0055;3;;Chemin le Murgani;01410;01247;Mijoux;;;926568.96;6583144;5.944791;46.310171;;;MIJOUX;CHEMIN LE MURGANI;inconnue;inconnue
01247_0055_00004;01247_0055;4;;Chemin le Murgani;01410;01247;Mijoux;;;926533.5;6583198.68;5.944357;46.310675;;;MIJOUX;CHEMIN LE MURGANI;inconnue;inconnue
01247_0055_00005;01247_0055;5;;Chemin le Murgani;01410;01247;Mijoux;;;926471.3;6583222.81;5.943561;46.310913;;;MIJOUX;CHEMIN LE MURGANI;inconnue;inconnue
01247_0055_00006;01247_0055;6;;Chemin le Murgani;01410;01247;Mijoux;;;926374.28;6583290.65;5.942334;46.311556;;;MIJOUX;CHEMIN LE MURGANI;inconnue;inconnue
01247_b053_00001_a;01247_B053;1;a;La Vieille Faucille;01170;01247;Mijoux;;;931884.91;6589498.72;6.016972;46.365546;;;MIJOUX;LA VIEILLE FAUCILLE;inconnue;inconnue
01247_b053_00001_b;01247_B053;1;b;La Vieille Faucille;01170;01247;Mijoux;;;931884.91;6589498.72;6.016972;46.365546;;;MIJOUX;LA VIEILLE FAUCILLE;inconnue;inconnue
01247_b014_00015;01247_B014;15;;Lieu Dit le Creux de la Mainaz;01170;01247;Mijoux;;;932238.13;6589500.45;6.021564;46.36544;;;MIJOUX;LIEU DIT LE CREUX DE LA MAINAZ;inconnue;inconnue
01247_b014_00025;01247_B014;25;;Lieu Dit le Creux de la Mainaz;01170;01247;Mijoux;;;932247.3;6589494.13;6.02168;46.36538;;;MIJOUX;LIEU DIT LE CREUX DE LA MAINAZ;inconnue;inconnue
01247_b014_00045;01247_B014;45;;Lieu Dit le Creux de la Mainaz;01170;01247;Mijoux;;;932263.2;6589476.63;6.021878;46.365217;;;MIJOUX;LIEU DIT LE CREUX DE LA MAINAZ;inconnue;inconnue
01247_b014_00110;01247_B014;110;;Lieu Dit le Creux de la Mainaz;01170;01247;Mijoux;;;932304.58;6589470.88;6.022413;46.365151;;;MIJOUX;LIEU DIT LE CREUX DE LA MAINAZ;inconnue;inconnue
01247_b014_00240;01247_B014;240;;Lieu Dit le Creux de la Mainaz;01170;01247;Mijoux;;;932458.83;6589141.94;6.024254;46.362138;;;MIJOUX;LIEU DIT LE CREUX DE LA MAINAZ;inconnue;inconnue
01247_b014_00255;01247_B014;255;;Lieu Dit le Creux de la Mainaz;01170;01247;Mijoux;;;932330.2;6589388.62;6.022705;46.364402;;;MIJOUX;LIEU DIT LE CREUX DE LA MAINAZ;inconnue;inconnue
01247_b014_00265;01247_B014;265;;Lieu Dit le Creux de la Mainaz;01170;01247;Mijoux;;;932252.83;6589488.23;6.021749;46.365325;;;MIJOUX;LIEU DIT LE CREUX DE LA MAINAZ;inconnue;inconnue
01247_b014_00275;01247_B014;275;;Lieu Dit le Creux de la Mainaz;01170;01247;Mijoux;;;932322.21;6589372.31;6.022593;46.364258;;;MIJOUX;LIEU DIT LE CREUX DE LA MAINAZ;inconnue;inconnue
01247_b014_00280;01247_B014;280;;Lieu Dit le Creux de la Mainaz;01170;01247;Mijoux;;;932543.81;6589084.62;6.02533;46.361593;;;MIJOUX;LIEU DIT LE CREUX DE LA MAINAZ;inconnue;inconnue
01247_b014_00285;01247_B014;285;;Lieu Dit le Creux de la Mainaz;01170;01247;Mijoux;;;932320.72;6589363.03;6.022569;46.364175;;;MIJOUX;LIEU DIT LE CREUX DE LA MAINAZ;inconnue;inconnue
01247_b014_00290;01247_B014;290;;Lieu Dit le Creux de la Mainaz;01170;01247;Mijoux;;;932312.23;6589345.59;6.02245;46.364021;;;MIJOUX;LIEU DIT LE CREUX DE LA MAINAZ;inconnue;inconnue
01247_b014_00295;01247_B014;295;;Lieu Dit le Creux de la Mainaz;01170;01247;Mijoux;;;932266.28;6589458.52;6.021909;46.365053;;;MIJOUX;LIEU DIT LE CREUX DE LA MAINAZ;inconnue;inconnue
01247_b014_00320;01247_B014;320;;Lieu Dit le Creux de la Mainaz;01170;01247;Mijoux;;;932321.78;6589319.06;6.022561;46.363779;;;MIJOUX;LIEU DIT LE CREUX DE LA MAINAZ;inconnue;inconnue
01247_b014_00360;01247_B014;360;;Lieu Dit le Creux de la Mainaz;01170;01247;Mijoux;;;932350.38;6589297.59;6.022922;46.363576;;;MIJOUX;LIEU DIT LE CREUX DE LA MAINAZ;inconnue;inconnue
01247_b014_00390;01247_B014;390;;Lieu Dit le Creux de la Mainaz;01170;01247;Mijoux;;;932367.5;6589274.35;6.023133;46.363361;;;MIJOUX;LIEU DIT LE CREUX DE LA MAINAZ;inconnue;inconnue
01247_b014_00420;01247_B014;420;;Lieu Dit le Creux de la Mainaz;01170;01247;Mijoux;;;932393.41;6589258.79;6.023462;46.363212;;;MIJOUX;LIEU DIT LE CREUX DE LA MAINAZ;inconnue;inconnue
01247_b014_00430;01247_B014;430;;Lieu Dit le Creux de la Mainaz;01170;01247;Mijoux;;;932416.34;6589090.19;6.023676;46.361687;;;MIJOUX;LIEU DIT LE CREUX DE LA MAINAZ;inconnue;inconnue
01247_b014_00440;01247_B014;440;;Lieu Dit le Creux de la Mainaz;01170;01247;Mijoux;;;932410.73;6589248.56;6.023682;46.363114;;;MIJOUX;LIEU DIT LE CREUX DE LA MAINAZ;inconnue;inconnue
01247_b014_00490;01247_B014;490;;Lieu Dit le Creux de la Mainaz;01170;01247;Mijoux;;;932442.99;6589215.9;6.024085;46.362809;;;MIJOUX;LIEU DIT LE CREUX DE LA MAINAZ;inconnue;inconnue
01247_b014_00520;01247_B014;520;;Lieu Dit le Creux de la Mainaz;01170;01247;Mijoux;;;932447.82;6589210.42;6.024145;46.362758;;;MIJOUX;LIEU DIT LE CREUX DE LA MAINAZ;inconnue;inconnue
01247_b014_00570;01247_B014;570;;Lieu Dit le Creux de la Mainaz;01170;01247;Mijoux;;;932492.07;6589163.77;6.024697;46.362323;;;MIJOUX;LIEU DIT LE CREUX DE LA MAINAZ;inconnue;inconnue
01247_b014_00660;01247_B014;660;;Lieu Dit le Creux de la Mainaz;01170;01247;Mijoux;;;932516.6;6589073.8;6.024971;46.361505;;;MIJOUX;LIEU DIT LE CREUX DE LA MAINAZ;inconnue;inconnue
01247_b014_00670;01247_B014;670;;Lieu Dit le Creux de la Mainaz;01170;01247;Mijoux;;;932515.18;6589064.74;6.024948;46.361424;;;MIJOUX;LIEU DIT LE CREUX DE LA MAINAZ;inconnue;inconnue
01247_b014_00680;01247_B014;680;;Lieu Dit le Creux de la Mainaz;01170;01247;Mijoux;;;932511.79;6589056.84;6.0249;46.361354;;;MIJOUX;LIEU DIT LE CREUX DE LA MAINAZ;inconnue;inconnue
01247_b014_00690;01247_B014;690;;Lieu Dit le Creux de la Mainaz;01170;01247;Mijoux;;;932507.93;6589049.13;6.024846;46.361286;;;MIJOUX;LIEU DIT LE CREUX DE LA MAINAZ;inconnue;inconnue
01247_b014_00720;01247_B014;720;;Lieu Dit le Creux de la Mainaz;01170;01247;Mijoux;;;932486.47;6589035.08;6.02456;46.361167;;;MIJOUX;LIEU DIT LE CREUX DE LA MAINAZ;inconnue;inconnue
01247_b014_00745;01247_B014;745;;Lieu Dit le Creux de la Mainaz;01170;01247;Mijoux;;;932322.73;6589336.65;6.022582;46.363937;;;MIJOUX;LIEU DIT LE CREUX DE LA MAINAZ;inconnue;inconnue
01247_b014_00750;01247_B014;750;;Lieu Dit le Creux de la Mainaz;01170;01247;Mijoux;;;932461.27;6589046.01;6.024238;46.361274;;;MIJOUX;LIEU DIT LE CREUX DE LA MAINAZ;inconnue;inconnue
01247_b014_00780;01247_B014;780;;Lieu Dit le Creux de la Mainaz;01170;01247;Mijoux;;;932233.92;6589254.88;6.021387;46.363232;;;MIJOUX;LIEU DIT LE CREUX DE LA MAINAZ;arcep;inconnue
01247_b014_00800;01247_B014;800;;Lieu Dit le Creux de la Mainaz;01170;01247;Mijoux;;;932401.22;6589063.16;6.023466;46.361449;;;MIJOUX;LIEU DIT LE CREUX DE LA MAINAZ;inconnue;inconnue
01247_b014_00820;01247_B014;820;;Lieu Dit le Creux de la Mainaz;01170;01247;Mijoux;;;932384.19;6589071.73;6.023249;46.361532;;;MIJOUX;LIEU DIT LE CREUX DE LA MAINAZ;inconnue;inconnue
01247_b014_00850;01247_B014;850;;Lieu Dit le Creux de la Mainaz;01170;01247;Mijoux;;;932362.97;6589091.48;6.022983;46.361717;;;MIJOUX;LIEU DIT LE CREUX DE LA MAINAZ;inconnue;inconnue
01247_b014_00880;01247_B014;880;;Lieu Dit le Creux de la Mainaz;01170;01247;Mijoux;;;932136.77;6589270.19;6.020132;46.363403;;;MIJOUX;LIEU DIT LE CREUX DE LA MAINAZ;inconnue;inconnue
01247_b014_01000;01247_B014;1000;;Lieu Dit le Creux de la Mainaz;01170;01247;Mijoux;;;932143.04;6589317.55;6.020237;46.363827;;;MIJOUX;LIEU DIT LE CREUX DE LA MAINAZ;inconnue;inconnue
01247_b014_01005;01247_B014;1005;;Lieu Dit le Creux de la Mainaz;01170;01247;Mijoux;;;932181.19;6589247.55;6.020698;46.363184;;;MIJOUX;LIEU DIT LE CREUX DE LA MAINAZ;inconnue;inconnue
01247_b014_01020;01247_B014;1020;;Lieu Dit le Creux de la Mainaz;01170;01247;Mijoux;;;932182.21;6589309.27;6.020742;46.363739;;;MIJOUX;LIEU DIT LE CREUX DE LA MAINAZ;inconnue;inconnue
01247_b014_01030;01247_B014;1030;;Lieu Dit le Creux de la Mainaz;01170;01247;Mijoux;;;932335.9;6589197.57;6.022684;46.362681;;;MIJOUX;LIEU DIT LE CREUX DE LA MAINAZ;inconnue;inconnue
01247_b014_01040;01247_B014;1040;;Lieu Dit le Creux de la Mainaz;01170;01247;Mijoux;;;932325.8;6589196.19;6.022552;46.362672;;;MIJOUX;LIEU DIT LE CREUX DE LA MAINAZ;inconnue;inconnue
01247_b014_00001_a;01247_B014;1;a;Lieu Dit le Creux de la Mainaz;01170;01247;Mijoux;;;932226;6589493.76;6.021403;46.365384;;;MIJOUX;LIEU DIT LE CREUX DE LA MAINAZ;inconnue;inconnue
01247_b014_00001_b;01247_B014;1;b;Lieu Dit le Creux de la Mainaz;01170;01247;Mijoux;;;932224.88;6589492.83;6.021388;46.365376;;;MIJOUX;LIEU DIT LE CREUX DE LA MAINAZ;inconnue;inconnue
01247_b014_00001_c;01247_B014;1;c;Lieu Dit le Creux de la Mainaz;01170;01247;Mijoux;;;932224.88;6589492.83;6.021388;46.365376;;;MIJOUX;LIEU DIT LE CREUX DE LA MAINAZ;inconnue;inconnue
01247_0040_00006;01247_0040;6;;Rue de la Malle Poste;01410;01247;Mijoux;;;930160.02;6589491.37;5.994548;46.366071;;;MIJOUX;RUE DE LA MALLE POSTE;inconnue;inconnue
01247_0040_00007;01247_0040;7;;Rue de la Malle Poste;01410;01247;Mijoux;;;930061.84;6589467.31;5.99326;46.365888;;;MIJOUX;RUE DE LA MALLE POSTE;inconnue;inconnue
01247_0080_00008;01247_0080;8;;Rue Royale;01410;01247;Mijoux;;;930219.86;6589584.88;5.995372;46.366892;;;MIJOUX;RUE ROYALE;inconnue;inconnue
01247_0080_00642;01247_0080;642;;Rue Royale;01410;01247;Mijoux;;;930207.65;6589606.76;5.995224;46.367093;;;MIJOUX;RUE ROYALE;inconnue;inconnue
01293_kbuyl3_00012;;12;;Le Truchet;01430;01293;Peyriat;;;893758.52;6564634.69;5.511008;46.153802;;;PEYRIAT;LE TRUCHET;inconnue;inconnue
01293_kbuyl3_00060;;60;;Le Truchet;01430;01293;Peyriat;;;893782.33;6564672.45;5.511332;46.154135;;;PEYRIAT;LE TRUCHET;inconnue;inconnue
01293_kbuyl3_00077;;77;;Le Truchet;01430;01293;Peyriat;;;893780.5;6564678.95;5.511311;46.154194;;;PEYRIAT;LE TRUCHET;inconnue;inconnue
01293_kbuyl3_00089;;89;;Le Truchet;01430;01293;Peyriat;;;893778.49;6564710.55;5.511298;46.154479;;;PEYRIAT;LE TRUCHET;inconnue;inconnue
01293_kbuyl3_00120;;120;;Le Truchet;01430;01293;Peyriat;;;893773.99;6564735.51;5.51125;46.154705;;;PEYRIAT;LE TRUCHET;inconnue;inconnue
01293_kbuyl3_00123;;123;;Le Truchet;01430;01293;Peyriat;;;893778.12;6564731.98;5.511302;46.154672;;;PEYRIAT;LE TRUCHET;inconnue;inconnue
01293_bkpnoo_00116;;116;;Chemin de la Vy Bourbon;01430;01293;Peyriat;;;893584.5;6564738.16;5.508797;46.154783;;;PEYRIAT;CHEMIN DE LA VY BOURBON;inconnue;inconnue
01293_bkpnoo_00142;;142;;Chemin de la Vy Bourbon;01430;01293;Peyriat;;;893585.91;6564703.65;5.508801;46.154472;;;PEYRIAT;CHEMIN DE LA VY BOURBON;inconnue;inconnue
01293_bkpnoo_00149;;149;;Chemin de la Vy Bourbon;01430;01293;Peyriat;;;893586.79;6564736.67;5.508826;46.154769;;;PEYRIAT;CHEMIN DE LA VY BOURBON;inconnue;inconnue
01293_bkpnoo_00181;;181;;Chemin de la Vy Bourbon;01430;01293;Peyriat;;;893588.94;6564669.08;5.508826;46.15416;;;PEYRIAT;CHEMIN DE LA VY BOURBON;inconnue;inconnue
01293_0015_00048;01293_0015;48;;Impasse du Foriou;01430;01293;Peyriat;;;894210.8;6564243.67;5.516704;46.150153;;;PEYRIAT;IMPASSE DU FORIOU;inconnue;inconnue
01293_0015_00052;01293_0015;52;;Impasse du Foriou;01430;01293;Peyriat;;;894201.41;6564255.03;5.516587;46.150258;;;PEYRIAT;IMPASSE DU FORIOU;inconnue;inconnue
01293_0015_00071;01293_0015;71;;Impasse du Foriou;01430;01293;Peyriat;;;894201.48;6564226.04;5.516576;46.149997;;;PEYRIAT;IMPASSE DU FORIOU;inconnue;inconnue
01293_0015_00123;01293_0015;123;;Impasse du Foriou;01430;01293;Peyriat;;;894208.29;6564303.25;5.516696;46.15069;;;PEYRIAT;IMPASSE DU FORIOU;inconnue;inconnue
01293_0015_00179;01293_0015;179;;Impasse du Foriou;01430;01293;Peyriat;;;894234.39;6564341.97;5.51705;46.151031;;;PEYRIAT;IMPASSE DU FORIOU;inconnue;inconnue
01293_0015_00182;01293_0015;182;;Impasse du Foriou;01430;01293;Peyriat;;;894239.51;6564336.47;5.517114;46.15098;;;PEYRIAT;IMPASSE DU FORIOU;inconnue;inconnue
01293_0015_00184;01293_0015;184;;Impasse du Foriou;01430;01293;Peyriat;;;894297.01;6564366.41;5.517871;46.151233;;;PEYRIAT;IMPASSE DU FORIOU;inconnue;inconnue
01293_0015_00233;01293_0015;233;;Impasse du Foriou;01430;01293;Peyriat;;;894272.99;6564383.42;5.517567;46.151393;;;PEYRIAT;IMPASSE DU FORIOU;inconnue;inconnue
01293_0015_00243;01293_0015;243;;Impasse du Foriou;01430;01293;Peyriat;;;894298.4;6564412.23;5.517908;46.151645;;;PEYRIAT;IMPASSE DU FORIOU;inconnue;inconnue
01293_0015_00266;01293_0015;266;;Impasse du Foriou;01430;01293;Peyriat;;;894299.99;6564405.95;5.517926;46.151588;;;PEYRIAT;IMPASSE DU FORIOU;inconnue;inconnue
01293_b107_00011;01293_B107;11;;Vers Grand Vy;01430;01293;Peyriat;;;893691.88;6564634.68;5.510145;46.153821;;;PEYRIAT;VERS GRAND VY;inconnue;inconnue
01293_b107_00049;01293_B107;49;;Vers Grand Vy;01430;01293;Peyriat;;;893647.88;6564631.73;5.509574;46.153807;;;PEYRIAT;VERS GRAND VY;inconnue;inconnue
01293_b107_00080;01293_B107;80;;Vers Grand Vy;01430;01293;Peyriat;;;893610.92;6564638.22;5.509098;46.153876;;;PEYRIAT;VERS GRAND VY;inconnue;inconnue
01293_b107_00106;01293_B107;106;;Vers Grand Vy;01430;01293;Peyriat;;;893590.22;6564657.9;5.508838;46.154059;;;PEYRIAT;VERS GRAND VY;inconnue;inconnue
01293_b107_00187;01293_B107;187;;Vers Grand Vy;01430;01293;Peyriat;;;893537.87;6564572.9;5.508125;46.153309;;;PEYRIAT;VERS GRAND VY;inconnue;inconnue
01293_b107_00211;01293_B107;211;;Vers Grand Vy;01430;01293;Peyriat;;;893529.02;6564554.95;5.508003;46.15315;;;PEYRIAT;VERS GRAND VY;inconnue;inconnue
01293_0023_00010;01293_0023;10;;Chemin de la Maison Vieille;01430;01293;Peyriat;;;893792.84;6564701.45;5.51148;46.154393;;;PEYRIAT;CHEMIN DE LA MAISON VIEILLE;inconnue;inconnue
01293_0023_00048;01293_0023;48;;Chemin de la Maison Vieille;01430;01293;Peyriat;;;893826.96;6564703.98;5.511923;46.154406;;;PEYRIAT;CHEMIN DE LA MAISON VIEILLE;inconnue;inconnue
01293_0014_00211;01293_0014;211;;Chemin de la Fontaine;01430;01293;Peyriat;;;893720.9;6564399.5;5.510424;46.151696;;;PEYRIAT;CHEMIN DE LA FONTAINE;inconnue;inconnue
01293_0010_00033;01293_0010;33;;Chemin de l'Eglise;01430;01293;Peyriat;;;893730.31;6564761.46;5.510695;46.154951;;;PEYRIAT;CHEMIN DE L EGLISE;inconnue;inconnue
01293_0010_00049;01293_0010;49;;Chemin de l'Eglise;01430;01293;Peyriat;;;893771.53;6564749.99;5.511224;46.154836;;;PEYRIAT;CHEMIN DE L EGLISE;inconnue;inconnue
01293_0010_00056;01293_0010;56;;Chemin de l'Eglise;01430;01293;Peyriat;;;893758.42;6564737.35;5.511049;46.154726;;;PEYRIAT;CHEMIN DE L EGLISE;inconnue;inconnue
01293_0010_00112;01293_0010;112;;Chemin de l'Eglise;01430;01293;Peyriat;;;893807.53;6564749.25;5.51169;46.154819;;;PEYRIAT;CHEMIN DE L EGLISE;inconnue;inconnue
01293_0010_00123;01293_0010;123;;Chemin de l'Eglise;01430;01293;Peyriat;;;893905.74;6564725.26;5.512952;46.154575;;;PEYRIAT;CHEMIN DE L EGLISE;inconnue;inconnue
01293_0010_00133;01293_0010;133;;Chemin de l'Eglise;01430;01293;Peyriat;;;893817.38;6564748.01;5.511817;46.154805;;;PEYRIAT;CHEMIN DE L EGLISE;inconnue;inconnue
01293_0010_00147;01293_0010;147;;Chemin de l'Eglise;01430;01293;Peyriat;;;893839.97;6564739.17;5.512106;46.154719;;;PEYRIAT;CHEMIN DE L EGLISE;inconnue;inconnue
01293_0010_00163;01293_0010;163;;Chemin de l'Eglise;01430;01293;Peyriat;;;893849.77;6564734.48;5.512231;46.154674;;;PEYRIAT;CHEMIN DE L EGLISE;inconnue;inconnue
01293_0010_00167;01293_0010;167;;Chemin de l'Eglise;01430;01293;Peyriat;;;893863.47;6564731.03;5.512407;46.154639;;;PEYRIAT;CHEMIN DE L EGLISE;inconnue;inconnue
01293_0010_00179;01293_0010;179;;Chemin de l'Eglise;01430;01293;Peyriat;;;893870.93;6564729.71;5.512503;46.154625;;;PEYRIAT;CHEMIN DE L EGLISE;inconnue;inconnue
01293_0010_00181;01293_0010;181;;Chemin de l'Eglise;01430;01293;Peyriat;;;893875.78;6564727.53;5.512565;46.154604;;;PEYRIAT;CHEMIN DE L EGLISE;inconnue;inconnue
01293_0010_00195;01293_0010;195;;Chemin de l'Eglise;01430;01293;Peyriat;;;893897.23;6564725.66;5.512842;46.154581;;;PEYRIAT;CHEMIN DE L EGLISE;inconnue;inconnue
01293_0010_00181_a;01293_0010;181;a;Chemin de l'Eglise;01430;01293;Peyriat;;;893878.7;6564725.85;5.512602;46.154588;;;PEYRIAT;CHEMIN DE L EGLISE;inconnue;inconnue
01293_0010_00056_a;01293_0010;56;a;Chemin de l'Eglise;01430;01293;Peyriat;;;893732.68;6564740.42;5.510717;46.154761;;;PEYRIAT;CHEMIN DE L EGLISE;inconnue;inconnue
01293_0016_00029;01293_0016;29;;Chemin de la Fruitière;01430;01293;Peyriat;;;893789;6564513.67;5.511353;46.152704;;;PEYRIAT;CHEMIN DE LA FRUITIERE;inconnue;inconnue
01293_0016_00037;01293_0016;37;;Chemin de la Fruitière;01430;01293;Peyriat;;;893798.91;6564510.65;5.51148;46.152674;;;PEYRIAT;CHEMIN DE LA FRUITIERE;inconnue;inconnue
01293_0016_00103;01293_0016;103;;Chemin de la Fruitière;01430;01293;Peyriat;;;893838.99;6564415.7;5.51196;46.151808;;;PEYRIAT;CHEMIN DE LA FRUITIERE;inconnue;inconnue
01293_0016_00134;01293_0016;134;;Chemin de la Fruitière;01430;01293;Peyriat;;;893824.47;6564495.91;5.511805;46.152534;;;PEYRIAT;CHEMIN DE LA FRUITIERE;inconnue;inconnue
01293_0016_00154;01293_0016;154;;Chemin de la Fruitière;01430;01293;Peyriat;;;893838.87;6564441.37;5.511969;46.152039;;;PEYRIAT;CHEMIN DE LA FRUITIERE;inconnue;inconnue
01293_0042_00028;01293_0042;28;;Impasse de la Pierre;01430;01293;Peyriat;;;894052.67;6564146.18;5.514616;46.149321;;;PEYRIAT;IMPASSE DE LA PIERRE;inconnue;inconnue
01293_0042_00061;01293_0042;61;;Impasse de la Pierre;01430;01293;Peyriat;;;894053.78;6564104.22;5.514613;46.148943;;;PEYRIAT;IMPASSE DE LA PIERRE;inconnue;inconnue
01293_0042_00097;01293_0042;97;;Impasse de la Pierre;01430;01293;Peyriat;;;894052.27;6564071.4;5.51458;46.148648;;;PEYRIAT;IMPASSE DE LA PIERRE;inconnue;inconnue
01293_0042_00104;01293_0042;104;;Impasse de la Pierre;01430;01293;Peyriat;;;894046.9;6564065.45;5.514508;46.148596;;;PEYRIAT;IMPASSE DE LA PIERRE;inconnue;inconnue
01293_0042_00123;01293_0042;123;;Impasse de la Pierre;01430;01293;Peyriat;;;894049.77;6564050.54;5.514539;46.148461;;;PEYRIAT;IMPASSE DE LA PIERRE;inconnue;inconnue
01293_0042_00132;01293_0042;132;;Impasse de la Pierre;01430;01293;Peyriat;;;894045.78;6564042.52;5.514484;46.14839;;;PEYRIAT;IMPASSE DE LA PIERRE;inconnue;inconnue
01293_0050_00053;01293_0050;53;;Rue du Village;01430;01293;Peyriat;;;893774.47;6564380.65;5.51111;46.151511;;;PEYRIAT;RUE DU VILLAGE;inconnue;inconnue
01293_0050_00093;01293_0050;93;;Rue du Village;01430;01293;Peyriat;;;893769.27;6564417.93;5.511058;46.151848;;;PEYRIAT;RUE DU VILLAGE;inconnue;inconnue
01293_0050_00148;01293_0050;148;;Rue du Village;01430;01293;Peyriat;;;893765.87;6564493.38;5.511045;46.152528;;;PEYRIAT;RUE DU VILLAGE;inconnue;inconnue
01293_0050_00171;01293_0050;171;;Rue du Village;01430;01293;Peyriat;;;893756.81;6564498.86;5.51093;46.15258;;;PEYRIAT;RUE DU VILLAGE;inconnue;inconnue
01293_0050_00189;01293_0050;189;;Rue du Village;01430;01293;Peyriat;;;893753.03;6564532.74;5.510895;46.152886;;;PEYRIAT;RUE DU VILLAGE;inconnue;inconnue
01293_0050_00200;01293_0050;200;;Rue du Village;01430;01293;Peyriat;;;893761.07;6564532.67;5.510999;46.152883;;;PEYRIAT;RUE DU VILLAGE;inconnue;inconnue
01293_0050_00206;01293_0050;206;;Rue du Village;01430;01293;Peyriat;;;893759.6;6564544.62;5.510985;46.152991;;;PEYRIAT;RUE DU VILLAGE;inconnue;inconnue
01293_0050_00328;01293_0050;328;;Rue du Village;01430;01293;Peyriat;;;893708.01;6564637.42;5.510355;46.153841;;;PEYRIAT;RUE DU VILLAGE;inconnue;inconnue
01293_0050_00356;01293_0050;356;;Rue du Village;01430;01293;Peyriat;;;893699.21;6564663.92;5.510252;46.154082;;;PEYRIAT;RUE DU VILLAGE;inconnue;inconnue
01293_0050_00376;01293_0050;376;;Rue du Village;01430;01293;Peyriat;;;893702.49;6564679.69;5.510301;46.154223;;;PEYRIAT;RUE DU VILLAGE;inconnue;inconnue
01293_0050_00396;01293_0050;396;;Rue du Village;01430;01293;Peyriat;;;893707.03;6564699.72;5.510368;46.154402;;;PEYRIAT;RUE DU VILLAGE;inconnue;inconnue
01293_0050_00407;01293_0050;407;;Rue du Village;01430;01293;Peyriat;;;893705.21;6564715.55;5.510351;46.154545;;;PEYRIAT;RUE DU VILLAGE;inconnue;inconnue
01293_0050_00500;01293_0050;500;;Rue du Village;01430;01293;Peyriat;;;893680.8;6564808.21;5.510073;46.155386;;;PEYRIAT;RUE DU VILLAGE;inconnue;inconnue
01293_0025_00009;01293_0025;9;;Chemin de la Morne;01430;01293;Peyriat;;;894162.81;6564177.03;5.516055;46.149567;;;PEYRIAT;CHEMIN DE LA MORNE;inconnue;inconnue
01293_0025_00017;01293_0025;17;;Chemin de la Morne;01430;01293;Peyriat;;;894161.23;6564168.53;5.516031;46.149491;;;PEYRIAT;CHEMIN DE LA MORNE;inconnue;inconnue
01293_0025_00025;01293_0025;25;;Chemin de la Morne;01430;01293;Peyriat;;;894159.69;6564158.7;5.516007;46.149403;;;PEYRIAT;CHEMIN DE LA MORNE;inconnue;inconnue
01293_0025_00030;01293_0025;30;;Chemin de la Morne;01430;01293;Peyriat;;;894156.79;6564155.17;5.515968;46.149372;;;PEYRIAT;CHEMIN DE LA MORNE;inconnue;inconnue
01293_0025_00037;01293_0025;37;;Chemin de la Morne;01430;01293;Peyriat;;;894157.81;6564147.53;5.515978;46.149303;;;PEYRIAT;CHEMIN DE LA MORNE;inconnue;inconnue
01293_0025_00133;01293_0025;133;;Chemin de la Morne;01430;01293;Peyriat;;;894114.17;6564079.92;5.515385;46.148707;;;PEYRIAT;CHEMIN DE LA MORNE;inconnue;inconnue
01293_0025_00174;01293_0025;174;;Chemin de la Morne;01430;01293;Peyriat;;;894098.17;6564019.75;5.515153;46.14817;;;PEYRIAT;CHEMIN DE LA MORNE;inconnue;inconnue
01293_0025_00232;01293_0025;232;;Chemin de la Morne;01430;01293;Peyriat;;;894095;6563951.87;5.515084;46.14756;;;PEYRIAT;CHEMIN DE LA MORNE;inconnue;inconnue
01293_0025_00025_a;01293_0025;25;a;Chemin de la Morne;01430;01293;Peyriat;;;894163.61;6564149.61;5.516054;46.14932;;;PEYRIAT;CHEMIN DE LA MORNE;inconnue;inconnue
01293_0025_00030_a;01293_0025;30;a;Chemin de la Morne;01430;01293;Peyriat;;;894115.71;6564113.86;5.515419;46.149012;;;PEYRIAT;CHEMIN DE LA MORNE;inconnue;inconnue
01293_0021_00006;01293_0021;6;;Route de Maillat;01430;01293;Peyriat;;;893804.67;6564387.72;5.511504;46.151566;;;PEYRIAT;ROUTE DE MAILLAT;inconnue;inconnue
01293_0021_00431;01293_0021;431;;Route de Maillat;01430;01293;Peyriat;;;894041.02;6564177.48;5.514478;46.149606;;;PEYRIAT;ROUTE DE MAILLAT;inconnue;inconnue
01293_0021_00477;01293_0021;477;;Route de Maillat;01430;01293;Peyriat;;;894153.49;6564190.95;5.51594;46.149695;;;PEYRIAT;ROUTE DE MAILLAT;inconnue;inconnue
01293_0021_00496;01293_0021;496;;Route de Maillat;01430;01293;Peyriat;;;894128.51;6564187.04;5.515615;46.149667;;;PEYRIAT;ROUTE DE MAILLAT;inconnue;inconnue
01293_0021_00516;01293_0021;516;;Route de Maillat;01430;01293;Peyriat;;;894150.29;6564187.18;5.515897;46.149662;;;PEYRIAT;ROUTE DE MAILLAT;inconnue;inconnue
01293_0021_00546;01293_0021;546;;Route de Maillat;01430;01293;Peyriat;;;894183.01;6564185.45;5.51632;46.149637;;;PEYRIAT;ROUTE DE MAILLAT;inconnue;inconnue
01293_0021_00548;01293_0021;548;;Route de Maillat;01430;01293;Peyriat;;;894187.91;6564186.71;5.516384;46.149647;;;PEYRIAT;ROUTE DE MAILLAT;inconnue;inconnue
01293_0021_00560;01293_0021;560;;Route de Maillat;01430;01293;Peyriat;;;894200.87;6564189.46;5.516553;46.149668;;;PEYRIAT;ROUTE DE MAILLAT;inconnue;inconnue
01293_0021_00597;01293_0021;597;;Route de Maillat;01430;01293;Peyriat;;;894230.02;6564181.17;5.516927;46.149585;;;PEYRIAT;ROUTE DE MAILLAT;inconnue;inconnue
01293_b109_00116;01293_B109;116;;La Vy Bourbon;01430;01293;Peyriat;;;893584.56;6564738.29;5.508798;46.154784;;;PEYRIAT;LA VY BOURBON;cadastre;cadastre
01293_b109_00142;01293_B109;142;;La Vy Bourbon;01430;01293;Peyriat;;;893585.9;6564703.85;5.508801;46.154474;;;PEYRIAT;LA VY BOURBON;cadastre;cadastre
01293_b109_00149;01293_B109;149;;La Vy Bourbon;01430;01293;Peyriat;;;893586.81;6564736.85;5.508826;46.154771;;;PEYRIAT;LA VY BOURBON;cadastre;cadastre
01296_1fcczv_00115;;115;;Les Communes;01270;01296;Pirajoux;;;874489.76;6590198.05;5.270965;46.389142;;;PIRAJOUX;LES COMMUNES;inconnue;inconnue
01296_3uw5gd_00501;;501;;La Tournelle;01270;01296;Pirajoux;;;872527.11;6591869.93;5.246054;46.404696;;;PIRAJOUX;LA TOURNELLE;inconnue;inconnue
01296_3uw5gd_00530;;530;;La Tournelle;01270;01296;Pirajoux;;;872527.11;6591869.93;5.246054;46.404696;;;PIRAJOUX;LA TOURNELLE;inconnue;inconnue
01296_3uw5gd_00661;;661;;La Tournelle;01270;01296;Pirajoux;;;872527.11;6591869.93;5.246054;46.404696;;;PIRAJOUX;LA TOURNELLE;inconnue;inconnue
01296_3uw5gd_00665;;665;;La Tournelle;01270;01296;Pirajoux;;;872527.11;6591869.93;5.246054;46.404696;;;PIRAJOUX;LA TOURNELLE;inconnue;inconnue
01296_3uw5gd_00729;;729;;La Tournelle;01270;01296;Pirajoux;;;872527.11;6591869.93;5.246054;46.404696;;;PIRAJOUX;LA TOURNELLE;inconnue;inconnue
01296_3uw5gd_01025;;1025;;La Tournelle;01270;01296;Pirajoux;;;872527.11;6591869.93;5.246054;46.404696;;;PIRAJOUX;LA TOURNELLE;inconnue;inconnue
01296_3uw5gd_01045;;1045;;La Tournelle;01270;01296;Pirajoux;;;872527.11;6591869.93;5.246054;46.404696;;;PIRAJOUX;LA TOURNELLE;inconnue;inconnue
01296_nknsb2_00890;;890;;La Maretiere;01270;01296;Pirajoux;;;873096.14;6591810.83;5.253436;46.404018;;;PIRAJOUX;LA MARETIERE;inconnue;inconnue
01296_nknsb2_00922;;922;;La Maretiere;01270;01296;Pirajoux;;;873096.14;6591810.83;5.253436;46.404018;;;PIRAJOUX;LA MARETIERE;inconnue;inconnue
01296_nknsb2_00944;;944;;La Maretiere;01270;01296;Pirajoux;;;873096.14;6591810.83;5.253436;46.404018;;;PIRAJOUX;LA MARETIERE;inconnue;inconnue
01296_nknsb2_01120;;1120;;La Maretiere;01270;01296;Pirajoux;;;873096.14;6591810.83;5.253436;46.404018;;;PIRAJOUX;LA MARETIERE;inconnue;inconnue
01296_nknsb2_01140;;1140;;La Maretiere;01270;01296;Pirajoux;;;873096.14;6591810.83;5.253436;46.404018;;;PIRAJOUX;LA MARETIERE;inconnue;inconnue
